{"type":"FeatureCollection","features":[{"type":"Feature","properties":{"HYRIV_ID":20917322,"NEXT_DOWN":20917347,"MAIN_RIV":20917830,"LENGTH_KM":8.4700003,"CATCH_SKM":16.33,"DIS_AV_CMS":0.14,"ORD_STRA":2,"ORD_FLOW":7},"geometry":{"type":"LineString","coordinates":[[41.85624999999894,18.047916666666573],[41.852083333332274,18.047916666666573],[41.84791666666561,18.04375],[41.84791666666561,18.039583333333248],[41.839583333332286,18.03125],[41.83541666666562,18.03125],[41.82291666666566,18.01875],[41.82291666666566,18.014583333333256],[41.81458333333234,18.00625],[41.81041666666559,18.00625],[41.806249999998926,18.00208333333324],[41.806249999998926,17.997916666666576]]}},{"type":"Feature","properties":{"HYRIV_ID":20917323,"NEXT_DOWN":20917348,"MAIN_RIV":20917830,"LENGTH_KM":6.1300001,"CATCH_SKM":33.27,"DIS_AV_CMS":0.032,"ORD_STRA":1,"ORD_FLOW":8},"geometry":{"type":"LineString","coordinates":[[41.87916666666564,18.03125],[41.872916666665645,18.03125],[41.86874999999898,18.02708333333323],[41.86874999999898,18.022916666666568],[41.86458333333232,18.01875],[41.86458333333232,18.010416666666593],[41.85624999999894,18.00208333333324],[41.84791666666561,18.00208333333324],[41.84374999999895,17.997916666666576]]}},{"type":"Feature","properties":{"HYRIV_ID":20917324,"NEXT_DOWN":20917776,"MAIN_RIV":20918682,"LENGTH_KM":9.3599997,"CATCH_SKM":33.48,"DIS_AV_CMS":0.014,"ORD_STRA":1,"ORD_FLOW":8},"geometry":{"type":"LineString","coordinates":[[42.02083333333226,18.0375],[42.01458333333227,18.03125],[42.00624999999897,18.03125],[41.989583333332234,18.014583333333256],[41.9854166666656,18.014583333333256],[41.977083333332274,18.00625],[41.97291666666561,18.00625],[41.96874999999895,18.00208333333324],[41.964583333332286,18.00208333333324],[41.96041666666565,17.997916666666576],[41.95624999999899,18.00208333333324],[41.952083333332325,18.00208333333324]]}},{"type":"Feature","properties":{"HYRIV_ID":20917346,"NEXT_DOWN":20917232,"MAIN_RIV":20917830,"LENGTH_KM":2.3800001,"CATCH_SKM":5.7199998,"DIS_AV_CMS":0.42300001,"ORD_STRA":3,"ORD_FLOW":7},"geometry":{"type":"LineString","coordinates":[[41.79791666666563,17.99375],[41.7895833333323,18.00208333333324],[41.7895833333323,18.00625],[41.78541666666564,18.010416666666593]]}},{"type":"Feature","properties":{"HYRIV_ID":20917347,"NEXT_DOWN":20917346,"MAIN_RIV":20917830,"LENGTH_KM":1.08,"CATCH_SKM":1.43,"DIS_AV_CMS":0.278,"ORD_STRA":3,"ORD_FLOW":7},"geometry":{"type":"LineString","coordinates":[[41.806249999998926,17.997916666666576],[41.80208333333229,17.997916666666576],[41.79791666666563,17.99375]]}},{"type":"Feature","properties":{"HYRIV_ID":20917348,"NEXT_DOWN":20917347,"MAIN_RIV":20917830,"LENGTH_KM":4.7600002,"CATCH_SKM":11.02,"DIS_AV_CMS":0.12,"ORD_STRA":2,"ORD_FLOW":7},"geometry":{"type":"LineString","coordinates":[[41.84374999999895,17.997916666666576],[41.827083333332325,17.997916666666576],[41.82291666666566,18.00208333333324],[41.81458333333234,17.99375],[41.81041666666559,17.99375],[41.806249999998926,17.997916666666576]]}},{"type":"Feature","properties":{"HYRIV_ID":20917430,"NEXT_DOWN":20917455,"MAIN_RIV":20917830,"LENGTH_KM":3.1700001,"CATCH_SKM":15.31,"DIS_AV_CMS":0.011,"ORD_STRA":1,"ORD_FLOW":8},"geometry":{"type":"LineString","coordinates":[[41.90416666666559,18.00416666666657],[41.897916666665594,17.997916666666576],[41.90208333333226,17.99375],[41.897916666665594,17.989583333333265],[41.897916666665594,17.98125]]}},{"type":"Feature","properties":{"HYRIV_ID":20917455,"NEXT_DOWN":20917348,"MAIN_RIV":20917830,"LENGTH_KM":6.9200001,"CATCH_SKM":27.16,"DIS_AV_CMS":0.05,"ORD_STRA":2,"ORD_FLOW":8},"geometry":{"type":"LineString","coordinates":[[41.897916666665594,17.98125],[41.89374999999893,17.977083333333248],[41.88958333333227,17.98125],[41.88124999999897,17.98125],[41.87708333333231,17.9854166666666],[41.86458333333232,17.9854166666666],[41.86041666666557,17.989583333333265],[41.852083333332274,17.989583333333265],[41.84374999999895,17.997916666666576]]}},{"type":"Feature","properties":{"HYRIV_ID":20917456,"NEXT_DOWN":20917455,"MAIN_RIV":20917830,"LENGTH_KM":2.48,"CATCH_SKM":17.559999,"DIS_AV_CMS":0.011,"ORD_STRA":1,"ORD_FLOW":8},"geometry":{"type":"LineString","coordinates":[[41.916666666665634,17.983333333333228],[41.91041666666564,17.977083333333248],[41.90208333333226,17.977083333333248],[41.897916666665594,17.98125]]}},{"type":"Feature","properties":{"HYRIV_ID":20917556,"NEXT_DOWN":20917346,"MAIN_RIV":20917830,"LENGTH_KM":4.5900002,"CATCH_SKM":12.46,"DIS_AV_CMS":0.103,"ORD_STRA":2,"ORD_FLOW":7},"geometry":{"type":"LineString","coordinates":[[41.81041666666559,17.960416666666568],[41.81041666666559,17.96875],[41.806249999998926,17.972916666666585],[41.806249999998926,17.977083333333248],[41.793749999998965,17.989583333333265],[41.79791666666563,17.99375]]}},{"type":"Feature","properties":{"HYRIV_ID":20917557,"NEXT_DOWN":20917556,"MAIN_RIV":20917830,"LENGTH_KM":2.9200001,"CATCH_SKM":23.690001,"DIS_AV_CMS":0.031,"ORD_STRA":1,"ORD_FLOW":8},"geometry":{"type":"LineString","coordinates":[[41.83333333333229,17.958333333333236],[41.827083333332325,17.96458333333323],[41.82291666666566,17.960416666666568],[41.81041666666559,17.960416666666568]]}},{"type":"Feature","properties":{"HYRIV_ID":20917624,"NEXT_DOWN":20917556,"MAIN_RIV":20917830,"LENGTH_KM":1.62,"CATCH_SKM":12.46,"DIS_AV_CMS":0.027,"ORD_STRA":1,"ORD_FLOW":8},"geometry":{"type":"LineString","coordinates":[[41.81041666666559,17.94583333333322],[41.81041666666559,17.960416666666568]]}},{"type":"Feature","properties":{"HYRIV_ID":20917701,"NEXT_DOWN":0,"MAIN_RIV":20917701,"LENGTH_KM":1.97,"CATCH_SKM":17.15,"DIS_AV_CMS":0.073,"ORD_STRA":1,"ORD_FLOW":8},"geometry":{"type":"LineString","coordinates":[[41.7020833333323,17.954166666666588],[41.7020833333323,17.94791666666655],[41.693749999999,17.93958333333328]]}},{"type":"Feature","properties":{"HYRIV_ID":20917776,"NEXT_DOWN":20917804,"MAIN_RIV":20918682,"LENGTH_KM":9.04,"CATCH_SKM":24.3,"DIS_AV_CMS":0.168,"ORD_STRA":2,"ORD_FLOW":7},"geometry":{"type":"LineString","coordinates":[[41.952083333332325,18.00208333333324],[41.952083333332325,17.99375],[41.94791666666566,17.989583333333265],[41.94791666666566,17.98125],[41.943749999999,17.977083333333248],[41.943749999999,17.96458333333323],[41.94791666666566,17.960416666666568],[41.94791666666566,17.94375],[41.943749999999,17.93958333333328],[41.943749999999,17.927083333333265]]}},{"type":"Feature","properties":{"HYRIV_ID":20917777,"NEXT_DOWN":20917804,"MAIN_RIV":20918682,"LENGTH_KM":4.0500002,"CATCH_SKM":15.72,"DIS_AV_CMS":0.01,"ORD_STRA":1,"ORD_FLOW":8},"geometry":{"type":"LineString","coordinates":[[41.96666666666562,17.949999999999882],[41.96041666666565,17.94375],[41.95624999999899,17.94375],[41.95624999999899,17.935416666666576],[41.94791666666566,17.927083333333265],[41.943749999999,17.927083333333265]]}},{"type":"Feature","properties":{"HYRIV_ID":20917778,"NEXT_DOWN":20918185,"MAIN_RIV":20918682,"LENGTH_KM":3.6500001,"CATCH_SKM":12.25,"DIS_AV_CMS":0.007,"ORD_STRA":1,"ORD_FLOW":9},"geometry":{"type":"LineString","coordinates":[[41.997916666665645,17.958333333333236],[41.997916666665645,17.93958333333328],[42.00208333333231,17.935416666666576],[42.00208333333231,17.927083333333265]]}},{"type":"Feature","properties":{"HYRIV_ID":20917803,"NEXT_DOWN":20917942,"MAIN_RIV":20918682,"LENGTH_KM":4.6,"CATCH_SKM":29.82,"DIS_AV_CMS":0.019,"ORD_STRA":1,"ORD_FLOW":8},"geometry":{"type":"LineString","coordinates":[[41.92291666666563,17.949999999999882],[41.92291666666563,17.94375],[41.92708333333229,17.93958333333328],[41.92708333333229,17.935416666666576],[41.93958333333225,17.92291666666656],[41.94791666666566,17.92291666666656]]}},{"type":"Feature","properties":{"HYRIV_ID":20917804,"NEXT_DOWN":20917942,"MAIN_RIV":20918682,"LENGTH_KM":0.64,"CATCH_SKM":0.41,"DIS_AV_CMS":0.182,"ORD_STRA":2,"ORD_FLOW":7},"geometry":{"type":"LineString","coordinates":[[41.943749999999,17.927083333333265],[41.94791666666566,17.92291666666656]]}},{"type":"Feature","properties":{"HYRIV_ID":20917830,"NEXT_DOWN":0,"MAIN_RIV":20917830,"LENGTH_KM":14.07,"CATCH_SKM":58.599998,"DIS_AV_CMS":2.8840001,"ORD_STRA":4,"ORD_FLOW":6},"geometry":{"type":"LineString","coordinates":[[41.747916666665645,18.010416666666593],[41.74374999999898,18.00625],[41.73958333333232,18.00625],[41.73958333333232,17.99375],[41.74374999999898,17.989583333333265],[41.74374999999898,17.9854166666666],[41.75208333333231,17.977083333333248],[41.75208333333231,17.96875],[41.747916666665645,17.96458333333323],[41.747916666665645,17.960416666666568],[41.75208333333231,17.95625],[41.75208333333231,17.952083333333256],[41.747916666665645,17.94791666666655],[41.73541666666566,17.94791666666655],[41.71874999999895,17.93125],[41.71874999999895,17.92291666666656],[41.714583333332286,17.918749999999896]]}},{"type":"Feature","properties":{"HYRIV_ID":20917890,"NEXT_DOWN":0,"MAIN_RIV":20917890,"LENGTH_KM":3.74,"CATCH_SKM":21.24,"DIS_AV_CMS":0.092,"ORD_STRA":1,"ORD_FLOW":8},"geometry":{"type":"LineString","coordinates":[[41.75208333333231,17.92083333333327],[41.75208333333231,17.914583333333248],[41.747916666665645,17.910416666666585],[41.73124999999891,17.910416666666585],[41.727083333332274,17.90625]]}},{"type":"Feature","properties":{"HYRIV_ID":20917942,"NEXT_DOWN":20918136,"MAIN_RIV":20918682,"LENGTH_KM":3.48,"CATCH_SKM":9.1899996,"DIS_AV_CMS":0.236,"ORD_STRA":2,"ORD_FLOW":7},"geometry":{"type":"LineString","coordinates":[[41.94791666666566,17.92291666666656],[41.952083333332325,17.918749999999896],[41.952083333332325,17.914583333333248],[41.96041666666565,17.90625],[41.96041666666565,17.902083333333273],[41.964583333332286,17.897916666666568]]}},{"type":"Feature","properties":{"HYRIV_ID":20917943,"NEXT_DOWN":20918136,"MAIN_RIV":20918682,"LENGTH_KM":1.6,"CATCH_SKM":10.82,"DIS_AV_CMS":0.006,"ORD_STRA":1,"ORD_FLOW":9},"geometry":{"type":"LineString","coordinates":[[41.97499999999894,17.908333333333253],[41.964583333332286,17.897916666666568]]}},{"type":"Feature","properties":{"HYRIV_ID":20918025,"NEXT_DOWN":0,"MAIN_RIV":20918025,"LENGTH_KM":1.6,"CATCH_SKM":12.05,"DIS_AV_CMS":0.046,"ORD_STRA":1,"ORD_FLOW":8},"geometry":{"type":"LineString","coordinates":[[41.7666666666656,17.891666666666573],[41.75624999999894,17.881249999999888]]}},{"type":"Feature","properties":{"HYRIV_ID":20918134,"NEXT_DOWN":0,"MAIN_RIV":20918134,"LENGTH_KM":6.6500001,"CATCH_SKM":42.080002,"DIS_AV_CMS":0.14300001,"ORD_STRA":1,"ORD_FLOW":7},"geometry":{"type":"LineString","coordinates":[[41.793749999998965,17.908333333333253],[41.793749999998965,17.902083333333273],[41.7895833333323,17.897916666666568],[41.7895833333323,17.885416666666593],[41.793749999998965,17.881249999999888],[41.793749999998965,17.872916666666576],[41.7895833333323,17.86875],[41.78541666666564,17.86875],[41.77708333333226,17.8604166666666]]}},{"type":"Feature","properties":{"HYRIV_ID":20918135,"NEXT_DOWN":20918363,"MAIN_RIV":20918682,"LENGTH_KM":11.16,"CATCH_SKM":52.09,"DIS_AV_CMS":0.06,"ORD_STRA":1,"ORD_FLOW":8},"geometry":{"type":"LineString","coordinates":[[41.87916666666564,17.902083333333273],[41.885416666665606,17.902083333333273],[41.88958333333227,17.90625],[41.89374999999893,17.902083333333273],[41.897916666665594,17.902083333333273],[41.90208333333226,17.897916666666568],[41.9145833333323,17.897916666666568],[41.918749999998965,17.89375],[41.92708333333229,17.89375],[41.931249999998954,17.889583333333256],[41.93541666666562,17.889583333333256],[41.93958333333225,17.885416666666593],[41.943749999999,17.885416666666593],[41.943749999999,17.881249999999888],[41.94791666666566,17.87708333333324],[41.94791666666566,17.864583333333265],[41.952083333332325,17.8604166666666]]}},{"type":"Feature","properties":{"HYRIV_ID":20918136,"NEXT_DOWN":20918363,"MAIN_RIV":20918682,"LENGTH_KM":5.0500002,"CATCH_SKM":8.1700001,"DIS_AV_CMS":0.294,"ORD_STRA":2,"ORD_FLOW":7},"geometry":{"type":"LineString","coordinates":[[41.964583333332286,17.897916666666568],[41.96041666666565,17.89375],[41.96041666666565,17.885416666666593],[41.964583333332286,17.881249999999888],[41.964583333332286,17.872916666666576],[41.952083333332325,17.8604166666666]]}},{"type":"Feature","properties":{"HYRIV_ID":20918137,"NEXT_DOWN":20918186,"MAIN_RIV":20918682,"LENGTH_KM":7.9200001,"CATCH_SKM":31.25,"DIS_AV_CMS":0.016,"ORD_STRA":1,"ORD_FLOW":8},"geometry":{"type":"LineString","coordinates":[[42.024999999998926,17.914583333333248],[42.01874999999893,17.914583333333248],[42.01458333333227,17.910416666666585],[42.01458333333227,17.90625],[42.00624999999897,17.897916666666568],[42.00624999999897,17.89375],[41.9937499999989,17.881249999999888],[41.9937499999989,17.86875],[41.989583333332234,17.864583333333265],[41.989583333332234,17.8604166666666]]}},{"type":"Feature","properties":{"HYRIV_ID":20918138,"NEXT_DOWN":20918186,"MAIN_RIV":20918682,"LENGTH_KM":3.71,"CATCH_SKM":21.66,"DIS_AV_CMS":0.01,"ORD_STRA":1,"ORD_FLOW":8},"geometry":{"type":"LineString","coordinates":[[42.02083333333226,17.8604166666666],[42.010416666665634,17.8604166666666],[42.00624999999897,17.864583333333265],[42.00208333333231,17.864583333333265],[41.997916666665645,17.8604166666666],[41.989583333332234,17.8604166666666]]}},{"type":"Feature","properties":{"HYRIV_ID":20918185,"NEXT_DOWN":20918379,"MAIN_RIV":20918682,"LENGTH_KM":9.75,"CATCH_SKM":16.139999,"DIS_AV_CMS":0.047,"ORD_STRA":2,"ORD_FLOW":8},"geometry":{"type":"LineString","coordinates":[[42.00208333333231,17.927083333333265],[41.989583333332234,17.914583333333248],[41.989583333332234,17.910416666666585],[41.98124999999894,17.902083333333273],[41.98124999999894,17.881249999999888],[41.977083333332274,17.87708333333324],[41.977083333332274,17.872916666666576],[41.98124999999894,17.86875],[41.98124999999894,17.864583333333265],[41.977083333332274,17.8604166666666],[41.977083333332274,17.852083333333248]]}},{"type":"Feature","properties":{"HYRIV_ID":20918186,"NEXT_DOWN":20918379,"MAIN_RIV":20918682,"LENGTH_KM":1.72,"CATCH_SKM":2.6600001,"DIS_AV_CMS":0.03,"ORD_STRA":2,"ORD_FLOW":8},"geometry":{"type":"LineString","coordinates":[[41.989583333332234,17.8604166666666],[41.98124999999894,17.852083333333248],[41.977083333332274,17.852083333333248]]}},{"type":"Feature","properties":{"HYRIV_ID":20918363,"NEXT_DOWN":20918455,"MAIN_RIV":20918682,"LENGTH_KM":4.8800001,"CATCH_SKM":8.79,"DIS_AV_CMS":0.419,"ORD_STRA":2,"ORD_FLOW":7},"geometry":{"type":"LineString","coordinates":[[41.952083333332325,17.8604166666666],[41.94791666666566,17.856249999999896],[41.94791666666566,17.839583333333216],[41.943749999999,17.83541666666661],[41.943749999999,17.83125],[41.952083333332325,17.822916666666593]]}},{"type":"Feature","properties":{"HYRIV_ID":20918379,"NEXT_DOWN":20918455,"MAIN_RIV":20918682,"LENGTH_KM":5.23,"CATCH_SKM":8.3800001,"DIS_AV_CMS":0.101,"ORD_STRA":3,"ORD_FLOW":7},"geometry":{"type":"LineString","coordinates":[[41.977083333332274,17.852083333333248],[41.97291666666561,17.847916666666585],[41.97291666666561,17.84375],[41.964583333332286,17.83541666666661],[41.964583333332286,17.83125],[41.96041666666565,17.827083333333242],[41.96041666666565,17.822916666666593],[41.95624999999899,17.81875],[41.952083333332325,17.822916666666593]]}},{"type":"Feature","properties":{"HYRIV_ID":20918404,"NEXT_DOWN":20918454,"MAIN_RIV":20918454,"LENGTH_KM":6.58,"CATCH_SKM":33.3,"DIS_AV_CMS":0.028,"ORD_STRA":1,"ORD_FLOW":8},"geometry":{"type":"LineString","coordinates":[[41.899999999998926,17.866666666666582],[41.91041666666564,17.856249999999896],[41.91041666666564,17.852083333333248],[41.90624999999892,17.847916666666585],[41.90624999999892,17.84375],[41.91041666666564,17.839583333333216],[41.91041666666564,17.814583333333225]]}},{"type":"Feature","properties":{"HYRIV_ID":20918429,"NEXT_DOWN":20918454,"MAIN_RIV":20918454,"LENGTH_KM":5.4400001,"CATCH_SKM":18.59,"DIS_AV_CMS":0.012,"ORD_STRA":1,"ORD_FLOW":8},"geometry":{"type":"LineString","coordinates":[[41.931249999998954,17.84166666666659],[41.931249999998954,17.83541666666661],[41.92708333333229,17.83125],[41.92708333333229,17.827083333333242],[41.931249999998954,17.822916666666593],[41.92291666666563,17.814583333333225],[41.918749999998965,17.814583333333225],[41.9145833333323,17.810416666666576],[41.91041666666564,17.814583333333225]]}},{"type":"Feature","properties":{"HYRIV_ID":20918454,"NEXT_DOWN":0,"MAIN_RIV":20918454,"LENGTH_KM":2.6,"CATCH_SKM":9.2,"DIS_AV_CMS":0.05,"ORD_STRA":2,"ORD_FLOW":8},"geometry":{"type":"LineString","coordinates":[[41.91041666666564,17.814583333333225],[41.90624999999892,17.810416666666576],[41.90208333333226,17.810416666666576],[41.897916666665594,17.80625],[41.88958333333227,17.80625]]}},{"type":"Feature","properties":{"HYRIV_ID":20918455,"NEXT_DOWN":20918682,"MAIN_RIV":20918682,"LENGTH_KM":2.3800001,"CATCH_SKM":5.7199998,"DIS_AV_CMS":0.561,"ORD_STRA":3,"ORD_FLOW":7},"geometry":{"type":"LineString","coordinates":[[41.952083333332325,17.822916666666593],[41.94791666666566,17.81875],[41.94791666666566,17.814583333333225],[41.95624999999899,17.80625]]}},{"type":"Feature","properties":{"HYRIV_ID":20918493,"NEXT_DOWN":20918682,"MAIN_RIV":20918682,"LENGTH_KM":4.62,"CATCH_SKM":23.09,"DIS_AV_CMS":0.014,"ORD_STRA":1,"ORD_FLOW":8},"geometry":{"type":"LineString","coordinates":[[41.98333333333227,17.820833333333262],[41.96874999999895,17.80625],[41.96874999999895,17.80208333333325],[41.964583333332286,17.7979166666666],[41.95624999999899,17.80625]]}},{"type":"Feature","properties":{"HYRIV_ID":20918682,"NEXT_DOWN":0,"MAIN_RIV":20918682,"LENGTH_KM":6.1300001,"CATCH_SKM":13.29,"DIS_AV_CMS":0.68900001,"ORD_STRA":3,"ORD_FLOW":7},"geometry":{"type":"LineString","coordinates":[[41.95624999999899,17.80625],[41.94791666666566,17.7979166666666],[41.94791666666566,17.789583333333233],[41.943749999999,17.785416666666585],[41.943749999999,17.77708333333326],[41.93958333333225,17.772916666666568],[41.93541666666562,17.772916666666568],[41.92708333333229,17.764583333333242]]}},{"type":"Feature","properties":{"HYRIV_ID":20918929,"NEXT_DOWN":0,"MAIN_RIV":20918929,"LENGTH_KM":24.860001,"CATCH_SKM":75.419998,"DIS_AV_CMS":0.27,"ORD_STRA":3,"ORD_FLOW":7},"geometry":{"type":"LineString","coordinates":[[42.07291666666566,17.902083333333273],[42.07291666666566,17.89375],[42.06458333333228,17.885416666666593],[42.06041666666562,17.885416666666593],[42.056249999998954,17.881249999999888],[42.056249999998954,17.87708333333324],[42.05208333333229,17.872916666666576],[42.05208333333229,17.86875],[42.04791666666563,17.864583333333265],[42.04791666666563,17.856249999999896],[42.03541666666567,17.84375],[42.03541666666567,17.839583333333216],[42.02708333333226,17.83125],[42.02708333333226,17.822916666666593],[42.022916666665594,17.81875],[42.022916666665594,17.814583333333225],[42.01458333333227,17.80625],[42.01458333333227,17.80208333333325],[42.00624999999897,17.79375],[42.00208333333231,17.79375],[41.997916666665645,17.789583333333233],[41.997916666665645,17.752083333333225],[41.96874999999895,17.72291666666657]]}},{"type":"Feature","properties":{"HYRIV_ID":20919026,"NEXT_DOWN":0,"MAIN_RIV":20919026,"LENGTH_KM":6.9299998,"CATCH_SKM":24.129999,"DIS_AV_CMS":1.066,"ORD_STRA":3,"ORD_FLOW":6},"geometry":{"type":"LineString","coordinates":[[42.03541666666567,17.747916666666605],[42.03541666666567,17.74375],[42.03124999999892,17.73958333333325],[42.03124999999892,17.735416666666588],[42.022916666665594,17.727083333333233],[42.01874999999893,17.727083333333233],[42.01458333333227,17.72291666666657],[42.010416666665634,17.72291666666657],[41.9937499999989,17.70625]]}},{"type":"Feature","properties":{"HYRIV_ID":20923613,"NEXT_DOWN":0,"MAIN_RIV":20923613,"LENGTH_KM":2.6400001,"CATCH_SKM":16.639999,"DIS_AV_CMS":0.02,"ORD_STRA":1,"ORD_FLOW":8},"geometry":{"type":"LineString","coordinates":[[41.91249999999897,16.91875],[41.92708333333229,16.91875],[41.931249999998954,16.914583333333233],[41.93541666666562,16.914583333333233]]}},{"type":"Feature","properties":{"HYRIV_ID":20924044,"NEXT_DOWN":0,"MAIN_RIV":20924044,"LENGTH_KM":2.71,"CATCH_SKM":20.540001,"DIS_AV_CMS":0.028,"ORD_STRA":1,"ORD_FLOW":8},"geometry":{"type":"LineString","coordinates":[[41.918749999998965,16.85833333333327],[41.918749999998965,16.84375],[41.92291666666563,16.83958333333326],[41.92708333333229,16.83958333333326]]}},{"type":"Feature","properties":{"HYRIV_ID":20924895,"NEXT_DOWN":0,"MAIN_RIV":20924895,"LENGTH_KM":0.96,"CATCH_SKM":16.040001,"DIS_AV_CMS":0.021,"ORD_STRA":1,"ORD_FLOW":8},"geometry":{"type":"LineString","coordinates":[[41.98333333333227,16.691666666666585],[41.989583333332234,16.685416666666605]]}}]}