{"type":"FeatureCollection","features":[{"type":"Feature","properties":{"HYRIV_ID":20863340,"NEXT_DOWN":0,"MAIN_RIV":20863340,"LENGTH_KM":5.2199998,"CATCH_SKM":26.040001,"DIS_AV_CMS":0.0,"ORD_STRA":1,"ORD_FLOW":10},"geometry":{"type":"LineString","coordinates":[[53.80208333333209,24.20833333333315],[53.80208333333209,24.214583333333145],[53.80624999999873,24.218749999999794],[53.80624999999873,24.222916666666457],[53.810416666665475,24.227083333333162],[53.810416666665475,24.235416666666474],[53.82291666666546,24.24791666666649]]}},{"type":"Feature","properties":{"HYRIV_ID":20863381,"NEXT_DOWN":0,"MAIN_RIV":20863381,"LENGTH_KM":3.6400001,"CATCH_SKM":24.870001,"DIS_AV_CMS":0.0,"ORD_STRA":1,"ORD_FLOW":10},"geometry":{"type":"LineString","coordinates":[[53.789583333332104,24.204166666666488],[53.789583333332104,24.214583333333145],[53.78541666666544,24.218749999999794],[53.78541666666544,24.235416666666474]]}},{"type":"Feature","properties":{"HYRIV_ID":20863458,"NEXT_DOWN":0,"MAIN_RIV":20863458,"LENGTH_KM":3.84,"CATCH_SKM":20.17,"DIS_AV_CMS":0.0,"ORD_STRA":1,"ORD_FLOW":10},"geometry":{"type":"LineString","coordinates":[[53.72291666666541,24.195833333333134],[53.72291666666541,24.20208333333317],[53.71458333333209,24.210416666666482],[53.7020833333321,24.210416666666482],[53.69791666666546,24.214583333333145]]}},{"type":"Feature","properties":{"HYRIV_ID":20863730,"NEXT_DOWN":0,"MAIN_RIV":20863730,"LENGTH_KM":2.45,"CATCH_SKM":29.57,"DIS_AV_CMS":0.0,"ORD_STRA":1,"ORD_FLOW":10},"geometry":{"type":"LineString","coordinates":[[53.85833333333204,24.18333333333316],[53.86458333333212,24.177083333333137],[53.86458333333212,24.172916666666474],[53.86041666666537,24.16874999999981],[53.85624999999871,24.16874999999981]]}},{"type":"Feature","properties":{"HYRIV_ID":20864002,"NEXT_DOWN":0,"MAIN_RIV":20864002,"LENGTH_KM":3.8900001,"CATCH_SKM":29.190001,"DIS_AV_CMS":0.0,"ORD_STRA":1,"ORD_FLOW":10},"geometry":{"type":"LineString","coordinates":[[52.60416666666541,24.133333333333134],[52.59791666666544,24.139583333333157],[52.58541666666545,24.139583333333157],[52.58124999999879,24.135416666666508],[52.577083333332126,24.135416666666508],[52.57291666666549,24.139583333333157]]}},{"type":"Feature","properties":{"HYRIV_ID":20864003,"NEXT_DOWN":0,"MAIN_RIV":20864003,"LENGTH_KM":1.79,"CATCH_SKM":15.67,"DIS_AV_CMS":0.0,"ORD_STRA":1,"ORD_FLOW":10},"geometry":{"type":"LineString","coordinates":[[53.90208333333214,24.149999999999814],[53.90208333333214,24.14374999999982],[53.897916666665395,24.139583333333157],[53.897916666665395,24.135416666666508]]}},{"type":"Feature","properties":{"HYRIV_ID":20864032,"NEXT_DOWN":20864033,"MAIN_RIV":20864033,"LENGTH_KM":1.06,"CATCH_SKM":12.73,"DIS_AV_CMS":0.0,"ORD_STRA":1,"ORD_FLOW":10},"geometry":{"type":"LineString","coordinates":[[52.65416666666542,24.131249999999802],[52.66458333333213,24.131249999999802]]}},{"type":"Feature","properties":{"HYRIV_ID":20864033,"NEXT_DOWN":0,"MAIN_RIV":20864033,"LENGTH_KM":0.63,"CATCH_SKM":0.98,"DIS_AV_CMS":0.0,"ORD_STRA":2,"ORD_FLOW":10},"geometry":{"type":"LineString","coordinates":[[52.66458333333213,24.131249999999802],[52.668749999998795,24.135416666666508]]}},{"type":"Feature","properties":{"HYRIV_ID":20864034,"NEXT_DOWN":0,"MAIN_RIV":20864034,"LENGTH_KM":0.94,"CATCH_SKM":13.71,"DIS_AV_CMS":0.0,"ORD_STRA":1,"ORD_FLOW":10},"geometry":{"type":"LineString","coordinates":[[52.81666666666541,24.12916666666647],[52.810416666665446,24.135416666666508]]}},{"type":"Feature","properties":{"HYRIV_ID":20864035,"NEXT_DOWN":0,"MAIN_RIV":20864035,"LENGTH_KM":1.4,"CATCH_SKM":12.73,"DIS_AV_CMS":0.0,"ORD_STRA":1,"ORD_FLOW":10},"geometry":{"type":"LineString","coordinates":[[53.74999999999878,24.141666666666488],[53.74374999999878,24.135416666666508],[53.74374999999878,24.131249999999802]]}},{"type":"Feature","properties":{"HYRIV_ID":20864109,"NEXT_DOWN":0,"MAIN_RIV":20864109,"LENGTH_KM":1.5700001,"CATCH_SKM":14.89,"DIS_AV_CMS":0.0,"ORD_STRA":1,"ORD_FLOW":10},"geometry":{"type":"LineString","coordinates":[[52.933333333332115,24.12083333333316],[52.92708333333212,24.12708333333314],[52.93124999999878,24.131249999999802]]}},{"type":"Feature","properties":{"HYRIV_ID":20864136,"NEXT_DOWN":0,"MAIN_RIV":20864136,"LENGTH_KM":1.39,"CATCH_SKM":3.72,"DIS_AV_CMS":0.0,"ORD_STRA":4,"ORD_FLOW":10},"geometry":{"type":"LineString","coordinates":[[52.872916666665475,24.118749999999785],[52.872916666665475,24.131249999999802]]}},{"type":"Feature","properties":{"HYRIV_ID":20864163,"NEXT_DOWN":0,"MAIN_RIV":20864163,"LENGTH_KM":3.4,"CATCH_SKM":20.18,"DIS_AV_CMS":0.0,"ORD_STRA":2,"ORD_FLOW":10},"geometry":{"type":"LineString","coordinates":[[53.14791666666545,24.114583333333165],[53.14374999999879,24.118749999999785],[53.139583333332126,24.118749999999785],[53.12708333333205,24.131249999999802],[53.12708333333205,24.135416666666508]]}},{"type":"Feature","properties":{"HYRIV_ID":20864189,"NEXT_DOWN":20864190,"MAIN_RIV":20864033,"LENGTH_KM":1.06,"CATCH_SKM":13.91,"DIS_AV_CMS":0.0,"ORD_STRA":1,"ORD_FLOW":10},"geometry":{"type":"LineString","coordinates":[[52.649999999998755,24.110416666666474],[52.66041666666547,24.110416666666474]]}},{"type":"Feature","properties":{"HYRIV_ID":20864190,"NEXT_DOWN":20864033,"MAIN_RIV":20864033,"LENGTH_KM":3.4,"CATCH_SKM":6.0700002,"DIS_AV_CMS":0.0,"ORD_STRA":2,"ORD_FLOW":10},"geometry":{"type":"LineString","coordinates":[[52.66041666666547,24.110416666666474],[52.66458333333213,24.110416666666474],[52.668749999998795,24.114583333333165],[52.668749999998795,24.118749999999785],[52.66041666666547,24.12708333333314],[52.66458333333213,24.131249999999802]]}},{"type":"Feature","properties":{"HYRIV_ID":20864230,"NEXT_DOWN":0,"MAIN_RIV":20864230,"LENGTH_KM":2.8800001,"CATCH_SKM":16.66,"DIS_AV_CMS":0.0,"ORD_STRA":1,"ORD_FLOW":10},"geometry":{"type":"LineString","coordinates":[[52.78541666666541,24.10416666666648],[52.78541666666541,24.114583333333165],[52.77708333333209,24.12291666666649],[52.77708333333209,24.12708333333314]]}},{"type":"Feature","properties":{"HYRIV_ID":20864231,"NEXT_DOWN":0,"MAIN_RIV":20864231,"LENGTH_KM":2.35,"CATCH_SKM":3.53,"DIS_AV_CMS":0.0,"ORD_STRA":2,"ORD_FLOW":10},"geometry":{"type":"LineString","coordinates":[[53.060416666665446,24.10624999999981],[53.05208333333212,24.114583333333165],[53.05208333333212,24.118749999999785],[53.05624999999878,24.12291666666649]]}},{"type":"Feature","properties":{"HYRIV_ID":20864261,"NEXT_DOWN":0,"MAIN_RIV":20864261,"LENGTH_KM":5.29,"CATCH_SKM":20.18,"DIS_AV_CMS":0.0,"ORD_STRA":3,"ORD_FLOW":10},"geometry":{"type":"LineString","coordinates":[[52.71041666666545,24.102083333333148],[52.71041666666545,24.10624999999981],[52.70624999999882,24.110416666666474],[52.70624999999882,24.12708333333314],[52.702083333332155,24.131249999999802],[52.702083333332155,24.135416666666508],[52.69374999999883,24.14374999999982]]}},{"type":"Feature","properties":{"HYRIV_ID":20864262,"NEXT_DOWN":20864163,"MAIN_RIV":20864163,"LENGTH_KM":2.8800001,"CATCH_SKM":17.24,"DIS_AV_CMS":0.0,"ORD_STRA":1,"ORD_FLOW":10},"geometry":{"type":"LineString","coordinates":[[53.16666666666541,24.099999999999817],[53.15624999999875,24.110416666666474],[53.14791666666545,24.110416666666474],[53.14791666666545,24.114583333333165]]}},{"type":"Feature","properties":{"HYRIV_ID":20864263,"NEXT_DOWN":0,"MAIN_RIV":20864263,"LENGTH_KM":0.94,"CATCH_SKM":11.56,"DIS_AV_CMS":0.0,"ORD_STRA":1,"ORD_FLOW":10},"geometry":{"type":"LineString","coordinates":[[53.37083333333209,24.099999999999817],[53.36458333333209,24.10624999999981]]}},{"type":"Feature","properties":{"HYRIV_ID":20864264,"NEXT_DOWN":0,"MAIN_RIV":20864264,"LENGTH_KM":1.3200001,"CATCH_SKM":16.07,"DIS_AV_CMS":0.0,"ORD_STRA":1,"ORD_FLOW":10},"geometry":{"type":"LineString","coordinates":[[53.460416666665424,24.099999999999817],[53.460416666665424,24.10624999999981],[53.46458333333209,24.110416666666474]]}},{"type":"Feature","properties":{"HYRIV_ID":20864311,"NEXT_DOWN":20864231,"MAIN_RIV":20864231,"LENGTH_KM":1.4,"CATCH_SKM":17.25,"DIS_AV_CMS":0.0,"ORD_STRA":1,"ORD_FLOW":10},"geometry":{"type":"LineString","coordinates":[[53.05416666666545,24.095833333333168],[53.060416666665446,24.102083333333148],[53.060416666665446,24.10624999999981]]}},{"type":"Feature","properties":{"HYRIV_ID":20864348,"NEXT_DOWN":0,"MAIN_RIV":20864348,"LENGTH_KM":4.8400002,"CATCH_SKM":20.379999,"DIS_AV_CMS":0.0,"ORD_STRA":1,"ORD_FLOW":10},"geometry":{"type":"LineString","coordinates":[[52.562499999998835,24.091666666666505],[52.556249999998755,24.0979166666665],[52.556249999998755,24.102083333333148],[52.55208333333209,24.10624999999981],[52.556249999998755,24.110416666666474],[52.556249999998755,24.118749999999785],[52.54791666666546,24.12708333333314]]}},{"type":"Feature","properties":{"HYRIV_ID":20864349,"NEXT_DOWN":20864261,"MAIN_RIV":20864261,"LENGTH_KM":1.83,"CATCH_SKM":12.94,"DIS_AV_CMS":0.0,"ORD_STRA":1,"ORD_FLOW":10},"geometry":{"type":"LineString","coordinates":[[52.69999999999882,24.091666666666505],[52.70624999999882,24.0979166666665],[52.71041666666545,24.0979166666665],[52.71041666666545,24.102083333333148]]}},{"type":"Feature","properties":{"HYRIV_ID":20864350,"NEXT_DOWN":0,"MAIN_RIV":20864350,"LENGTH_KM":5.6799998,"CATCH_SKM":30.57,"DIS_AV_CMS":0.0,"ORD_STRA":1,"ORD_FLOW":10},"geometry":{"type":"LineString","coordinates":[[52.96874999999878,24.091666666666505],[52.96874999999878,24.10624999999981],[52.96458333333214,24.110416666666474],[52.96458333333214,24.114583333333165],[52.95624999999882,24.12291666666649],[52.95624999999882,24.12708333333314],[52.94791666666541,24.135416666666508]]}},{"type":"Feature","properties":{"HYRIV_ID":20864384,"NEXT_DOWN":20864231,"MAIN_RIV":20864231,"LENGTH_KM":2.4100001,"CATCH_SKM":15.09,"DIS_AV_CMS":0.0,"ORD_STRA":1,"ORD_FLOW":10},"geometry":{"type":"LineString","coordinates":[[53.06874999999877,24.0874999999998],[53.06874999999877,24.0979166666665],[53.060416666665446,24.10624999999981]]}},{"type":"Feature","properties":{"HYRIV_ID":20864385,"NEXT_DOWN":0,"MAIN_RIV":20864385,"LENGTH_KM":2.8800001,"CATCH_SKM":15.09,"DIS_AV_CMS":0.0,"ORD_STRA":1,"ORD_FLOW":10},"geometry":{"type":"LineString","coordinates":[[53.40624999999878,24.0874999999998],[53.40624999999878,24.093749999999794],[53.402083333332115,24.0979166666665],[53.402083333332115,24.102083333333148],[53.39791666666545,24.10624999999981],[53.39791666666545,24.110416666666474]]}},{"type":"Feature","properties":{"HYRIV_ID":20864434,"NEXT_DOWN":0,"MAIN_RIV":20864434,"LENGTH_KM":6.71,"CATCH_SKM":15.87,"DIS_AV_CMS":0.0,"ORD_STRA":2,"ORD_FLOW":10},"geometry":{"type":"LineString","coordinates":[[52.589583333332115,24.085416666666482],[52.58541666666545,24.08958333333313],[52.58541666666545,24.093749999999794],[52.58124999999879,24.0979166666665],[52.58541666666545,24.102083333333148],[52.58541666666545,24.110416666666474],[52.577083333332126,24.118749999999785],[52.577083333332126,24.12708333333314],[52.56874999999883,24.135416666666508]]}},{"type":"Feature","properties":{"HYRIV_ID":20864435,"NEXT_DOWN":0,"MAIN_RIV":20864435,"LENGTH_KM":1.36,"CATCH_SKM":13.72,"DIS_AV_CMS":0.0,"ORD_STRA":1,"ORD_FLOW":10},"geometry":{"type":"LineString","coordinates":[[53.916666666665435,24.08333333333315],[53.91041666666544,24.08958333333313],[53.906249999998806,24.08958333333313]]}},{"type":"Feature","properties":{"HYRIV_ID":20864479,"NEXT_DOWN":20864261,"MAIN_RIV":20864261,"LENGTH_KM":2.6500001,"CATCH_SKM":5.8800001,"DIS_AV_CMS":0.0,"ORD_STRA":3,"ORD_FLOW":10},"geometry":{"type":"LineString","coordinates":[[52.71874999999878,24.08124999999982],[52.714583333332115,24.085416666666482],[52.714583333332115,24.0979166666665],[52.71041666666545,24.102083333333148]]}},{"type":"Feature","properties":{"HYRIV_ID":20864511,"NEXT_DOWN":0,"MAIN_RIV":20864511,"LENGTH_KM":4.3200002,"CATCH_SKM":20.18,"DIS_AV_CMS":0.0,"ORD_STRA":3,"ORD_FLOW":10},"geometry":{"type":"LineString","coordinates":[[53.22708333333213,24.077083333333157],[53.22708333333213,24.085416666666482],[53.22291666666547,24.08958333333313],[53.23124999999877,24.0979166666665],[53.23541666666543,24.0979166666665],[53.23958333333209,24.102083333333148],[53.23958333333209,24.10624999999981]]}},{"type":"Feature","properties":{"HYRIV_ID":20864554,"NEXT_DOWN":20864434,"MAIN_RIV":20864434,"LENGTH_KM":1.79,"CATCH_SKM":12.35,"DIS_AV_CMS":0.0,"ORD_STRA":1,"ORD_FLOW":10},"geometry":{"type":"LineString","coordinates":[[52.58541666666545,24.070833333333177],[52.58541666666545,24.08124999999982],[52.589583333332115,24.085416666666482]]}},{"type":"Feature","properties":{"HYRIV_ID":20864586,"NEXT_DOWN":20864434,"MAIN_RIV":20864434,"LENGTH_KM":2.77,"CATCH_SKM":8.04,"DIS_AV_CMS":0.0,"ORD_STRA":2,"ORD_FLOW":10},"geometry":{"type":"LineString","coordinates":[[52.60624999999874,24.068749999999802],[52.60624999999874,24.072916666666494],[52.59374999999878,24.085416666666482],[52.589583333332115,24.085416666666482]]}},{"type":"Feature","properties":{"HYRIV_ID":20864587,"NEXT_DOWN":0,"MAIN_RIV":20864587,"LENGTH_KM":8.6700001,"CATCH_SKM":41.349998,"DIS_AV_CMS":0.0,"ORD_STRA":1,"ORD_FLOW":10},"geometry":{"type":"LineString","coordinates":[[53.12499999999875,24.06666666666647],[53.11458333333209,24.077083333333157],[53.11041666666543,24.077083333333157],[53.09791666666547,24.08958333333313],[53.09791666666547,24.110416666666474],[53.093749999998806,24.114583333333165],[53.093749999998806,24.131249999999802]]}},{"type":"Feature","properties":{"HYRIV_ID":20864612,"NEXT_DOWN":20864511,"MAIN_RIV":20864511,"LENGTH_KM":3.83,"CATCH_SKM":15.48,"DIS_AV_CMS":0.0,"ORD_STRA":2,"ORD_FLOW":10},"geometry":{"type":"LineString","coordinates":[[53.197916666665435,24.06458333333314],[53.2020833333321,24.068749999999802],[53.22291666666547,24.068749999999802],[53.22708333333213,24.072916666666494],[53.22708333333213,24.077083333333157]]}},{"type":"Feature","properties":{"HYRIV_ID":20864653,"NEXT_DOWN":0,"MAIN_RIV":20864653,"LENGTH_KM":5.6,"CATCH_SKM":31.559999,"DIS_AV_CMS":0.0,"ORD_STRA":1,"ORD_FLOW":10},"geometry":{"type":"LineString","coordinates":[[52.51666666666543,24.05833333333316],[52.510416666665435,24.06458333333314],[52.510416666665435,24.08958333333313],[52.5145833333321,24.093749999999794],[52.50624999999877,24.102083333333148]]}},{"type":"Feature","properties":{"HYRIV_ID":20864654,"NEXT_DOWN":20864586,"MAIN_RIV":20864434,"LENGTH_KM":4.5100002,"CATCH_SKM":22.15,"DIS_AV_CMS":0.0,"ORD_STRA":1,"ORD_FLOW":10},"geometry":{"type":"LineString","coordinates":[[52.64166666666543,24.05833333333316],[52.63124999999877,24.068749999999802],[52.622916666665475,24.068749999999802],[52.61874999999881,24.072916666666494],[52.61458333333215,24.068749999999802],[52.60624999999874,24.068749999999802]]}},{"type":"Feature","properties":{"HYRIV_ID":20864655,"NEXT_DOWN":20864479,"MAIN_RIV":20864261,"LENGTH_KM":6.6,"CATCH_SKM":11.96,"DIS_AV_CMS":0.0,"ORD_STRA":2,"ORD_FLOW":10},"geometry":{"type":"LineString","coordinates":[[52.7645833333321,24.060416666666477],[52.7645833333321,24.068749999999802],[52.760416666665435,24.068749999999802],[52.7562499999988,24.072916666666494],[52.74374999999881,24.072916666666494],[52.739583333332064,24.077083333333157],[52.7354166666654,24.077083333333157],[52.73124999999877,24.08124999999982],[52.72708333333219,24.08124999999982],[52.72291666666544,24.085416666666482],[52.71874999999878,24.08124999999982]]}},{"type":"Feature","properties":{"HYRIV_ID":20864656,"NEXT_DOWN":20864655,"MAIN_RIV":20864261,"LENGTH_KM":2.53,"CATCH_SKM":16.860001,"DIS_AV_CMS":0.0,"ORD_STRA":1,"ORD_FLOW":10},"geometry":{"type":"LineString","coordinates":[[52.7874999999988,24.06458333333314],[52.772916666665424,24.06458333333314],[52.76874999999876,24.060416666666477],[52.7645833333321,24.060416666666477]]}},{"type":"Feature","properties":{"HYRIV_ID":20864657,"NEXT_DOWN":20864136,"MAIN_RIV":20864136,"LENGTH_KM":10.24,"CATCH_SKM":41.16,"DIS_AV_CMS":0.0,"ORD_STRA":2,"ORD_FLOW":10},"geometry":{"type":"LineString","coordinates":[[52.935416666665446,24.060416666666477],[52.935416666665446,24.06458333333314],[52.93124999999878,24.068749999999802],[52.92708333333212,24.068749999999802],[52.92291666666546,24.072916666666494],[52.91458333333216,24.072916666666494],[52.91041666666541,24.077083333333157],[52.90624999999875,24.077083333333157],[52.89374999999876,24.08958333333313],[52.89374999999876,24.0979166666665],[52.88541666666546,24.10624999999981],[52.8812499999988,24.10624999999981],[52.872916666665475,24.114583333333165],[52.872916666665475,24.118749999999785]]}},{"type":"Feature","properties":{"HYRIV_ID":20864658,"NEXT_DOWN":0,"MAIN_RIV":20864658,"LENGTH_KM":10.84,"CATCH_SKM":29.98,"DIS_AV_CMS":0.0,"ORD_STRA":3,"ORD_FLOW":10},"geometry":{"type":"LineString","coordinates":[[53.01041666666546,24.060416666666477],[53.01041666666546,24.06458333333314],[52.99791666666539,24.077083333333157],[53.00208333333214,24.08124999999982],[53.00208333333214,24.118749999999785],[52.99791666666539,24.12291666666649],[52.993749999998755,24.12291666666649],[52.98958333333209,24.12708333333314],[52.98958333333209,24.139583333333157],[52.993749999998755,24.14374999999982]]}},{"type":"Feature","properties":{"HYRIV_ID":20864743,"NEXT_DOWN":20864190,"MAIN_RIV":20864033,"LENGTH_KM":9.0,"CATCH_SKM":29.4,"DIS_AV_CMS":0.0,"ORD_STRA":1,"ORD_FLOW":10},"geometry":{"type":"LineString","coordinates":[[52.68333333333209,24.045833333333142],[52.67708333333212,24.052083333333123],[52.67708333333212,24.056249999999828],[52.668749999998795,24.06458333333314],[52.668749999998795,24.077083333333157],[52.67708333333212,24.085416666666482],[52.67708333333212,24.08958333333313],[52.67291666666546,24.093749999999794],[52.668749999998795,24.093749999999794],[52.66458333333213,24.0979166666665],[52.66458333333213,24.102083333333148],[52.66041666666547,24.10624999999981],[52.66041666666547,24.110416666666474]]}},{"type":"Feature","properties":{"HYRIV_ID":20864744,"NEXT_DOWN":20864657,"MAIN_RIV":20864136,"LENGTH_KM":2.46,"CATCH_SKM":18.82,"DIS_AV_CMS":0.0,"ORD_STRA":1,"ORD_FLOW":10},"geometry":{"type":"LineString","coordinates":[[52.94999999999882,24.045833333333142],[52.943749999998744,24.052083333333123],[52.93958333333211,24.052083333333123],[52.935416666665446,24.056249999999828],[52.935416666665446,24.060416666666477]]}},{"type":"Feature","properties":{"HYRIV_ID":20864745,"NEXT_DOWN":0,"MAIN_RIV":20864745,"LENGTH_KM":1.39,"CATCH_SKM":2.55,"DIS_AV_CMS":0.0,"ORD_STRA":2,"ORD_FLOW":10},"geometry":{"type":"LineString","coordinates":[[53.756249999998744,24.04791666666646],[53.756249999998744,24.060416666666477]]}},{"type":"Feature","properties":{"HYRIV_ID":20864746,"NEXT_DOWN":0,"MAIN_RIV":20864746,"LENGTH_KM":1.16,"CATCH_SKM":12.15,"DIS_AV_CMS":0.0,"ORD_STRA":1,"ORD_FLOW":10},"geometry":{"type":"LineString","coordinates":[[53.8187499999988,24.045833333333142],[53.8187499999988,24.056249999999828]]}},{"type":"Feature","properties":{"HYRIV_ID":20864747,"NEXT_DOWN":0,"MAIN_RIV":20864747,"LENGTH_KM":2.97,"CATCH_SKM":6.27,"DIS_AV_CMS":0.0,"ORD_STRA":4,"ORD_FLOW":10},"geometry":{"type":"LineString","coordinates":[[53.88124999999877,24.04791666666646],[53.88958333333207,24.056249999999828],[53.88124999999877,24.06458333333314],[53.88124999999877,24.068749999999802]]}},{"type":"Feature","properties":{"HYRIV_ID":20864784,"NEXT_DOWN":0,"MAIN_RIV":20864784,"LENGTH_KM":12.76,"CATCH_SKM":45.869999,"DIS_AV_CMS":0.0,"ORD_STRA":1,"ORD_FLOW":10},"geometry":{"type":"LineString","coordinates":[[52.854166666665435,24.04166666666648],[52.839583333332115,24.056249999999828],[52.839583333332115,24.060416666666477],[52.83541666666548,24.06458333333314],[52.83124999999882,24.06458333333314],[52.827083333332155,24.068749999999802],[52.827083333332155,24.072916666666494],[52.83541666666548,24.08124999999982],[52.83541666666548,24.085416666666482],[52.83124999999882,24.08958333333313],[52.83541666666548,24.093749999999794],[52.83541666666548,24.10624999999981],[52.839583333332115,24.110416666666474],[52.839583333332115,24.114583333333165],[52.85624999999877,24.131249999999802]]}},{"type":"Feature","properties":{"HYRIV_ID":20864785,"NEXT_DOWN":0,"MAIN_RIV":20864785,"LENGTH_KM":7.83,"CATCH_SKM":32.34,"DIS_AV_CMS":0.0,"ORD_STRA":1,"ORD_FLOW":10},"geometry":{"type":"LineString","coordinates":[[53.28541666666541,24.04166666666648],[53.28541666666541,24.056249999999828],[53.28124999999878,24.060416666666477],[53.29374999999874,24.072916666666494],[53.29374999999874,24.08124999999982],[53.297916666665486,24.085416666666482],[53.297916666665486,24.08958333333313],[53.30208333333215,24.08958333333313],[53.30624999999881,24.093749999999794],[53.310416666665446,24.08958333333313]]}},{"type":"Feature","properties":{"HYRIV_ID":20864808,"NEXT_DOWN":20864511,"MAIN_RIV":20864511,"LENGTH_KM":5.25,"CATCH_SKM":6.8600001,"DIS_AV_CMS":0.0,"ORD_STRA":2,"ORD_FLOW":10},"geometry":{"type":"LineString","coordinates":[[53.24791666666542,24.039583333333148],[53.24791666666542,24.04791666666646],[53.243749999998755,24.052083333333123],[53.243749999998755,24.060416666666477],[53.23958333333209,24.06458333333314],[53.23958333333209,24.068749999999802],[53.23124999999877,24.077083333333157],[53.22708333333213,24.077083333333157]]}},{"type":"Feature","properties":{"HYRIV_ID":20864809,"NEXT_DOWN":0,"MAIN_RIV":20864809,"LENGTH_KM":11.21,"CATCH_SKM":44.5,"DIS_AV_CMS":0.0,"ORD_STRA":3,"ORD_FLOW":10},"geometry":{"type":"LineString","coordinates":[[53.40624999999878,24.04374999999981],[53.402083333332115,24.039583333333148],[53.381249999998744,24.039583333333148],[53.37708333333208,24.04374999999981],[53.368749999998755,24.04374999999981],[53.36041666666543,24.052083333333123],[53.36041666666543,24.060416666666477],[53.368749999998755,24.068749999999802],[53.34791666666547,24.08958333333313],[53.343749999998806,24.08958333333313]]}},{"type":"Feature","properties":{"HYRIV_ID":20864810,"NEXT_DOWN":0,"MAIN_RIV":20864810,"LENGTH_KM":0.46,"CATCH_SKM":0.59,"DIS_AV_CMS":0.0,"ORD_STRA":3,"ORD_FLOW":10},"geometry":{"type":"LineString","coordinates":[[53.58958333333209,24.039583333333148],[53.58958333333209,24.04374999999981]]}},{"type":"Feature","properties":{"HYRIV_ID":20864811,"NEXT_DOWN":20864747,"MAIN_RIV":20864747,"LENGTH_KM":1.75,"CATCH_SKM":11.76,"DIS_AV_CMS":0.0,"ORD_STRA":1,"ORD_FLOW":10},"geometry":{"type":"LineString","coordinates":[[53.872916666665446,24.037499999999817],[53.872916666665446,24.04374999999981],[53.87708333333211,24.04791666666646],[53.88124999999877,24.04791666666646]]}},{"type":"Feature","properties":{"HYRIV_ID":20864846,"NEXT_DOWN":0,"MAIN_RIV":20864846,"LENGTH_KM":6.2199998,"CATCH_SKM":14.51,"DIS_AV_CMS":0.0,"ORD_STRA":3,"ORD_FLOW":10},"geometry":{"type":"LineString","coordinates":[[53.335416666665395,24.035416666666485],[53.33124999999876,24.039583333333148],[53.33124999999876,24.06458333333314],[53.31874999999877,24.077083333333157],[53.31874999999877,24.085416666666482]]}},{"type":"Feature","properties":{"HYRIV_ID":20864847,"NEXT_DOWN":20864809,"MAIN_RIV":20864809,"LENGTH_KM":5.46,"CATCH_SKM":9.0200005,"DIS_AV_CMS":0.0,"ORD_STRA":2,"ORD_FLOW":10},"geometry":{"type":"LineString","coordinates":[[53.447916666665435,24.035416666666485],[53.44374999999877,24.035416666666485],[53.42708333333215,24.052083333333123],[53.422916666665486,24.052083333333123],[53.41874999999874,24.04791666666646],[53.41041666666544,24.04791666666646],[53.40624999999878,24.04374999999981]]}},{"type":"Feature","properties":{"HYRIV_ID":20864886,"NEXT_DOWN":0,"MAIN_RIV":20864886,"LENGTH_KM":13.22,"CATCH_SKM":53.509998,"DIS_AV_CMS":0.0,"ORD_STRA":1,"ORD_FLOW":10},"geometry":{"type":"LineString","coordinates":[[53.5166666666654,24.031249999999837],[53.506249999998744,24.031249999999837],[53.493749999998755,24.04374999999981],[53.493749999998755,24.056249999999828],[53.48958333333212,24.060416666666477],[53.48541666666546,24.060416666666477],[53.481249999998795,24.06458333333314],[53.481249999998795,24.068749999999802],[53.47708333333213,24.072916666666494],[53.481249999998795,24.077083333333157],[53.48541666666546,24.077083333333157],[53.48958333333212,24.08124999999982],[53.47708333333213,24.093749999999794],[53.46874999999872,24.093749999999794],[53.46874999999872,24.0979166666665],[53.47708333333213,24.10624999999981]]}},{"type":"Feature","properties":{"HYRIV_ID":20864912,"NEXT_DOWN":20864479,"MAIN_RIV":20864261,"LENGTH_KM":8.6099997,"CATCH_SKM":29.209999,"DIS_AV_CMS":0.0,"ORD_STRA":3,"ORD_FLOW":10},"geometry":{"type":"LineString","coordinates":[[52.73124999999877,24.02708333333313],[52.739583333332064,24.035416666666485],[52.739583333332064,24.04374999999981],[52.747916666665475,24.052083333333123],[52.747916666665475,24.056249999999828],[52.74374999999881,24.060416666666477],[52.739583333332064,24.060416666666477],[52.7354166666654,24.06458333333314],[52.73124999999877,24.06458333333314],[52.72708333333219,24.068749999999802],[52.72291666666544,24.068749999999802],[52.71874999999878,24.072916666666494],[52.71874999999878,24.08124999999982]]}},{"type":"Feature","properties":{"HYRIV_ID":20864913,"NEXT_DOWN":20864658,"MAIN_RIV":20864658,"LENGTH_KM":6.3800001,"CATCH_SKM":12.55,"DIS_AV_CMS":0.0,"ORD_STRA":2,"ORD_FLOW":10},"geometry":{"type":"LineString","coordinates":[[53.05208333333212,24.02708333333313],[53.05208333333212,24.031249999999837],[53.04374999999882,24.039583333333148],[53.039583333332075,24.039583333333148],[53.03541666666541,24.04374999999981],[53.03541666666541,24.04791666666646],[53.022916666665424,24.060416666666477],[53.01041666666546,24.060416666666477]]}},{"type":"Feature","properties":{"HYRIV_ID":20864914,"NEXT_DOWN":20864612,"MAIN_RIV":20864511,"LENGTH_KM":6.25,"CATCH_SKM":30.0,"DIS_AV_CMS":0.0,"ORD_STRA":1,"ORD_FLOW":10},"geometry":{"type":"LineString","coordinates":[[53.19166666666544,24.0249999999998],[53.18124999999878,24.035416666666485],[53.18124999999878,24.056249999999828],[53.185416666665446,24.060416666666477],[53.185416666665446,24.06458333333314],[53.197916666665435,24.06458333333314]]}},{"type":"Feature","properties":{"HYRIV_ID":20864915,"NEXT_DOWN":20864808,"MAIN_RIV":20864511,"LENGTH_KM":2.46,"CATCH_SKM":12.94,"DIS_AV_CMS":0.0,"ORD_STRA":1,"ORD_FLOW":10},"geometry":{"type":"LineString","coordinates":[[53.2333333333321,24.0249999999998],[53.243749999998755,24.035416666666485],[53.24791666666542,24.035416666666485],[53.24791666666542,24.039583333333148]]}},{"type":"Feature","properties":{"HYRIV_ID":20864952,"NEXT_DOWN":20864912,"MAIN_RIV":20864261,"LENGTH_KM":0.63,"CATCH_SKM":0.59,"DIS_AV_CMS":0.0,"ORD_STRA":3,"ORD_FLOW":10},"geometry":{"type":"LineString","coordinates":[[52.72708333333219,24.022916666666468],[52.73124999999877,24.02708333333313]]}},{"type":"Feature","properties":{"HYRIV_ID":20864953,"NEXT_DOWN":20864163,"MAIN_RIV":20864163,"LENGTH_KM":12.09,"CATCH_SKM":40.189999,"DIS_AV_CMS":0.0,"ORD_STRA":2,"ORD_FLOW":10},"geometry":{"type":"LineString","coordinates":[[53.15624999999875,24.022916666666468],[53.15208333333209,24.02708333333313],[53.15208333333209,24.031249999999837],[53.14374999999879,24.039583333333148],[53.14374999999879,24.052083333333123],[53.14791666666545,24.056249999999828],[53.15208333333209,24.056249999999828],[53.15208333333209,24.060416666666477],[53.14791666666545,24.06458333333314],[53.14791666666545,24.08958333333313],[53.14374999999879,24.093749999999794],[53.14791666666545,24.0979166666665],[53.14791666666545,24.102083333333148],[53.14374999999879,24.10624999999981],[53.14374999999879,24.110416666666474],[53.14791666666545,24.114583333333165]]}},{"type":"Feature","properties":{"HYRIV_ID":20864954,"NEXT_DOWN":20864846,"MAIN_RIV":20864846,"LENGTH_KM":2.31,"CATCH_SKM":4.9,"DIS_AV_CMS":0.0,"ORD_STRA":3,"ORD_FLOW":10},"geometry":{"type":"LineString","coordinates":[[53.35208333333213,24.022916666666468],[53.33958333333206,24.035416666666485],[53.335416666665395,24.035416666666485]]}},{"type":"Feature","properties":{"HYRIV_ID":20864955,"NEXT_DOWN":20864810,"MAIN_RIV":20864810,"LENGTH_KM":2.35,"CATCH_SKM":4.31,"DIS_AV_CMS":0.0,"ORD_STRA":2,"ORD_FLOW":10},"geometry":{"type":"LineString","coordinates":[[53.60208333333213,24.022916666666468],[53.60208333333213,24.02708333333313],[53.58958333333209,24.039583333333148]]}},{"type":"Feature","properties":{"HYRIV_ID":20864956,"NEXT_DOWN":0,"MAIN_RIV":20864956,"LENGTH_KM":4.4299998,"CATCH_SKM":26.27,"DIS_AV_CMS":0.0,"ORD_STRA":1,"ORD_FLOW":10},"geometry":{"type":"LineString","coordinates":[[53.80624999999873,24.02083333333315],[53.80624999999873,24.031249999999837],[53.79791666666543,24.039583333333148],[53.79791666666543,24.04374999999981],[53.80208333333209,24.04791666666646],[53.80208333333209,24.056249999999828]]}},{"type":"Feature","properties":{"HYRIV_ID":20864957,"NEXT_DOWN":20864747,"MAIN_RIV":20864747,"LENGTH_KM":3.4400001,"CATCH_SKM":5.6799998,"DIS_AV_CMS":0.0,"ORD_STRA":4,"ORD_FLOW":10},"geometry":{"type":"LineString","coordinates":[[53.897916666665395,24.022916666666468],[53.88958333333207,24.031249999999837],[53.88958333333207,24.035416666666485],[53.88541666666541,24.039583333333148],[53.88541666666541,24.04374999999981],[53.88124999999877,24.04791666666646]]}},{"type":"Feature","properties":{"HYRIV_ID":20864991,"NEXT_DOWN":0,"MAIN_RIV":20864991,"LENGTH_KM":2.2,"CATCH_SKM":15.88,"DIS_AV_CMS":0.0,"ORD_STRA":1,"ORD_FLOW":10},"geometry":{"type":"LineString","coordinates":[[52.370833333332115,24.0249999999998],[52.36458333333215,24.01874999999982],[52.35624999999882,24.02708333333313]]}},{"type":"Feature","properties":{"HYRIV_ID":20864992,"NEXT_DOWN":0,"MAIN_RIV":20864992,"LENGTH_KM":11.46,"CATCH_SKM":34.900002,"DIS_AV_CMS":0.0,"ORD_STRA":3,"ORD_FLOW":10},"geometry":{"type":"LineString","coordinates":[[52.49374999999881,24.01874999999982],[52.48958333333215,24.022916666666468],[52.49374999999881,24.02708333333313],[52.485416666665486,24.035416666666485],[52.477083333332075,24.035416666666485],[52.47291666666544,24.039583333333148],[52.46874999999878,24.039583333333148],[52.46874999999878,24.04374999999981],[52.485416666665486,24.060416666666477],[52.485416666665486,24.068749999999802],[52.48124999999882,24.072916666666494],[52.47291666666544,24.072916666666494],[52.46874999999878,24.077083333333157],[52.464583333332115,24.077083333333157],[52.46041666666545,24.08124999999982]]}},{"type":"Feature","properties":{"HYRIV_ID":20864993,"NEXT_DOWN":20864957,"MAIN_RIV":20864747,"LENGTH_KM":0.63,"CATCH_SKM":0.59,"DIS_AV_CMS":0.0,"ORD_STRA":4,"ORD_FLOW":10},"geometry":{"type":"LineString","coordinates":[[53.89374999999873,24.01874999999982],[53.897916666665395,24.022916666666468]]}},{"type":"Feature","properties":{"HYRIV_ID":20864994,"NEXT_DOWN":20864957,"MAIN_RIV":20864747,"LENGTH_KM":1.05,"CATCH_SKM":1.96,"DIS_AV_CMS":0.0,"ORD_STRA":2,"ORD_FLOW":10},"geometry":{"type":"LineString","coordinates":[[53.906249999998806,24.01874999999982],[53.90208333333214,24.022916666666468],[53.897916666665395,24.022916666666468]]}},{"type":"Feature","properties":{"HYRIV_ID":20864995,"NEXT_DOWN":20864994,"MAIN_RIV":20864747,"LENGTH_KM":4.8400002,"CATCH_SKM":33.73,"DIS_AV_CMS":0.0,"ORD_STRA":1,"ORD_FLOW":10},"geometry":{"type":"LineString","coordinates":[[53.94583333333213,24.01874999999982],[53.93958333333205,24.01874999999982],[53.93541666666539,24.022916666666468],[53.931249999998755,24.022916666666468],[53.92708333333209,24.02708333333313],[53.92291666666543,24.02708333333313],[53.91874999999877,24.022916666666468],[53.91041666666544,24.022916666666468],[53.906249999998806,24.01874999999982]]}},{"type":"Feature","properties":{"HYRIV_ID":20865035,"NEXT_DOWN":0,"MAIN_RIV":20865035,"LENGTH_KM":4.4299998,"CATCH_SKM":20.790001,"DIS_AV_CMS":0.0,"ORD_STRA":1,"ORD_FLOW":10},"geometry":{"type":"LineString","coordinates":[[52.41041666666547,24.012499999999825],[52.41041666666547,24.022916666666468],[52.40208333333214,24.031249999999837],[52.40208333333214,24.039583333333148],[52.397916666665395,24.04374999999981],[52.397916666665395,24.04791666666646]]}},{"type":"Feature","properties":{"HYRIV_ID":20865036,"NEXT_DOWN":20864994,"MAIN_RIV":20864747,"LENGTH_KM":0.94,"CATCH_SKM":10.79,"DIS_AV_CMS":0.0,"ORD_STRA":1,"ORD_FLOW":10},"geometry":{"type":"LineString","coordinates":[[53.91249999999877,24.012499999999825],[53.906249999998806,24.01874999999982]]}},{"type":"Feature","properties":{"HYRIV_ID":20865065,"NEXT_DOWN":20864952,"MAIN_RIV":20864261,"LENGTH_KM":3.87,"CATCH_SKM":22.16,"DIS_AV_CMS":0.0,"ORD_STRA":1,"ORD_FLOW":10},"geometry":{"type":"LineString","coordinates":[[52.69999999999882,24.008333333333162],[52.71041666666545,24.01874999999982],[52.714583333332115,24.01874999999982],[52.72291666666544,24.02708333333313],[52.72708333333219,24.022916666666468]]}},{"type":"Feature","properties":{"HYRIV_ID":20865066,"NEXT_DOWN":20864655,"MAIN_RIV":20864261,"LENGTH_KM":8.2200003,"CATCH_SKM":22.74,"DIS_AV_CMS":0.0,"ORD_STRA":2,"ORD_FLOW":10},"geometry":{"type":"LineString","coordinates":[[52.80208333333212,24.010416666666494],[52.79791666666546,24.014583333333157],[52.79791666666546,24.01874999999982],[52.793749999998795,24.022916666666468],[52.793749999998795,24.031249999999837],[52.78958333333213,24.035416666666485],[52.78541666666541,24.031249999999837],[52.78124999999875,24.035416666666485],[52.77708333333209,24.035416666666485],[52.772916666665424,24.039583333333148],[52.772916666665424,24.052083333333123],[52.7645833333321,24.060416666666477]]}},{"type":"Feature","properties":{"HYRIV_ID":20865067,"NEXT_DOWN":20864913,"MAIN_RIV":20864658,"LENGTH_KM":2.9300001,"CATCH_SKM":6.08,"DIS_AV_CMS":0.0,"ORD_STRA":2,"ORD_FLOW":10},"geometry":{"type":"LineString","coordinates":[[53.072916666665435,24.010416666666494],[53.060416666665446,24.022916666666468],[53.05624999999878,24.022916666666468],[53.05208333333212,24.02708333333313]]}},{"type":"Feature","properties":{"HYRIV_ID":20865068,"NEXT_DOWN":20864612,"MAIN_RIV":20864511,"LENGTH_KM":6.8400002,"CATCH_SKM":12.55,"DIS_AV_CMS":0.0,"ORD_STRA":2,"ORD_FLOW":10},"geometry":{"type":"LineString","coordinates":[[53.218749999998806,24.010416666666494],[53.218749999998806,24.01874999999982],[53.21458333333214,24.022916666666468],[53.21458333333214,24.031249999999837],[53.21041666666548,24.035416666666485],[53.21041666666548,24.039583333333148],[53.197916666665435,24.052083333333123],[53.197916666665435,24.06458333333314]]}},{"type":"Feature","properties":{"HYRIV_ID":20865069,"NEXT_DOWN":20864846,"MAIN_RIV":20864846,"LENGTH_KM":3.4400001,"CATCH_SKM":8.6300001,"DIS_AV_CMS":0.0,"ORD_STRA":2,"ORD_FLOW":10},"geometry":{"type":"LineString","coordinates":[[53.31874999999877,24.010416666666494],[53.3270833333321,24.01874999999982],[53.3270833333321,24.022916666666468],[53.33124999999876,24.02708333333313],[53.33124999999876,24.031249999999837],[53.335416666665395,24.035416666666485]]}},{"type":"Feature","properties":{"HYRIV_ID":20865070,"NEXT_DOWN":20864809,"MAIN_RIV":20864809,"LENGTH_KM":4.62,"CATCH_SKM":8.2299995,"DIS_AV_CMS":0.0,"ORD_STRA":2,"ORD_FLOW":10},"geometry":{"type":"LineString","coordinates":[[53.422916666665486,24.010416666666494],[53.422916666665486,24.01874999999982],[53.41874999999874,24.022916666666468],[53.41874999999874,24.035416666666485],[53.414583333332075,24.039583333333148],[53.41041666666544,24.039583333333148],[53.40624999999878,24.04374999999981]]}},{"type":"Feature","properties":{"HYRIV_ID":20865113,"NEXT_DOWN":0,"MAIN_RIV":20865113,"LENGTH_KM":15.69,"CATCH_SKM":38.23,"DIS_AV_CMS":0.0,"ORD_STRA":2,"ORD_FLOW":10},"geometry":{"type":"LineString","coordinates":[[52.58124999999879,24.006249999999845],[52.58124999999879,24.014583333333157],[52.577083333332126,24.01874999999982],[52.57291666666549,24.01874999999982],[52.55208333333209,24.039583333333148],[52.55208333333209,24.04374999999981],[52.54791666666546,24.04791666666646],[52.54791666666546,24.06458333333314],[52.543749999998795,24.068749999999802],[52.543749999998795,24.072916666666494],[52.53958333333213,24.077083333333157],[52.53958333333213,24.08124999999982],[52.53541666666547,24.085416666666482],[52.53541666666547,24.093749999999794],[52.53124999999872,24.0979166666665],[52.53124999999872,24.102083333333148],[52.53958333333213,24.110416666666474],[52.53958333333213,24.114583333333165],[52.53541666666547,24.118749999999785],[52.53541666666547,24.12291666666649]]}},{"type":"Feature","properties":{"HYRIV_ID":20865114,"NEXT_DOWN":20865067,"MAIN_RIV":20864658,"LENGTH_KM":4.0700002,"CATCH_SKM":23.34,"DIS_AV_CMS":0.0,"ORD_STRA":1,"ORD_FLOW":10},"geometry":{"type":"LineString","coordinates":[[53.102083333332104,24.004166666666514],[53.102083333332104,24.010416666666494],[53.09791666666547,24.014583333333157],[53.07708333333207,24.014583333333157],[53.072916666665435,24.010416666666494]]}},{"type":"Feature","properties":{"HYRIV_ID":20865115,"NEXT_DOWN":20864955,"MAIN_RIV":20864810,"LENGTH_KM":2.6700001,"CATCH_SKM":16.08,"DIS_AV_CMS":0.0,"ORD_STRA":1,"ORD_FLOW":10},"geometry":{"type":"LineString","coordinates":[[53.61041666666546,24.004166666666514],[53.61041666666546,24.01874999999982],[53.606249999998795,24.022916666666468],[53.60208333333213,24.022916666666468]]}},{"type":"Feature","properties":{"HYRIV_ID":20865116,"NEXT_DOWN":0,"MAIN_RIV":20865116,"LENGTH_KM":13.05,"CATCH_SKM":49.98,"DIS_AV_CMS":0.0,"ORD_STRA":2,"ORD_FLOW":10},"geometry":{"type":"LineString","coordinates":[[53.99374999999878,24.006249999999845],[53.99374999999878,24.01874999999982],[53.989583333332035,24.022916666666468],[53.989583333332035,24.035416666666485],[53.98124999999874,24.04374999999981],[53.9854166666654,24.04791666666646],[53.9854166666654,24.056249999999828],[53.98124999999874,24.060416666666477],[53.977083333332075,24.060416666666477],[53.97291666666541,24.06458333333314],[53.97291666666541,24.072916666666494],[53.98124999999874,24.08124999999982],[53.977083333332075,24.085416666666482],[53.977083333332075,24.08958333333313],[53.96458333333209,24.102083333333148]]}},{"type":"Feature","properties":{"HYRIV_ID":20865148,"NEXT_DOWN":20865066,"MAIN_RIV":20864261,"LENGTH_KM":5.9499998,"CATCH_SKM":34.32,"DIS_AV_CMS":0.0,"ORD_STRA":1,"ORD_FLOW":10},"geometry":{"type":"LineString","coordinates":[[52.83541666666548,23.999999999999808],[52.83541666666548,24.006249999999845],[52.83124999999882,24.006249999999845],[52.827083333332155,24.00208333333314],[52.82291666666549,24.00208333333314],[52.81874999999883,24.006249999999845],[52.81458333333208,24.006249999999845],[52.81874999999883,24.010416666666494],[52.81458333333208,24.014583333333157],[52.810416666665446,24.014583333333157],[52.80624999999878,24.010416666666494],[52.80208333333212,24.010416666666494]]}},{"type":"Feature","properties":{"HYRIV_ID":20865192,"NEXT_DOWN":20864992,"MAIN_RIV":20864992,"LENGTH_KM":2.55,"CATCH_SKM":17.65,"DIS_AV_CMS":0.0,"ORD_STRA":1,"ORD_FLOW":10},"geometry":{"type":"LineString","coordinates":[[52.49374999999881,23.995833333333145],[52.49374999999881,24.01874999999982]]}},{"type":"Feature","properties":{"HYRIV_ID":20865193,"NEXT_DOWN":20865069,"MAIN_RIV":20864846,"LENGTH_KM":2.37,"CATCH_SKM":12.16,"DIS_AV_CMS":0.001,"ORD_STRA":1,"ORD_FLOW":9},"geometry":{"type":"LineString","coordinates":[[53.33124999999876,23.995833333333145],[53.33124999999876,24.00208333333314],[53.322916666665435,24.010416666666494],[53.31874999999877,24.010416666666494]]}},{"type":"Feature","properties":{"HYRIV_ID":20865194,"NEXT_DOWN":20865070,"MAIN_RIV":20864809,"LENGTH_KM":1.79,"CATCH_SKM":11.18,"DIS_AV_CMS":0.001,"ORD_STRA":1,"ORD_FLOW":9},"geometry":{"type":"LineString","coordinates":[[53.42708333333215,23.995833333333145],[53.42708333333215,24.006249999999845],[53.422916666665486,24.010416666666494]]}},{"type":"Feature","properties":{"HYRIV_ID":20865230,"NEXT_DOWN":20864913,"MAIN_RIV":20864658,"LENGTH_KM":4.5900002,"CATCH_SKM":24.709999,"DIS_AV_CMS":0.0,"ORD_STRA":1,"ORD_FLOW":10},"geometry":{"type":"LineString","coordinates":[[53.03541666666541,23.991666666666497],[53.03541666666541,23.997916666666477],[53.039583333332075,24.00208333333314],[53.039583333332075,24.006249999999845],[53.04374999999882,24.010416666666494],[53.04374999999882,24.014583333333157],[53.05208333333212,24.022916666666468],[53.05208333333212,24.02708333333313]]}},{"type":"Feature","properties":{"HYRIV_ID":20865231,"NEXT_DOWN":20865116,"MAIN_RIV":20865116,"LENGTH_KM":3.04,"CATCH_SKM":20.200001,"DIS_AV_CMS":0.0,"ORD_STRA":1,"ORD_FLOW":10},"geometry":{"type":"LineString","coordinates":[[53.97083333333208,23.991666666666497],[53.98124999999874,24.00208333333314],[53.9854166666654,24.00208333333314],[53.989583333332035,24.006249999999845],[53.99374999999878,24.006249999999845]]}},{"type":"Feature","properties":{"HYRIV_ID":20865291,"NEXT_DOWN":0,"MAIN_RIV":20865291,"LENGTH_KM":8.7600002,"CATCH_SKM":26.67,"DIS_AV_CMS":0.0,"ORD_STRA":3,"ORD_FLOW":10},"geometry":{"type":"LineString","coordinates":[[52.452083333332126,23.98541666666646],[52.44374999999883,23.993749999999828],[52.44374999999883,23.997916666666477],[52.439583333332166,24.00208333333314],[52.44374999999883,24.006249999999845],[52.44374999999883,24.010416666666494],[52.43541666666542,24.01874999999982],[52.43541666666542,24.022916666666468],[52.42708333333209,24.031249999999837],[52.42708333333209,24.035416666666485],[52.41458333333213,24.04791666666646]]}},{"type":"Feature","properties":{"HYRIV_ID":20865292,"NEXT_DOWN":20864912,"MAIN_RIV":20864261,"LENGTH_KM":6.21,"CATCH_SKM":13.73,"DIS_AV_CMS":0.0,"ORD_STRA":2,"ORD_FLOW":10},"geometry":{"type":"LineString","coordinates":[[52.7645833333321,23.98541666666646],[52.7562499999988,23.993749999999828],[52.7562499999988,24.006249999999845],[52.75208333333214,24.010416666666494],[52.747916666665475,24.010416666666494],[52.73124999999877,24.02708333333313]]}},{"type":"Feature","properties":{"HYRIV_ID":20865293,"NEXT_DOWN":20864953,"MAIN_RIV":20864163,"LENGTH_KM":6.1500001,"CATCH_SKM":23.34,"DIS_AV_CMS":0.0,"ORD_STRA":1,"ORD_FLOW":10},"geometry":{"type":"LineString","coordinates":[[53.12499999999875,23.983333333333128],[53.131249999998715,23.989583333333165],[53.13541666666546,23.989583333333165],[53.14374999999879,23.997916666666477],[53.14791666666545,23.997916666666477],[53.15208333333209,24.00208333333314],[53.15208333333209,24.01874999999982],[53.15624999999875,24.022916666666468]]}},{"type":"Feature","properties":{"HYRIV_ID":20865330,"NEXT_DOWN":20864952,"MAIN_RIV":20864261,"LENGTH_KM":5.62,"CATCH_SKM":10.79,"DIS_AV_CMS":0.0,"ORD_STRA":3,"ORD_FLOW":10},"geometry":{"type":"LineString","coordinates":[[52.71874999999878,23.98124999999981],[52.72708333333219,23.989583333333165],[52.72708333333219,23.997916666666477],[52.72291666666544,24.00208333333314],[52.72291666666544,24.006249999999845],[52.72708333333219,24.010416666666494],[52.72708333333219,24.014583333333157],[52.72291666666544,24.01874999999982],[52.72708333333219,24.022916666666468]]}},{"type":"Feature","properties":{"HYRIV_ID":20865331,"NEXT_DOWN":20864136,"MAIN_RIV":20864136,"LENGTH_KM":17.26,"CATCH_SKM":51.560001,"DIS_AV_CMS":0.0,"ORD_STRA":4,"ORD_FLOW":10},"geometry":{"type":"LineString","coordinates":[[52.889583333332126,23.98124999999981],[52.89374999999876,23.98541666666646],[52.89374999999876,23.989583333333165],[52.897916666665424,23.993749999999828],[52.897916666665424,24.006249999999845],[52.89374999999876,24.010416666666494],[52.89374999999876,24.01874999999982],[52.88541666666546,24.02708333333313],[52.88541666666546,24.031249999999837],[52.8812499999988,24.035416666666485],[52.8812499999988,24.039583333333148],[52.87708333333214,24.04374999999981],[52.87708333333214,24.052083333333123],[52.8812499999988,24.056249999999828],[52.87708333333214,24.060416666666477],[52.87708333333214,24.072916666666494],[52.872916666665475,24.077083333333157],[52.872916666665475,24.08124999999982],[52.86874999999873,24.085416666666482],[52.86874999999873,24.114583333333165],[52.872916666665475,24.118749999999785]]}},{"type":"Feature","properties":{"HYRIV_ID":20865332,"NEXT_DOWN":0,"MAIN_RIV":20865332,"LENGTH_KM":10.54,"CATCH_SKM":30.780001,"DIS_AV_CMS":0.0,"ORD_STRA":2,"ORD_FLOW":10},"geometry":{"type":"LineString","coordinates":[[53.6937499999988,23.98124999999981],[53.6937499999988,23.997916666666477],[53.69791666666546,24.00208333333314],[53.7020833333321,24.00208333333314],[53.70624999999876,24.006249999999845],[53.70624999999876,24.014583333333157],[53.710416666665424,24.01874999999982],[53.710416666665424,24.039583333333148],[53.71458333333209,24.04374999999981],[53.69791666666546,24.060416666666477]]}},{"type":"Feature","properties":{"HYRIV_ID":20865366,"NEXT_DOWN":20865066,"MAIN_RIV":20864261,"LENGTH_KM":4.83,"CATCH_SKM":20.200001,"DIS_AV_CMS":0.001,"ORD_STRA":1,"ORD_FLOW":9},"geometry":{"type":"LineString","coordinates":[[52.82083333333216,23.977083333333148],[52.81458333333208,23.977083333333148],[52.810416666665446,23.98124999999981],[52.810416666665446,23.98541666666646],[52.80624999999878,23.989583333333165],[52.80624999999878,23.993749999999828],[52.80208333333212,23.997916666666477],[52.80208333333212,24.010416666666494]]}},{"type":"Feature","properties":{"HYRIV_ID":20865367,"NEXT_DOWN":20865067,"MAIN_RIV":20864658,"LENGTH_KM":4.5300002,"CATCH_SKM":14.12,"DIS_AV_CMS":0.011,"ORD_STRA":2,"ORD_FLOW":8},"geometry":{"type":"LineString","coordinates":[[53.07708333333207,23.977083333333148],[53.07708333333207,23.98124999999981],[53.08124999999882,23.98541666666646],[53.06874999999877,23.997916666666477],[53.072916666665435,24.00208333333314],[53.072916666665435,24.010416666666494]]}},{"type":"Feature","properties":{"HYRIV_ID":20865368,"NEXT_DOWN":20864745,"MAIN_RIV":20864745,"LENGTH_KM":8.8599997,"CATCH_SKM":20.790001,"DIS_AV_CMS":0.0,"ORD_STRA":2,"ORD_FLOW":10},"geometry":{"type":"LineString","coordinates":[[53.78124999999878,23.977083333333148],[53.78124999999878,23.98124999999981],[53.777083333332115,23.98541666666646],[53.777083333332115,24.01874999999982],[53.77291666666548,24.022916666666468],[53.77291666666548,24.02708333333313],[53.76874999999873,24.031249999999837],[53.76874999999873,24.035416666666485],[53.756249999998744,24.04791666666646]]}},{"type":"Feature","properties":{"HYRIV_ID":20865370,"NEXT_DOWN":20864993,"MAIN_RIV":20864747,"LENGTH_KM":7.0500002,"CATCH_SKM":28.629999,"DIS_AV_CMS":0.0,"ORD_STRA":3,"ORD_FLOW":10},"geometry":{"type":"LineString","coordinates":[[53.852083333332075,23.977083333333148],[53.85624999999871,23.98124999999981],[53.86041666666537,23.98124999999981],[53.86458333333212,23.98541666666646],[53.86874999999878,23.98541666666646],[53.87708333333211,23.993749999999828],[53.87708333333211,23.997916666666477],[53.88124999999877,24.00208333333314],[53.88124999999877,24.010416666666494],[53.88541666666541,24.014583333333157],[53.88958333333207,24.014583333333157],[53.89374999999873,24.01874999999982]]}},{"type":"Feature","properties":{"HYRIV_ID":20865371,"NEXT_DOWN":20865116,"MAIN_RIV":20865116,"LENGTH_KM":3.24,"CATCH_SKM":9.8100004,"DIS_AV_CMS":0.0,"ORD_STRA":2,"ORD_FLOW":10},"geometry":{"type":"LineString","coordinates":[[53.99374999999878,23.977083333333148],[53.99374999999878,24.006249999999845]]}},{"type":"Feature","properties":{"HYRIV_ID":20865405,"NEXT_DOWN":20865113,"MAIN_RIV":20865113,"LENGTH_KM":7.35,"CATCH_SKM":29.620001,"DIS_AV_CMS":0.0,"ORD_STRA":1,"ORD_FLOW":10},"geometry":{"type":"LineString","coordinates":[[52.63749999999877,23.972916666666485],[52.63124999999877,23.972916666666485],[52.61458333333215,23.989583333333165],[52.610416666665486,23.989583333333165],[52.60624999999874,23.993749999999828],[52.602083333332104,23.993749999999828],[52.589583333332115,24.006249999999845],[52.58124999999879,24.006249999999845]]}},{"type":"Feature","properties":{"HYRIV_ID":20865406,"NEXT_DOWN":20864847,"MAIN_RIV":20864809,"LENGTH_KM":10.71,"CATCH_SKM":29.41,"DIS_AV_CMS":0.0,"ORD_STRA":2,"ORD_FLOW":10},"geometry":{"type":"LineString","coordinates":[[53.493749999998755,23.972916666666485],[53.493749999998755,23.977083333333148],[53.48958333333212,23.98124999999981],[53.48958333333212,23.98541666666646],[53.493749999998755,23.989583333333165],[53.48958333333212,23.993749999999828],[53.48958333333212,23.997916666666477],[53.48541666666546,24.00208333333314],[53.48958333333212,24.006249999999845],[53.48958333333212,24.014583333333157],[53.48541666666546,24.01874999999982],[53.47708333333213,24.01874999999982],[53.460416666665424,24.035416666666485],[53.447916666665435,24.035416666666485]]}},{"type":"Feature","properties":{"HYRIV_ID":20865408,"NEXT_DOWN":0,"MAIN_RIV":20865408,"LENGTH_KM":9.1599998,"CATCH_SKM":33.34,"DIS_AV_CMS":0.0,"ORD_STRA":3,"ORD_FLOW":10},"geometry":{"type":"LineString","coordinates":[[53.64791666666545,23.972916666666485],[53.64791666666545,24.00208333333314],[53.652083333332115,24.006249999999845],[53.652083333332115,24.01874999999982],[53.64791666666545,24.022916666666468],[53.64791666666545,24.02708333333313],[53.65624999999878,24.035416666666485],[53.65624999999878,24.039583333333148],[53.652083333332115,24.04374999999981],[53.652083333332115,24.04791666666646]]}},{"type":"Feature","properties":{"HYRIV_ID":20865410,"NEXT_DOWN":20864993,"MAIN_RIV":20864747,"LENGTH_KM":5.5900002,"CATCH_SKM":10.59,"DIS_AV_CMS":0.0,"ORD_STRA":3,"ORD_FLOW":10},"geometry":{"type":"LineString","coordinates":[[53.906249999998806,23.972916666666485],[53.90208333333214,23.977083333333148],[53.90208333333214,24.006249999999845],[53.897916666665395,24.010416666666494],[53.897916666665395,24.014583333333157],[53.89374999999873,24.01874999999982]]}},{"type":"Feature","properties":{"HYRIV_ID":20865485,"NEXT_DOWN":20864745,"MAIN_RIV":20864745,"LENGTH_KM":11.49,"CATCH_SKM":49.619999,"DIS_AV_CMS":0.0,"ORD_STRA":1,"ORD_FLOW":10},"geometry":{"type":"LineString","coordinates":[[53.75208333333208,23.9624999999998],[53.75208333333208,23.968749999999822],[53.74374999999878,23.977083333333148],[53.73958333333212,23.977083333333148],[53.73541666666546,23.98124999999981],[53.73541666666546,24.01874999999982],[53.747916666665446,24.031249999999837],[53.747916666665446,24.04374999999981],[53.75208333333208,24.04791666666646],[53.756249999998744,24.04791666666646]]}},{"type":"Feature","properties":{"HYRIV_ID":20865572,"NEXT_DOWN":20864954,"MAIN_RIV":20864846,"LENGTH_KM":8.8800001,"CATCH_SKM":28.84,"DIS_AV_CMS":0.0,"ORD_STRA":1,"ORD_FLOW":10},"geometry":{"type":"LineString","coordinates":[[53.33749999999881,23.954166666666488],[53.343749999998806,23.960416666666468],[53.343749999998806,23.964583333333174],[53.33958333333206,23.968749999999822],[53.33958333333206,23.977083333333148],[53.34791666666547,23.98541666666646],[53.34791666666547,23.997916666666477],[53.343749999998806,24.00208333333314],[53.343749999998806,24.006249999999845],[53.34791666666547,24.010416666666494],[53.34791666666547,24.01874999999982],[53.35208333333213,24.022916666666468]]}},{"type":"Feature","properties":{"HYRIV_ID":20865698,"NEXT_DOWN":20865068,"MAIN_RIV":20864511,"LENGTH_KM":8.79,"CATCH_SKM":30.610001,"DIS_AV_CMS":0.003,"ORD_STRA":1,"ORD_FLOW":9},"geometry":{"type":"LineString","coordinates":[[53.23124999999877,23.94166666666647],[53.23124999999877,23.947916666666494],[53.23958333333209,23.956249999999805],[53.23958333333209,23.960416666666468],[53.23541666666543,23.964583333333174],[53.23541666666543,23.977083333333148],[53.22708333333213,23.98541666666646],[53.22708333333213,23.989583333333165],[53.218749999998806,23.997916666666477],[53.218749999998806,24.010416666666494]]}},{"type":"Feature","properties":{"HYRIV_ID":20865699,"NEXT_DOWN":20864810,"MAIN_RIV":20864810,"LENGTH_KM":15.83,"CATCH_SKM":62.169998,"DIS_AV_CMS":0.0,"ORD_STRA":3,"ORD_FLOW":10},"geometry":{"type":"LineString","coordinates":[[53.55624999999881,23.94374999999979],[53.55624999999881,23.956249999999805],[53.560416666665475,23.960416666666468],[53.560416666665475,23.964583333333174],[53.55624999999881,23.968749999999822],[53.55624999999881,23.977083333333148],[53.5479166666654,23.98541666666646],[53.54374999999874,23.98541666666646],[53.539583333332104,23.989583333333165],[53.539583333332104,24.00208333333314],[53.5479166666654,24.010416666666494],[53.560416666665475,24.010416666666494],[53.56458333333214,24.014583333333157],[53.56874999999877,24.014583333333157],[53.572916666665435,24.010416666666494],[53.58124999999876,24.01874999999982],[53.58124999999876,24.02708333333313],[53.585416666665424,24.031249999999837],[53.585416666665424,24.035416666666485],[53.58958333333209,24.039583333333148]]}},{"type":"Feature","properties":{"HYRIV_ID":20865723,"NEXT_DOWN":20865113,"MAIN_RIV":20865113,"LENGTH_KM":8.2299995,"CATCH_SKM":22.559999,"DIS_AV_CMS":0.009,"ORD_STRA":2,"ORD_FLOW":9},"geometry":{"type":"LineString","coordinates":[[52.59374999999878,23.939583333333182],[52.589583333332115,23.94374999999979],[52.589583333332115,23.960416666666468],[52.59374999999878,23.964583333333174],[52.59374999999878,23.972916666666485],[52.589583333332115,23.977083333333148],[52.589583333332115,23.98541666666646],[52.58541666666545,23.989583333333165],[52.58541666666545,23.993749999999828],[52.58124999999879,23.997916666666477],[52.58124999999879,24.006249999999845]]}},{"type":"Feature","properties":{"HYRIV_ID":20865724,"NEXT_DOWN":20864955,"MAIN_RIV":20864810,"LENGTH_KM":11.48,"CATCH_SKM":33.740002,"DIS_AV_CMS":0.0,"ORD_STRA":1,"ORD_FLOW":10},"geometry":{"type":"LineString","coordinates":[[53.60416666666546,23.937499999999808],[53.597916666665384,23.94374999999979],[53.597916666665384,23.947916666666494],[53.59374999999875,23.952083333333157],[53.58958333333209,23.952083333333157],[53.585416666665424,23.956249999999805],[53.585416666665424,23.968749999999822],[53.58124999999876,23.972916666666485],[53.585416666665424,23.977083333333148],[53.585416666665424,23.98124999999981],[53.59374999999875,23.989583333333165],[53.59374999999875,23.993749999999828],[53.597916666665384,23.997916666666477],[53.597916666665384,24.006249999999845],[53.60208333333213,24.010416666666494],[53.60208333333213,24.022916666666468]]}},{"type":"Feature","properties":{"HYRIV_ID":20865795,"NEXT_DOWN":20864657,"MAIN_RIV":20864136,"LENGTH_KM":17.73,"CATCH_SKM":46.880001,"DIS_AV_CMS":0.0,"ORD_STRA":1,"ORD_FLOW":10},"geometry":{"type":"LineString","coordinates":[[52.9833333333321,23.929166666666497],[52.977083333332104,23.935416666666477],[52.977083333332104,23.94374999999979],[52.97291666666544,23.947916666666494],[52.96874999999878,23.947916666666494],[52.96458333333214,23.952083333333157],[52.96458333333214,23.960416666666468],[52.96041666666548,23.964583333333174],[52.96041666666548,23.968749999999822],[52.95624999999882,23.972916666666485],[52.95624999999882,23.98124999999981],[52.93124999999878,24.006249999999845],[52.93124999999878,24.014583333333157],[52.92708333333212,24.01874999999982],[52.93124999999878,24.022916666666468],[52.93124999999878,24.02708333333313],[52.92708333333212,24.031249999999837],[52.92708333333212,24.04374999999981],[52.93124999999878,24.04791666666646],[52.93124999999878,24.056249999999828],[52.935416666665446,24.060416666666477]]}},{"type":"Feature","properties":{"HYRIV_ID":20865797,"NEXT_DOWN":20865070,"MAIN_RIV":20864809,"LENGTH_KM":10.87,"CATCH_SKM":24.719999,"DIS_AV_CMS":0.014,"ORD_STRA":2,"ORD_FLOW":8},"geometry":{"type":"LineString","coordinates":[[53.402083333332115,23.931249999999814],[53.402083333332115,23.94374999999979],[53.41041666666544,23.952083333333157],[53.41041666666544,23.956249999999805],[53.402083333332115,23.964583333333174],[53.402083333332115,23.968749999999822],[53.40624999999878,23.972916666666485],[53.40624999999878,23.977083333333148],[53.402083333332115,23.98124999999981],[53.402083333332115,23.98541666666646],[53.40624999999878,23.989583333333165],[53.41041666666544,23.989583333333165],[53.41041666666544,23.993749999999828],[53.41874999999874,24.00208333333314],[53.41874999999874,24.006249999999845],[53.422916666665486,24.010416666666494]]}},{"type":"Feature","properties":{"HYRIV_ID":20865830,"NEXT_DOWN":20864808,"MAIN_RIV":20864511,"LENGTH_KM":15.9,"CATCH_SKM":53.16,"DIS_AV_CMS":0.0,"ORD_STRA":1,"ORD_FLOW":10},"geometry":{"type":"LineString","coordinates":[[53.25416666666541,23.924999999999834],[53.26041666666538,23.931249999999814],[53.26041666666538,23.935416666666477],[53.264583333332126,23.939583333333182],[53.264583333332126,23.94374999999979],[53.27291666666545,23.94374999999979],[53.277083333332115,23.947916666666494],[53.277083333332115,23.960416666666468],[53.28124999999878,23.964583333333174],[53.28124999999878,23.968749999999822],[53.27291666666545,23.977083333333148],[53.26874999999879,23.977083333333148],[53.264583333332126,23.98124999999981],[53.264583333332126,23.989583333333165],[53.26041666666538,23.993749999999828],[53.26041666666538,24.00208333333314],[53.256249999998715,24.006249999999845],[53.256249999998715,24.010416666666494],[53.25208333333208,24.014583333333157],[53.25208333333208,24.035416666666485],[53.24791666666542,24.039583333333148]]}},{"type":"Feature","properties":{"HYRIV_ID":20865862,"NEXT_DOWN":20864586,"MAIN_RIV":20864434,"LENGTH_KM":21.6,"CATCH_SKM":72.949997,"DIS_AV_CMS":0.0,"ORD_STRA":2,"ORD_FLOW":10},"geometry":{"type":"LineString","coordinates":[[52.67291666666546,23.922916666666502],[52.67291666666546,23.931249999999814],[52.67708333333212,23.935416666666477],[52.67291666666546,23.939583333333182],[52.67291666666546,23.94374999999979],[52.67708333333212,23.947916666666494],[52.67291666666546,23.952083333333157],[52.67291666666546,23.956249999999805],[52.65624999999875,23.972916666666485],[52.65624999999875,23.993749999999828],[52.66458333333213,24.00208333333314],[52.66458333333213,24.006249999999845],[52.66041666666547,24.010416666666494],[52.66041666666547,24.014583333333157],[52.65208333333209,24.022916666666468],[52.647916666665424,24.022916666666468],[52.6395833333321,24.031249999999837],[52.635416666665435,24.02708333333313],[52.63124999999877,24.02708333333313],[52.62708333333214,24.031249999999837],[52.62708333333214,24.035416666666485],[52.61458333333215,24.04791666666646],[52.61458333333215,24.052083333333123],[52.60624999999874,24.060416666666477],[52.60624999999874,24.068749999999802]]}},{"type":"Feature","properties":{"HYRIV_ID":20865949,"NEXT_DOWN":20864658,"MAIN_RIV":20864658,"LENGTH_KM":24.129999,"CATCH_SKM":89.629997,"DIS_AV_CMS":0.0,"ORD_STRA":3,"ORD_FLOW":10},"geometry":{"type":"LineString","coordinates":[[53.014583333332126,23.914583333333148],[53.014583333332126,23.918749999999797],[53.01041666666546,23.922916666666502],[53.01041666666546,23.927083333333165],[53.00208333333214,23.935416666666477],[52.99791666666539,23.931249999999814],[52.98541666666543,23.94374999999979],[52.98541666666543,23.947916666666494],[52.993749999998755,23.956249999999805],[52.993749999998755,23.960416666666468],[52.99791666666539,23.964583333333174],[53.00208333333214,23.960416666666468],[53.01041666666546,23.968749999999822],[53.01041666666546,23.977083333333148],[52.98958333333209,23.997916666666477],[52.98124999999877,23.997916666666477],[52.977083333332104,24.00208333333314],[52.977083333332104,24.01874999999982],[52.98958333333209,24.031249999999837],[53.00208333333214,24.031249999999837],[53.0062499999988,24.035416666666485],[53.0062499999988,24.056249999999828],[53.01041666666546,24.060416666666477]]}},{"type":"Feature","properties":{"HYRIV_ID":20865950,"NEXT_DOWN":20864954,"MAIN_RIV":20864846,"LENGTH_KM":14.86,"CATCH_SKM":39.43,"DIS_AV_CMS":0.0,"ORD_STRA":3,"ORD_FLOW":10},"geometry":{"type":"LineString","coordinates":[[53.36041666666543,23.914583333333148],[53.36041666666543,23.935416666666477],[53.36458333333209,23.939583333333182],[53.36458333333209,23.947916666666494],[53.368749999998755,23.952083333333157],[53.368749999998755,23.960416666666468],[53.37291666666542,23.964583333333174],[53.37708333333208,23.964583333333174],[53.38541666666541,23.972916666666485],[53.38541666666541,23.989583333333165],[53.381249999998744,23.993749999999828],[53.381249999998744,23.997916666666477],[53.36041666666543,24.01874999999982],[53.356249999998795,24.01874999999982],[53.35208333333213,24.022916666666468]]}},{"type":"Feature","properties":{"HYRIV_ID":20865951,"NEXT_DOWN":20864847,"MAIN_RIV":20864809,"LENGTH_KM":15.8,"CATCH_SKM":45.310001,"DIS_AV_CMS":0.0,"ORD_STRA":1,"ORD_FLOW":10},"geometry":{"type":"LineString","coordinates":[[53.44374999999877,23.912499999999817],[53.44374999999877,23.918749999999797],[53.43958333333211,23.922916666666502],[53.43958333333211,23.927083333333165],[53.44374999999877,23.931249999999814],[53.44374999999877,23.935416666666477],[53.4520833333321,23.94374999999979],[53.4520833333321,23.947916666666494],[53.43958333333211,23.960416666666468],[53.43958333333211,23.972916666666485],[53.44374999999877,23.977083333333148],[53.44374999999877,23.98124999999981],[53.447916666665435,23.98541666666646],[53.447916666665435,23.993749999999828],[53.4520833333321,23.997916666666477],[53.4520833333321,24.014583333333157],[53.45624999999876,24.01874999999982],[53.45624999999876,24.022916666666468],[53.447916666665435,24.031249999999837],[53.447916666665435,24.035416666666485]]}},{"type":"Feature","properties":{"HYRIV_ID":20866095,"NEXT_DOWN":20865069,"MAIN_RIV":20864846,"LENGTH_KM":15.78,"CATCH_SKM":62.200001,"DIS_AV_CMS":0.006,"ORD_STRA":1,"ORD_FLOW":9},"geometry":{"type":"LineString","coordinates":[[53.295833333332155,23.895833333333137],[53.289583333332075,23.902083333333174],[53.29374999999874,23.906249999999822],[53.289583333332075,23.910416666666485],[53.289583333332075,23.922916666666502],[53.28541666666541,23.927083333333165],[53.29374999999874,23.935416666666477],[53.289583333332075,23.939583333333182],[53.30208333333215,23.952083333333157],[53.30208333333215,23.960416666666468],[53.310416666665446,23.968749999999822],[53.30624999999881,23.972916666666485],[53.30624999999881,23.98124999999981],[53.30208333333215,23.98541666666646],[53.30624999999881,23.989583333333165],[53.30624999999881,23.993749999999828],[53.310416666665446,23.997916666666477],[53.310416666665446,24.00208333333314],[53.31874999999877,24.010416666666494]]}},{"type":"Feature","properties":{"HYRIV_ID":20866225,"NEXT_DOWN":20864953,"MAIN_RIV":20864163,"LENGTH_KM":18.700001,"CATCH_SKM":57.689999,"DIS_AV_CMS":0.0,"ORD_STRA":1,"ORD_FLOW":10},"geometry":{"type":"LineString","coordinates":[[53.19166666666544,23.8791666666665],[53.18124999999878,23.889583333333157],[53.18124999999878,23.893749999999805],[53.185416666665446,23.89791666666651],[53.185416666665446,23.910416666666485],[53.18958333333211,23.914583333333148],[53.18958333333211,23.918749999999797],[53.17708333333212,23.931249999999814],[53.17708333333212,23.939583333333182],[53.172916666665486,23.94374999999979],[53.172916666665486,23.960416666666468],[53.16874999999882,23.964583333333174],[53.16874999999882,23.968749999999822],[53.17708333333212,23.977083333333148],[53.17708333333212,23.98124999999981],[53.172916666665486,23.98541666666646],[53.172916666665486,23.993749999999828],[53.16874999999882,23.997916666666477],[53.16874999999882,24.006249999999845],[53.164583333332075,24.010416666666494],[53.164583333332075,24.014583333333157],[53.15624999999875,24.022916666666468]]}},{"type":"Feature","properties":{"HYRIV_ID":20866226,"NEXT_DOWN":20865068,"MAIN_RIV":20864511,"LENGTH_KM":19.360001,"CATCH_SKM":68.879997,"DIS_AV_CMS":0.003,"ORD_STRA":1,"ORD_FLOW":9},"geometry":{"type":"LineString","coordinates":[[53.24999999999875,23.8791666666665],[53.243749999998755,23.885416666666494],[53.23541666666543,23.885416666666494],[53.22708333333213,23.893749999999805],[53.218749999998806,23.893749999999805],[53.21041666666548,23.902083333333174],[53.21041666666548,23.910416666666485],[53.20624999999873,23.914583333333148],[53.20624999999873,23.927083333333165],[53.2020833333321,23.931249999999814],[53.197916666665435,23.931249999999814],[53.19374999999877,23.935416666666477],[53.19374999999877,23.956249999999805],[53.197916666665435,23.960416666666468],[53.197916666665435,23.964583333333174],[53.2020833333321,23.968749999999822],[53.2020833333321,23.98124999999981],[53.21041666666548,23.989583333333165],[53.21041666666548,24.006249999999845],[53.21458333333214,24.010416666666494],[53.218749999998806,24.010416666666494]]}},{"type":"Feature","properties":{"HYRIV_ID":20866259,"NEXT_DOWN":20864992,"MAIN_RIV":20864992,"LENGTH_KM":22.85,"CATCH_SKM":98.290001,"DIS_AV_CMS":0.0,"ORD_STRA":3,"ORD_FLOW":10},"geometry":{"type":"LineString","coordinates":[[52.59791666666544,23.877083333333182],[52.589583333332115,23.885416666666494],[52.58541666666545,23.885416666666494],[52.58124999999879,23.889583333333157],[52.577083333332126,23.889583333333157],[52.56874999999883,23.89791666666651],[52.564583333332166,23.89791666666651],[52.54791666666546,23.914583333333148],[52.54791666666546,23.935416666666477],[52.53958333333213,23.94374999999979],[52.53958333333213,23.947916666666494],[52.53541666666547,23.952083333333157],[52.53124999999872,23.952083333333157],[52.53124999999872,23.960416666666468],[52.53958333333213,23.968749999999822],[52.53958333333213,23.98124999999981],[52.53541666666547,23.98541666666646],[52.53541666666547,23.989583333333165],[52.53124999999872,23.993749999999828],[52.52708333333206,23.993749999999828],[52.522916666665424,23.997916666666477],[52.522916666665424,24.00208333333314],[52.510416666665435,24.00208333333314],[52.50624999999877,24.006249999999845],[52.50624999999877,24.010416666666494],[52.50208333333211,24.014583333333157],[52.497916666665475,24.014583333333157],[52.49374999999881,24.01874999999982]]}}]}