{"type":"FeatureCollection","features":[{"type":"Feature","properties":{"HYRIV_ID":20820914,"NEXT_DOWN":20821269,"MAIN_RIV":20821892,"LENGTH_KM":9.8599997,"CATCH_SKM":46.610001,"DIS_AV_CMS":0.019,"ORD_STRA":1,"ORD_FLOW":8},"geometry":{"type":"LineString","coordinates":[[51.545833333332155,28.02916666666639],[51.539583333332075,28.02291666666641],[51.51041666666546,28.02291666666641],[51.502083333332166,28.014583333333086],[51.502083333332166,28.00624999999973],[51.49374999999884,27.99791666666642],[51.48958333333218,28.00208333333311],[51.48541666666543,28.00208333333311],[51.47708333333213,28.010416666666437],[51.47291666666547,28.010416666666437]]}},{"type":"Feature","properties":{"HYRIV_ID":20820915,"NEXT_DOWN":20821214,"MAIN_RIV":20823109,"LENGTH_KM":1.54,"CATCH_SKM":11.37,"DIS_AV_CMS":0.024,"ORD_STRA":1,"ORD_FLOW":8},"geometry":{"type":"LineString","coordinates":[[51.90833333333211,28.008333333333105],[51.89791666666548,27.99791666666642]]}},{"type":"Feature","properties":{"HYRIV_ID":20820916,"NEXT_DOWN":20821214,"MAIN_RIV":20823109,"LENGTH_KM":3.3900001,"CATCH_SKM":15.35,"DIS_AV_CMS":0.032,"ORD_STRA":1,"ORD_FLOW":8},"geometry":{"type":"LineString","coordinates":[[51.92499999999876,28.012499999999754],[51.914583333332104,28.00208333333311],[51.90624999999878,28.00208333333311],[51.902083333332115,27.99791666666642],[51.89791666666548,27.99791666666642]]}},{"type":"Feature","properties":{"HYRIV_ID":20820972,"NEXT_DOWN":20820973,"MAIN_RIV":20823109,"LENGTH_KM":2.05,"CATCH_SKM":2.08,"DIS_AV_CMS":0.145,"ORD_STRA":2,"ORD_FLOW":7},"geometry":{"type":"LineString","coordinates":[[51.81458333333214,27.993749999999757],[51.8187499999988,27.993749999999757],[51.8270833333321,28.00208333333311],[51.83124999999876,28.00208333333311]]}},{"type":"Feature","properties":{"HYRIV_ID":20820973,"NEXT_DOWN":20821086,"MAIN_RIV":20823109,"LENGTH_KM":2.05,"CATCH_SKM":6.8200002,"DIS_AV_CMS":1.079,"ORD_STRA":3,"ORD_FLOW":6},"geometry":{"type":"LineString","coordinates":[[51.83124999999876,28.00208333333311],[51.83958333333217,27.993749999999757],[51.84791666666547,27.993749999999757]]}},{"type":"Feature","properties":{"HYRIV_ID":20820974,"NEXT_DOWN":20821086,"MAIN_RIV":20823109,"LENGTH_KM":8.6,"CATCH_SKM":25.77,"DIS_AV_CMS":0.052,"ORD_STRA":1,"ORD_FLOW":8},"geometry":{"type":"LineString","coordinates":[[51.88333333333216,28.054166666666426],[51.86874999999878,28.039583333333077],[51.86874999999878,28.03541666666643],[51.856249999998795,28.02291666666641],[51.85208333333213,28.02291666666641],[51.84791666666547,28.01874999999975],[51.84791666666547,28.010416666666437],[51.843749999998835,28.00624999999973],[51.84791666666547,28.00208333333311],[51.84791666666547,27.993749999999757]]}},{"type":"Feature","properties":{"HYRIV_ID":20821037,"NEXT_DOWN":20820972,"MAIN_RIV":20823109,"LENGTH_KM":0.69,"CATCH_SKM":11.19,"DIS_AV_CMS":0.022,"ORD_STRA":1,"ORD_FLOW":8},"geometry":{"type":"LineString","coordinates":[[51.81458333333214,27.987499999999763],[51.81458333333214,27.993749999999757]]}},{"type":"Feature","properties":{"HYRIV_ID":20821086,"NEXT_DOWN":20821211,"MAIN_RIV":20823109,"LENGTH_KM":1.24,"CATCH_SKM":1.52,"DIS_AV_CMS":1.174,"ORD_STRA":3,"ORD_FLOW":6},"geometry":{"type":"LineString","coordinates":[[51.84791666666547,27.993749999999757],[51.856249999998795,27.98541666666643]]}},{"type":"Feature","properties":{"HYRIV_ID":20821150,"NEXT_DOWN":20820972,"MAIN_RIV":20823109,"LENGTH_KM":4.3200002,"CATCH_SKM":4.1700001,"DIS_AV_CMS":0.118,"ORD_STRA":2,"ORD_FLOW":7},"geometry":{"type":"LineString","coordinates":[[51.78124999999878,27.981249999999783],[51.79374999999877,27.993749999999757],[51.80208333333215,27.993749999999757],[51.80624999999881,27.99791666666642],[51.810416666665475,27.99791666666642],[51.81458333333214,27.993749999999757]]}},{"type":"Feature","properties":{"HYRIV_ID":20821210,"NEXT_DOWN":20821892,"MAIN_RIV":20821892,"LENGTH_KM":5.1,"CATCH_SKM":34.869999,"DIS_AV_CMS":0.012,"ORD_STRA":1,"ORD_FLOW":8},"geometry":{"type":"LineString","coordinates":[[51.42499999999882,28.016666666666417],[51.41041666666541,28.00208333333311],[51.41041666666541,27.981249999999783],[51.41458333333216,27.977083333333077]]}},{"type":"Feature","properties":{"HYRIV_ID":20821211,"NEXT_DOWN":20821270,"MAIN_RIV":20823109,"LENGTH_KM":1.65,"CATCH_SKM":6.25,"DIS_AV_CMS":1.24,"ORD_STRA":3,"ORD_FLOW":6},"geometry":{"type":"LineString","coordinates":[[51.856249999998795,27.98541666666643],[51.86041666666546,27.98541666666643],[51.86874999999878,27.977083333333077]]}},{"type":"Feature","properties":{"HYRIV_ID":20821212,"NEXT_DOWN":20821213,"MAIN_RIV":20823109,"LENGTH_KM":4.04,"CATCH_SKM":16.49,"DIS_AV_CMS":0.034,"ORD_STRA":1,"ORD_FLOW":8},"geometry":{"type":"LineString","coordinates":[[51.872916666665446,28.0041666666664],[51.872916666665446,27.99791666666642],[51.87708333333208,27.993749999999757],[51.87708333333208,27.989583333333094],[51.88124999999883,27.98541666666643],[51.88541666666549,27.98541666666643],[51.89374999999882,27.977083333333077]]}},{"type":"Feature","properties":{"HYRIV_ID":20821213,"NEXT_DOWN":20821377,"MAIN_RIV":20823109,"LENGTH_KM":0.41,"CATCH_SKM":0.38,"DIS_AV_CMS":1.365,"ORD_STRA":3,"ORD_FLOW":6},"geometry":{"type":"LineString","coordinates":[[51.89374999999882,27.977083333333077],[51.89791666666548,27.977083333333077]]}},{"type":"Feature","properties":{"HYRIV_ID":20821214,"NEXT_DOWN":20821377,"MAIN_RIV":20823109,"LENGTH_KM":3.1900001,"CATCH_SKM":12.7,"DIS_AV_CMS":0.082,"ORD_STRA":2,"ORD_FLOW":8},"geometry":{"type":"LineString","coordinates":[[51.89791666666548,27.99791666666642],[51.89374999999882,27.993749999999757],[51.889583333332155,27.993749999999757],[51.889583333332155,27.989583333333094],[51.89791666666548,27.981249999999783],[51.89791666666548,27.977083333333077]]}},{"type":"Feature","properties":{"HYRIV_ID":20821268,"NEXT_DOWN":20821892,"MAIN_RIV":20821892,"LENGTH_KM":2.25,"CATCH_SKM":7.58,"DIS_AV_CMS":0.142,"ORD_STRA":2,"ORD_FLOW":7},"geometry":{"type":"LineString","coordinates":[[51.435416666665446,27.972916666666414],[51.43124999999878,27.972916666666414],[51.42708333333215,27.977083333333077],[51.41458333333216,27.977083333333077]]}},{"type":"Feature","properties":{"HYRIV_ID":20821269,"NEXT_DOWN":20821268,"MAIN_RIV":20821892,"LENGTH_KM":6.33,"CATCH_SKM":15.16,"DIS_AV_CMS":0.134,"ORD_STRA":2,"ORD_FLOW":7},"geometry":{"type":"LineString","coordinates":[[51.47291666666547,28.010416666666437],[51.468749999998806,28.00624999999973],[51.468749999998806,28.00208333333311],[51.46041666666548,27.993749999999757],[51.45208333333218,27.993749999999757],[51.447916666665435,27.989583333333094],[51.447916666665435,27.98541666666643],[51.44374999999877,27.981249999999783],[51.44374999999877,27.977083333333077],[51.43958333333211,27.972916666666414],[51.435416666665446,27.972916666666414]]}},{"type":"Feature","properties":{"HYRIV_ID":20821270,"NEXT_DOWN":20821213,"MAIN_RIV":20823109,"LENGTH_KM":2.87,"CATCH_SKM":6.0700002,"DIS_AV_CMS":1.325,"ORD_STRA":3,"ORD_FLOW":6},"geometry":{"type":"LineString","coordinates":[[51.86874999999878,27.977083333333077],[51.872916666665446,27.972916666666414],[51.889583333332155,27.972916666666414],[51.89374999999882,27.977083333333077]]}},{"type":"Feature","properties":{"HYRIV_ID":20821318,"NEXT_DOWN":20820860,"MAIN_RIV":20823109,"LENGTH_KM":10.13,"CATCH_SKM":39.240002,"DIS_AV_CMS":0.067,"ORD_STRA":1,"ORD_FLOW":8},"geometry":{"type":"LineString","coordinates":[[51.63333333333216,27.987499999999763],[51.639583333332126,27.981249999999783],[51.64791666666545,27.981249999999783],[51.65624999999878,27.972916666666414],[51.664583333332104,27.972916666666414],[51.66874999999874,27.968749999999766],[51.672916666665486,27.972916666666414],[51.672916666665486,27.977083333333077],[51.67708333333215,27.977083333333077],[51.68124999999881,27.981249999999783],[51.68958333333214,27.981249999999783],[51.7020833333321,27.993749999999757],[51.7020833333321,28.00208333333311]]}},{"type":"Feature","properties":{"HYRIV_ID":20821376,"NEXT_DOWN":20821086,"MAIN_RIV":20823109,"LENGTH_KM":4.5,"CATCH_SKM":14.41,"DIS_AV_CMS":0.029,"ORD_STRA":1,"ORD_FLOW":8},"geometry":{"type":"LineString","coordinates":[[51.8270833333321,27.96249999999973],[51.8270833333321,27.968749999999766],[51.83541666666551,27.977083333333077],[51.83541666666551,27.981249999999783],[51.83958333333217,27.98541666666643],[51.843749999998835,27.98541666666643],[51.84791666666547,27.989583333333094],[51.84791666666547,27.993749999999757]]}},{"type":"Feature","properties":{"HYRIV_ID":20821377,"NEXT_DOWN":20821441,"MAIN_RIV":20823109,"LENGTH_KM":1.7,"CATCH_SKM":3.98,"DIS_AV_CMS":1.474,"ORD_STRA":3,"ORD_FLOW":6},"geometry":{"type":"LineString","coordinates":[[51.89791666666548,27.977083333333077],[51.90624999999878,27.968749999999766],[51.90624999999878,27.96458333333306]]}},{"type":"Feature","properties":{"HYRIV_ID":20821438,"NEXT_DOWN":20820739,"MAIN_RIV":20823109,"LENGTH_KM":16.17,"CATCH_SKM":39.810001,"DIS_AV_CMS":0.076,"ORD_STRA":1,"ORD_FLOW":8},"geometry":{"type":"LineString","coordinates":[[51.687499999998806,27.95833333333308],[51.697916666665435,27.968749999999766],[51.706249999998846,27.968749999999766],[51.71041666666551,27.972916666666414],[51.72291666666547,27.972916666666414],[51.72708333333213,27.977083333333077],[51.731249999998795,27.972916666666414],[51.73958333333212,27.972916666666414],[51.74791666666542,27.981249999999783],[51.75624999999883,27.981249999999783],[51.76041666666549,27.98541666666643],[51.76041666666549,27.989583333333094],[51.77291666666545,28.00208333333311],[51.80624999999881,28.00208333333311],[51.81458333333214,28.010416666666437],[51.8187499999988,28.010416666666437]]}},{"type":"Feature","properties":{"HYRIV_ID":20821439,"NEXT_DOWN":20821211,"MAIN_RIV":20823109,"LENGTH_KM":3.8800001,"CATCH_SKM":18.77,"DIS_AV_CMS":0.037,"ORD_STRA":1,"ORD_FLOW":8},"geometry":{"type":"LineString","coordinates":[[51.83958333333217,27.95833333333308],[51.83958333333217,27.96458333333306],[51.843749999998835,27.968749999999766],[51.843749999998835,27.972916666666414],[51.84791666666547,27.977083333333077],[51.85208333333213,27.977083333333077],[51.856249999998795,27.981249999999783],[51.856249999998795,27.98541666666643]]}},{"type":"Feature","properties":{"HYRIV_ID":20821440,"NEXT_DOWN":20821441,"MAIN_RIV":20823109,"LENGTH_KM":0.69,"CATCH_SKM":10.81,"DIS_AV_CMS":0.022,"ORD_STRA":1,"ORD_FLOW":8},"geometry":{"type":"LineString","coordinates":[[51.90624999999878,27.95833333333308],[51.90624999999878,27.96458333333306]]}},{"type":"Feature","properties":{"HYRIV_ID":20821441,"NEXT_DOWN":20821773,"MAIN_RIV":20823109,"LENGTH_KM":0.62,"CATCH_SKM":1.33,"DIS_AV_CMS":1.5039999,"ORD_STRA":3,"ORD_FLOW":6},"geometry":{"type":"LineString","coordinates":[[51.90624999999878,27.96458333333306],[51.91041666666544,27.960416666666397]]}},{"type":"Feature","properties":{"HYRIV_ID":20821442,"NEXT_DOWN":20821773,"MAIN_RIV":20823109,"LENGTH_KM":5.0100002,"CATCH_SKM":25.02,"DIS_AV_CMS":0.053,"ORD_STRA":1,"ORD_FLOW":8},"geometry":{"type":"LineString","coordinates":[[51.9437499999988,27.987499999999763],[51.9437499999988,27.981249999999783],[51.927083333332064,27.96458333333306],[51.91874999999877,27.96458333333306],[51.914583333332104,27.960416666666397],[51.91041666666544,27.960416666666397]]}},{"type":"Feature","properties":{"HYRIV_ID":20821487,"NEXT_DOWN":20821726,"MAIN_RIV":20821994,"LENGTH_KM":5.25,"CATCH_SKM":13.65,"DIS_AV_CMS":0.004,"ORD_STRA":1,"ORD_FLOW":9},"geometry":{"type":"LineString","coordinates":[[51.52083333333212,27.99583333333309],[51.50624999999883,27.981249999999783],[51.50624999999883,27.972916666666414],[51.502083333332166,27.968749999999766],[51.502083333332166,27.96458333333306],[51.50624999999883,27.960416666666397],[51.50624999999883,27.95624999999975]]}},{"type":"Feature","properties":{"HYRIV_ID":20821488,"NEXT_DOWN":20821726,"MAIN_RIV":20821994,"LENGTH_KM":0.93,"CATCH_SKM":11.75,"DIS_AV_CMS":0.003,"ORD_STRA":1,"ORD_FLOW":9},"geometry":{"type":"LineString","coordinates":[[51.512499999998795,27.96249999999973],[51.50624999999883,27.95624999999975]]}},{"type":"Feature","properties":{"HYRIV_ID":20821552,"NEXT_DOWN":20821270,"MAIN_RIV":20823109,"LENGTH_KM":3.32,"CATCH_SKM":20.1,"DIS_AV_CMS":0.04,"ORD_STRA":1,"ORD_FLOW":8},"geometry":{"type":"LineString","coordinates":[[51.86041666666546,27.949999999999754],[51.86041666666546,27.95624999999975],[51.86458333333212,27.960416666666397],[51.86458333333212,27.972916666666414],[51.86874999999878,27.977083333333077]]}},{"type":"Feature","properties":{"HYRIV_ID":20821612,"NEXT_DOWN":20821150,"MAIN_RIV":20823109,"LENGTH_KM":4.79,"CATCH_SKM":19.530001,"DIS_AV_CMS":0.038,"ORD_STRA":1,"ORD_FLOW":8},"geometry":{"type":"LineString","coordinates":[[51.77499999999878,27.945833333333105],[51.78124999999878,27.952083333333086],[51.78124999999878,27.960416666666397],[51.777083333332115,27.96458333333306],[51.78124999999878,27.968749999999766],[51.78124999999878,27.972916666666414],[51.78541666666544,27.977083333333077],[51.78124999999878,27.981249999999783]]}},{"type":"Feature","properties":{"HYRIV_ID":20821663,"NEXT_DOWN":20821268,"MAIN_RIV":20821892,"LENGTH_KM":5.14,"CATCH_SKM":31.469999,"DIS_AV_CMS":0.004,"ORD_STRA":1,"ORD_FLOW":9},"geometry":{"type":"LineString","coordinates":[[51.466666666665475,27.941666666666443],[51.447916666665435,27.960416666666397],[51.447916666665435,27.96458333333306],[51.43958333333211,27.96458333333306],[51.435416666665446,27.968749999999766],[51.435416666665446,27.972916666666414]]}},{"type":"Feature","properties":{"HYRIV_ID":20821726,"NEXT_DOWN":20821994,"MAIN_RIV":20821994,"LENGTH_KM":1.85,"CATCH_SKM":2.27,"DIS_AV_CMS":0.007,"ORD_STRA":2,"ORD_FLOW":9},"geometry":{"type":"LineString","coordinates":[[51.50624999999883,27.95624999999975],[51.50624999999883,27.93958333333307]]}},{"type":"Feature","properties":{"HYRIV_ID":20821727,"NEXT_DOWN":20821994,"MAIN_RIV":20821994,"LENGTH_KM":1.72,"CATCH_SKM":15.93,"DIS_AV_CMS":0.004,"ORD_STRA":1,"ORD_FLOW":9},"geometry":{"type":"LineString","coordinates":[[51.514583333332126,27.949999999999754],[51.514583333332126,27.943749999999774],[51.51041666666546,27.93958333333307],[51.50624999999883,27.93958333333307]]}},{"type":"Feature","properties":{"HYRIV_ID":20821728,"NEXT_DOWN":20821150,"MAIN_RIV":20823109,"LENGTH_KM":10.07,"CATCH_SKM":36.599998,"DIS_AV_CMS":0.07,"ORD_STRA":1,"ORD_FLOW":8},"geometry":{"type":"LineString","coordinates":[[51.69999999999877,27.93958333333307],[51.71041666666551,27.93958333333307],[51.718749999998806,27.947916666666423],[51.731249999998795,27.947916666666423],[51.73958333333212,27.95624999999975],[51.74791666666542,27.95624999999975],[51.77291666666545,27.981249999999783],[51.78124999999878,27.981249999999783]]}},{"type":"Feature","properties":{"HYRIV_ID":20821773,"NEXT_DOWN":20821833,"MAIN_RIV":20823109,"LENGTH_KM":3.25,"CATCH_SKM":7.02,"DIS_AV_CMS":1.608,"ORD_STRA":3,"ORD_FLOW":6},"geometry":{"type":"LineString","coordinates":[[51.91041666666544,27.960416666666397],[51.91041666666544,27.95624999999975],[51.914583333332104,27.952083333333086],[51.914583333332104,27.943749999999774],[51.92291666666543,27.935416666666406]]}},{"type":"Feature","properties":{"HYRIV_ID":20821833,"NEXT_DOWN":20822106,"MAIN_RIV":20823109,"LENGTH_KM":0.62,"CATCH_SKM":4.1700001,"DIS_AV_CMS":1.663,"ORD_STRA":3,"ORD_FLOW":6},"geometry":{"type":"LineString","coordinates":[[51.92291666666543,27.935416666666406],[51.927083333332064,27.931249999999757]]}},{"type":"Feature","properties":{"HYRIV_ID":20821834,"NEXT_DOWN":20822106,"MAIN_RIV":20823109,"LENGTH_KM":7.83,"CATCH_SKM":32.23,"DIS_AV_CMS":0.069,"ORD_STRA":1,"ORD_FLOW":8},"geometry":{"type":"LineString","coordinates":[[51.97499999999883,27.983333333333114],[51.96458333333217,27.972916666666414],[51.96458333333217,27.968749999999766],[51.9520833333321,27.95624999999975],[51.9520833333321,27.952083333333086],[51.93958333333214,27.93958333333307],[51.935416666665475,27.93958333333307],[51.927083333332064,27.931249999999757]]}},{"type":"Feature","properties":{"HYRIV_ID":20821892,"NEXT_DOWN":0,"MAIN_RIV":20821892,"LENGTH_KM":6.1799998,"CATCH_SKM":11.57,"DIS_AV_CMS":0.139,"ORD_STRA":2,"ORD_FLOW":7},"geometry":{"type":"LineString","coordinates":[[51.41458333333216,27.977083333333077],[51.41041666666541,27.972916666666414],[51.41041666666541,27.960416666666397],[51.41458333333216,27.95624999999975],[51.41458333333216,27.943749999999774],[51.41041666666541,27.93958333333307],[51.41041666666541,27.931249999999757],[51.40624999999875,27.927083333333094]]}},{"type":"Feature","properties":{"HYRIV_ID":20821994,"NEXT_DOWN":0,"MAIN_RIV":20821994,"LENGTH_KM":3.09,"CATCH_SKM":6.0700002,"DIS_AV_CMS":0.011,"ORD_STRA":2,"ORD_FLOW":8},"geometry":{"type":"LineString","coordinates":[[51.50624999999883,27.93958333333307],[51.48541666666543,27.918749999999783]]}},{"type":"Feature","properties":{"HYRIV_ID":20821995,"NEXT_DOWN":20821833,"MAIN_RIV":20823109,"LENGTH_KM":2.9300001,"CATCH_SKM":19.35,"DIS_AV_CMS":0.039,"ORD_STRA":1,"ORD_FLOW":8},"geometry":{"type":"LineString","coordinates":[[51.904166666665446,27.918749999999783],[51.91041666666544,27.918749999999783],[51.92291666666543,27.931249999999757],[51.92291666666543,27.935416666666406]]}},{"type":"Feature","properties":{"HYRIV_ID":20822106,"NEXT_DOWN":20822150,"MAIN_RIV":20823109,"LENGTH_KM":3.09,"CATCH_SKM":7.4,"DIS_AV_CMS":1.768,"ORD_STRA":3,"ORD_FLOW":6},"geometry":{"type":"LineString","coordinates":[[51.927083333332064,27.931249999999757],[51.94791666666546,27.910416666666414]]}},{"type":"Feature","properties":{"HYRIV_ID":20822107,"NEXT_DOWN":20822150,"MAIN_RIV":20823109,"LENGTH_KM":8.3100004,"CATCH_SKM":27.110001,"DIS_AV_CMS":0.058,"ORD_STRA":1,"ORD_FLOW":8},"geometry":{"type":"LineString","coordinates":[[51.98958333333212,27.966666666666434],[51.98958333333212,27.952083333333086],[51.981249999998795,27.943749999999774],[51.97708333333216,27.943749999999774],[51.968749999998835,27.935416666666406],[51.968749999998835,27.931249999999757],[51.96458333333217,27.927083333333094],[51.96458333333217,27.92291666666643],[51.96041666666551,27.918749999999783],[51.95624999999876,27.918749999999783],[51.94791666666546,27.910416666666414]]}},{"type":"Feature","properties":{"HYRIV_ID":20822149,"NEXT_DOWN":20822538,"MAIN_RIV":20823109,"LENGTH_KM":0.61,"CATCH_SKM":12.71,"DIS_AV_CMS":0.026,"ORD_STRA":1,"ORD_FLOW":8},"geometry":{"type":"LineString","coordinates":[[51.94166666666547,27.906249999999766],[51.94791666666546,27.906249999999766]]}},{"type":"Feature","properties":{"HYRIV_ID":20822150,"NEXT_DOWN":20822538,"MAIN_RIV":20823109,"LENGTH_KM":0.46,"CATCH_SKM":0.38,"DIS_AV_CMS":1.83,"ORD_STRA":3,"ORD_FLOW":6},"geometry":{"type":"LineString","coordinates":[[51.94791666666546,27.910416666666414],[51.94791666666546,27.906249999999766]]}},{"type":"Feature","properties":{"HYRIV_ID":20822207,"NEXT_DOWN":20822539,"MAIN_RIV":20823109,"LENGTH_KM":8.7799997,"CATCH_SKM":33.18,"DIS_AV_CMS":0.071,"ORD_STRA":1,"ORD_FLOW":8},"geometry":{"type":"LineString","coordinates":[[52.01874999999882,27.95833333333308],[52.01874999999882,27.952083333333086],[52.014583333332155,27.952083333333086],[51.99374999999878,27.931249999999757],[51.997916666665446,27.927083333333094],[51.997916666665446,27.92291666666643],[51.981249999998795,27.906249999999766],[51.97708333333216,27.906249999999766],[51.9729166666655,27.902083333333103]]}},{"type":"Feature","properties":{"HYRIV_ID":20822255,"NEXT_DOWN":20822539,"MAIN_RIV":20823109,"LENGTH_KM":6.58,"CATCH_SKM":21.809999,"DIS_AV_CMS":0.046,"ORD_STRA":1,"ORD_FLOW":8},"geometry":{"type":"LineString","coordinates":[[52.016666666665486,27.929166666666426],[52.006249999998744,27.918749999999783],[52.006249999998744,27.910416666666414],[52.00208333333211,27.906249999999766],[51.997916666665446,27.906249999999766],[51.98958333333212,27.89791666666644],[51.97708333333216,27.89791666666644],[51.9729166666655,27.902083333333103]]}},{"type":"Feature","properties":{"HYRIV_ID":20822396,"NEXT_DOWN":0,"MAIN_RIV":20822396,"LENGTH_KM":22.110001,"CATCH_SKM":78.110001,"DIS_AV_CMS":0.07,"ORD_STRA":1,"ORD_FLOW":8},"geometry":{"type":"LineString","coordinates":[[51.60208333333213,28.04583333333307],[51.60208333333213,28.039583333333077],[51.606249999998795,28.03541666666643],[51.606249999998795,28.031249999999723],[51.59791666666547,28.02291666666641],[51.60208333333213,28.01874999999975],[51.60208333333213,28.014583333333086],[51.59791666666547,28.010416666666437],[51.59791666666547,28.00624999999973],[51.593749999998806,28.00208333333311],[51.58541666666551,28.00208333333311],[51.581249999998846,27.99791666666642],[51.581249999998846,27.993749999999757],[51.572916666665435,27.98541666666643],[51.572916666665435,27.977083333333077],[51.5770833333321,27.972916666666414],[51.5770833333321,27.968749999999766],[51.572916666665435,27.96458333333306],[51.56874999999877,27.96458333333306],[51.55624999999881,27.952083333333086],[51.55208333333215,27.952083333333086],[51.54374999999882,27.943749999999774],[51.54374999999882,27.93958333333307],[51.539583333332075,27.935416666666406],[51.54374999999882,27.931249999999757],[51.54374999999882,27.914583333333077],[51.539583333332075,27.910416666666414],[51.539583333332075,27.89374999999975],[51.54374999999882,27.889583333333086]]}},{"type":"Feature","properties":{"HYRIV_ID":20822536,"NEXT_DOWN":20822660,"MAIN_RIV":20822660,"LENGTH_KM":9.1400003,"CATCH_SKM":25.030001,"DIS_AV_CMS":0.027,"ORD_STRA":1,"ORD_FLOW":8},"geometry":{"type":"LineString","coordinates":[[51.59791666666547,27.949999999999754],[51.59791666666547,27.93958333333307],[51.58958333333214,27.931249999999757],[51.58541666666551,27.931249999999757],[51.58541666666551,27.92291666666643],[51.581249999998846,27.918749999999783],[51.581249999998846,27.906249999999766],[51.5770833333321,27.902083333333103],[51.581249999998846,27.89791666666644],[51.5770833333321,27.89374999999975],[51.5770833333321,27.885416666666423],[51.581249999998846,27.88124999999976]]}},{"type":"Feature","properties":{"HYRIV_ID":20822537,"NEXT_DOWN":20822660,"MAIN_RIV":20822660,"LENGTH_KM":5.5300002,"CATCH_SKM":20.860001,"DIS_AV_CMS":0.027,"ORD_STRA":1,"ORD_FLOW":8},"geometry":{"type":"LineString","coordinates":[[51.61041666666546,27.91666666666645],[51.61041666666546,27.910416666666414],[51.606249999998795,27.906249999999766],[51.59791666666547,27.906249999999766],[51.593749999998806,27.902083333333103],[51.593749999998806,27.89791666666644],[51.581249999998846,27.885416666666423],[51.581249999998846,27.88124999999976]]}},{"type":"Feature","properties":{"HYRIV_ID":20822538,"NEXT_DOWN":20823109,"MAIN_RIV":20823109,"LENGTH_KM":3.81,"CATCH_SKM":15.37,"DIS_AV_CMS":1.911,"ORD_STRA":3,"ORD_FLOW":6},"geometry":{"type":"LineString","coordinates":[[51.94791666666546,27.906249999999766],[51.94791666666546,27.89791666666644],[51.96458333333217,27.88124999999976],[51.968749999998835,27.88124999999976]]}},{"type":"Feature","properties":{"HYRIV_ID":20822539,"NEXT_DOWN":20823109,"MAIN_RIV":20823109,"LENGTH_KM":2.78,"CATCH_SKM":3.4200001,"DIS_AV_CMS":0.125,"ORD_STRA":2,"ORD_FLOW":7},"geometry":{"type":"LineString","coordinates":[[51.9729166666655,27.902083333333103],[51.968749999998835,27.89791666666644],[51.968749999998835,27.89374999999975],[51.96458333333217,27.889583333333086],[51.96458333333217,27.885416666666423],[51.968749999998835,27.88124999999976]]}},{"type":"Feature","properties":{"HYRIV_ID":20822660,"NEXT_DOWN":0,"MAIN_RIV":20822660,"LENGTH_KM":1.24,"CATCH_SKM":0.95,"DIS_AV_CMS":0.057,"ORD_STRA":2,"ORD_FLOW":8},"geometry":{"type":"LineString","coordinates":[[51.581249999998846,27.88124999999976],[51.572916666665435,27.872916666666406]]}},{"type":"Feature","properties":{"HYRIV_ID":20822661,"NEXT_DOWN":20822964,"MAIN_RIV":20822964,"LENGTH_KM":2.4,"CATCH_SKM":14.42,"DIS_AV_CMS":0.021,"ORD_STRA":1,"ORD_FLOW":8},"geometry":{"type":"LineString","coordinates":[[51.618749999998755,27.891666666666417],[51.618749999998755,27.885416666666423],[51.61458333333209,27.88124999999976],[51.61458333333209,27.87708333333311],[51.618749999998755,27.872916666666406]]}},{"type":"Feature","properties":{"HYRIV_ID":20822719,"NEXT_DOWN":20822964,"MAIN_RIV":20822964,"LENGTH_KM":0.93,"CATCH_SKM":10.81,"DIS_AV_CMS":0.018,"ORD_STRA":1,"ORD_FLOW":8},"geometry":{"type":"LineString","coordinates":[[51.624999999998835,27.866666666666426],[51.618749999998755,27.872916666666406]]}},{"type":"Feature","properties":{"HYRIV_ID":20822964,"NEXT_DOWN":0,"MAIN_RIV":20822964,"LENGTH_KM":3.09,"CATCH_SKM":7.02,"DIS_AV_CMS":0.049,"ORD_STRA":2,"ORD_FLOW":8},"geometry":{"type":"LineString","coordinates":[[51.618749999998755,27.872916666666406],[51.61458333333209,27.868749999999743],[51.61458333333209,27.86041666666643],[51.61041666666546,27.85624999999977],[51.61041666666546,27.847916666666414]]}},{"type":"Feature","properties":{"HYRIV_ID":20823041,"NEXT_DOWN":0,"MAIN_RIV":20823041,"LENGTH_KM":5.4899998,"CATCH_SKM":23.34,"DIS_AV_CMS":0.045,"ORD_STRA":1,"ORD_FLOW":8},"geometry":{"type":"LineString","coordinates":[[51.83958333333217,27.887499999999754],[51.83958333333217,27.87708333333311],[51.843749999998835,27.872916666666406],[51.83958333333217,27.868749999999743],[51.83958333333217,27.864583333333094],[51.83541666666551,27.86041666666643],[51.83541666666551,27.852083333333077],[51.83124999999876,27.847916666666414],[51.83124999999876,27.84374999999975]]}},{"type":"Feature","properties":{"HYRIV_ID":20823106,"NEXT_DOWN":0,"MAIN_RIV":20823106,"LENGTH_KM":5.4899998,"CATCH_SKM":21.059999,"DIS_AV_CMS":0.039,"ORD_STRA":1,"ORD_FLOW":8},"geometry":{"type":"LineString","coordinates":[[51.685416666665475,27.88333333333309],[51.685416666665475,27.872916666666406],[51.67708333333215,27.864583333333094],[51.67708333333215,27.847916666666414],[51.66874999999874,27.839583333333103]]}},{"type":"Feature","properties":{"HYRIV_ID":20823107,"NEXT_DOWN":0,"MAIN_RIV":20823107,"LENGTH_KM":6.8,"CATCH_SKM":27.700001,"DIS_AV_CMS":0.052,"ORD_STRA":1,"ORD_FLOW":8},"geometry":{"type":"LineString","coordinates":[[51.79583333333207,27.887499999999754],[51.789583333332104,27.88124999999976],[51.789583333332104,27.87708333333311],[51.79374999999877,27.872916666666406],[51.789583333332104,27.868749999999743],[51.789583333332104,27.864583333333094],[51.79374999999877,27.86041666666643],[51.78541666666544,27.852083333333077],[51.7979166666654,27.839583333333103]]}},{"type":"Feature","properties":{"HYRIV_ID":20823108,"NEXT_DOWN":0,"MAIN_RIV":20823108,"LENGTH_KM":0.69,"CATCH_SKM":15.37,"DIS_AV_CMS":0.03,"ORD_STRA":1,"ORD_FLOW":8},"geometry":{"type":"LineString","coordinates":[[51.88541666666549,27.845833333333083],[51.88541666666549,27.839583333333103]]}},{"type":"Feature","properties":{"HYRIV_ID":20823109,"NEXT_DOWN":0,"MAIN_RIV":20823109,"LENGTH_KM":5.4099998,"CATCH_SKM":19.92,"DIS_AV_CMS":2.115,"ORD_STRA":3,"ORD_FLOW":6},"geometry":{"type":"LineString","coordinates":[[51.968749999998835,27.88124999999976],[51.968749999998835,27.872916666666406],[51.97708333333216,27.864583333333094],[51.97708333333216,27.85624999999977],[51.98958333333212,27.84374999999975],[51.98958333333212,27.839583333333103]]}},{"type":"Feature","properties":{"HYRIV_ID":20823223,"NEXT_DOWN":0,"MAIN_RIV":20823223,"LENGTH_KM":11.45,"CATCH_SKM":53.5,"DIS_AV_CMS":0.102,"ORD_STRA":1,"ORD_FLOW":7},"geometry":{"type":"LineString","coordinates":[[51.72708333333213,27.908333333333083],[51.72708333333213,27.902083333333103],[51.73958333333212,27.902083333333103],[51.743749999998755,27.89791666666644],[51.74791666666542,27.89791666666644],[51.74791666666542,27.89374999999975],[51.752083333332166,27.889583333333086],[51.752083333332166,27.885416666666423],[51.74791666666542,27.88124999999976],[51.752083333332166,27.87708333333311],[51.752083333332166,27.864583333333094],[51.76041666666549,27.85624999999977],[51.76041666666549,27.847916666666414],[51.75624999999883,27.84374999999975],[51.75624999999883,27.835416666666397],[51.752083333332166,27.831249999999734]]}},{"type":"Feature","properties":{"HYRIV_ID":20837423,"NEXT_DOWN":0,"MAIN_RIV":20837423,"LENGTH_KM":5.9,"CATCH_SKM":34.3,"DIS_AV_CMS":0.0,"ORD_STRA":1,"ORD_FLOW":10},"geometry":{"type":"LineString","coordinates":[[49.97083333333214,26.77916666666642],[49.97708333333213,26.785416666666457],[49.989583333332206,26.785416666666457],[49.99374999999887,26.781249999999794],[50.01874999999882,26.781249999999794],[50.02291666666545,26.785416666666457]]}},{"type":"Feature","properties":{"HYRIV_ID":20839355,"NEXT_DOWN":0,"MAIN_RIV":20839355,"LENGTH_KM":1.52,"CATCH_SKM":13.05,"DIS_AV_CMS":0.0,"ORD_STRA":1,"ORD_FLOW":10},"geometry":{"type":"LineString","coordinates":[[49.9979166666655,26.62916666666643],[49.9979166666655,26.622916666666434],[50.00624999999883,26.622916666666434]]}},{"type":"Feature","properties":{"HYRIV_ID":20839552,"NEXT_DOWN":0,"MAIN_RIV":20839552,"LENGTH_KM":1.35,"CATCH_SKM":14.97,"DIS_AV_CMS":0.0,"ORD_STRA":1,"ORD_FLOW":10},"geometry":{"type":"LineString","coordinates":[[49.99583333333217,26.61249999999979],[50.002083333332166,26.606249999999754],[50.00624999999883,26.606249999999754]]}},{"type":"Feature","properties":{"HYRIV_ID":20839835,"NEXT_DOWN":0,"MAIN_RIV":20839835,"LENGTH_KM":3.73,"CATCH_SKM":21.690001,"DIS_AV_CMS":0.0,"ORD_STRA":1,"ORD_FLOW":10},"geometry":{"type":"LineString","coordinates":[[49.97916666666546,26.581249999999763],[49.98541666666546,26.581249999999763],[49.99374999999887,26.58958333333313],[49.9979166666655,26.58958333333313],[50.002083333332166,26.59374999999978],[50.01041666666549,26.59374999999978]]}},{"type":"Feature","properties":{"HYRIV_ID":20840291,"NEXT_DOWN":0,"MAIN_RIV":20840291,"LENGTH_KM":1.24,"CATCH_SKM":16.129999,"DIS_AV_CMS":0.0,"ORD_STRA":1,"ORD_FLOW":10},"geometry":{"type":"LineString","coordinates":[[50.016666666665486,26.53958333333309],[50.02291666666545,26.53958333333309],[50.027083333332115,26.543749999999754]]}},{"type":"Feature","properties":{"HYRIV_ID":20840652,"NEXT_DOWN":0,"MAIN_RIV":20840652,"LENGTH_KM":1.35,"CATCH_SKM":12.68,"DIS_AV_CMS":0.0,"ORD_STRA":1,"ORD_FLOW":10},"geometry":{"type":"LineString","coordinates":[[50.02916666666553,26.504166666666414],[50.035416666665526,26.51041666666645],[50.03958333333219,26.51041666666645]]}},{"type":"Feature","properties":{"HYRIV_ID":20841079,"NEXT_DOWN":0,"MAIN_RIV":20841079,"LENGTH_KM":1.87,"CATCH_SKM":5.0,"DIS_AV_CMS":0.0,"ORD_STRA":3,"ORD_FLOW":10},"geometry":{"type":"LineString","coordinates":[[50.05208333333215,26.46874999999978],[50.06458333333214,26.46874999999978],[50.0687499999988,26.47291666666643]]}},{"type":"Feature","properties":{"HYRIV_ID":20841463,"NEXT_DOWN":20841079,"MAIN_RIV":20841079,"LENGTH_KM":4.4099998,"CATCH_SKM":17.110001,"DIS_AV_CMS":0.0,"ORD_STRA":1,"ORD_FLOW":10},"geometry":{"type":"LineString","coordinates":[[50.05624999999881,26.433333333333103],[50.05624999999881,26.439583333333083],[50.060416666665475,26.44374999999979],[50.060416666665475,26.4520833333331],[50.05624999999881,26.456249999999805],[50.05624999999881,26.460416666666454],[50.05208333333215,26.464583333333117],[50.05208333333215,26.46874999999978]]}},{"type":"Feature","properties":{"HYRIV_ID":20841511,"NEXT_DOWN":20841513,"MAIN_RIV":20841079,"LENGTH_KM":5.1799998,"CATCH_SKM":20.57,"DIS_AV_CMS":0.0,"ORD_STRA":3,"ORD_FLOW":10},"geometry":{"type":"LineString","coordinates":[[49.968749999998835,26.4520833333331],[49.97708333333213,26.44374999999979],[49.981249999998795,26.44374999999979],[49.98541666666546,26.439583333333083],[49.989583333332206,26.439583333333083],[49.9979166666655,26.43124999999977],[50.01041666666549,26.43124999999977]]}},{"type":"Feature","properties":{"HYRIV_ID":20841512,"NEXT_DOWN":20841513,"MAIN_RIV":20841079,"LENGTH_KM":5.89,"CATCH_SKM":21.709999,"DIS_AV_CMS":0.0,"ORD_STRA":1,"ORD_FLOW":10},"geometry":{"type":"LineString","coordinates":[[49.99166666666554,26.47499999999976],[50.002083333332166,26.464583333333117],[50.002083333332166,26.460416666666454],[50.01041666666549,26.4520833333331],[50.01041666666549,26.447916666666437],[50.00624999999883,26.44374999999979],[50.01041666666549,26.439583333333083],[50.01041666666549,26.43124999999977]]}},{"type":"Feature","properties":{"HYRIV_ID":20841513,"NEXT_DOWN":20841079,"MAIN_RIV":20841079,"LENGTH_KM":6.27,"CATCH_SKM":29.790001,"DIS_AV_CMS":0.0,"ORD_STRA":3,"ORD_FLOW":10},"geometry":{"type":"LineString","coordinates":[[50.01041666666549,26.43124999999977],[50.01874999999882,26.43124999999977],[50.03124999999886,26.44374999999979],[50.03124999999886,26.447916666666437],[50.05208333333215,26.46874999999978]]}},{"type":"Feature","properties":{"HYRIV_ID":20841798,"NEXT_DOWN":0,"MAIN_RIV":20841798,"LENGTH_KM":8.0200005,"CATCH_SKM":25.379999,"DIS_AV_CMS":0.0,"ORD_STRA":1,"ORD_FLOW":10},"geometry":{"type":"LineString","coordinates":[[50.0999999999988,26.40416666666645],[50.08958333333217,26.41458333333309],[50.08958333333217,26.418749999999797],[50.093749999998835,26.422916666666445],[50.08541666666551,26.43124999999977],[50.093749999998835,26.439583333333083],[50.093749999998835,26.44374999999979],[50.08958333333217,26.44374999999979],[50.08541666666551,26.447916666666437],[50.08541666666551,26.460416666666454]]}},{"type":"Feature","properties":{"HYRIV_ID":20842125,"NEXT_DOWN":20841513,"MAIN_RIV":20841079,"LENGTH_KM":7.4400001,"CATCH_SKM":22.3,"DIS_AV_CMS":0.0,"ORD_STRA":2,"ORD_FLOW":10},"geometry":{"type":"LineString","coordinates":[[50.02291666666545,26.38124999999979],[50.01041666666549,26.38124999999979],[50.00624999999883,26.385416666666437],[50.00624999999883,26.389583333333142],[50.002083333332166,26.393749999999805],[50.00624999999883,26.397916666666454],[50.00624999999883,26.41458333333309],[50.01041666666549,26.418749999999797],[50.01041666666549,26.43124999999977]]}},{"type":"Feature","properties":{"HYRIV_ID":20842126,"NEXT_DOWN":0,"MAIN_RIV":20842126,"LENGTH_KM":7.04,"CATCH_SKM":27.120001,"DIS_AV_CMS":0.0,"ORD_STRA":1,"ORD_FLOW":10},"geometry":{"type":"LineString","coordinates":[[50.13749999999882,26.385416666666437],[50.14374999999882,26.385416666666437],[50.14791666666548,26.38124999999979],[50.152083333332115,26.38124999999979],[50.15624999999878,26.385416666666437],[50.160416666665526,26.385416666666437],[50.16874999999885,26.393749999999805],[50.16874999999885,26.397916666666454],[50.172916666665515,26.402083333333117],[50.172916666665515,26.41458333333309],[50.17708333333218,26.418749999999797]]}},{"type":"Feature","properties":{"HYRIV_ID":20842177,"NEXT_DOWN":20842125,"MAIN_RIV":20841079,"LENGTH_KM":0.69,"CATCH_SKM":11.93,"DIS_AV_CMS":0.0,"ORD_STRA":1,"ORD_FLOW":10},"geometry":{"type":"LineString","coordinates":[[50.02291666666545,26.374999999999794],[50.02291666666545,26.38124999999979]]}},{"type":"Feature","properties":{"HYRIV_ID":20842340,"NEXT_DOWN":20842125,"MAIN_RIV":20841079,"LENGTH_KM":7.3600001,"CATCH_SKM":33.849998,"DIS_AV_CMS":0.0,"ORD_STRA":1,"ORD_FLOW":10},"geometry":{"type":"LineString","coordinates":[[50.07916666666543,26.362499999999777],[50.060416666665475,26.38124999999979],[50.05624999999881,26.38124999999979],[50.047916666665486,26.389583333333142],[50.04374999999885,26.389583333333142],[50.03958333333219,26.385416666666437],[50.03124999999886,26.385416666666437],[50.027083333332115,26.38124999999979],[50.02291666666545,26.38124999999979]]}},{"type":"Feature","properties":{"HYRIV_ID":20842494,"NEXT_DOWN":0,"MAIN_RIV":20842494,"LENGTH_KM":7.04,"CATCH_SKM":33.080002,"DIS_AV_CMS":0.0,"ORD_STRA":1,"ORD_FLOW":10},"geometry":{"type":"LineString","coordinates":[[50.16249999999886,26.358333333333114],[50.16874999999885,26.352083333333134],[50.17708333333218,26.352083333333134],[50.18124999999881,26.356249999999783],[50.18124999999881,26.36458333333311],[50.20624999999876,26.389583333333142]]}},{"type":"Feature","properties":{"HYRIV_ID":20842695,"NEXT_DOWN":0,"MAIN_RIV":20842695,"LENGTH_KM":3.3900001,"CATCH_SKM":17.32,"DIS_AV_CMS":0.0,"ORD_STRA":1,"ORD_FLOW":10},"geometry":{"type":"LineString","coordinates":[[50.202083333332126,26.32916666666643],[50.202083333332126,26.335416666666454],[50.20624999999876,26.339583333333117],[50.22708333333216,26.339583333333117]]}},{"type":"Feature","properties":{"HYRIV_ID":20843135,"NEXT_DOWN":20843440,"MAIN_RIV":20844229,"LENGTH_KM":13.27,"CATCH_SKM":56.950001,"DIS_AV_CMS":0.0,"ORD_STRA":1,"ORD_FLOW":10},"geometry":{"type":"LineString","coordinates":[[50.07083333333213,26.316666666666443],[50.081249999998846,26.306249999999757],[50.081249999998846,26.30208333333311],[50.0687499999988,26.289583333333134],[50.05208333333215,26.306249999999757],[50.05208333333215,26.31041666666642],[50.047916666665486,26.314583333333125],[50.04374999999885,26.31041666666642],[50.035416666665526,26.31041666666642],[50.03124999999886,26.314583333333125],[50.027083333332115,26.314583333333125],[50.01874999999882,26.306249999999757],[49.9979166666655,26.306249999999757]]}},{"type":"Feature","properties":{"HYRIV_ID":20843440,"NEXT_DOWN":20843764,"MAIN_RIV":20844229,"LENGTH_KM":6.1599998,"CATCH_SKM":26.559999,"DIS_AV_CMS":0.0,"ORD_STRA":2,"ORD_FLOW":10},"geometry":{"type":"LineString","coordinates":[[49.9979166666655,26.306249999999757],[49.99374999999887,26.30208333333311],[49.9979166666655,26.297916666666445],[49.9979166666655,26.293749999999783],[50.00624999999883,26.28541666666647],[50.00624999999883,26.277083333333117],[50.01041666666549,26.272916666666454],[50.014583333332155,26.272916666666454],[50.02291666666545,26.264583333333128]]}},{"type":"Feature","properties":{"HYRIV_ID":20843441,"NEXT_DOWN":20843764,"MAIN_RIV":20844229,"LENGTH_KM":0.62,"CATCH_SKM":14.82,"DIS_AV_CMS":0.0,"ORD_STRA":1,"ORD_FLOW":10},"geometry":{"type":"LineString","coordinates":[[50.02916666666553,26.264583333333128],[50.02291666666545,26.264583333333128]]}},{"type":"Feature","properties":{"HYRIV_ID":20843764,"NEXT_DOWN":20844229,"MAIN_RIV":20844229,"LENGTH_KM":3.26,"CATCH_SKM":8.0900002,"DIS_AV_CMS":0.0,"ORD_STRA":2,"ORD_FLOW":10},"geometry":{"type":"LineString","coordinates":[[50.02291666666545,26.264583333333128],[50.027083333332115,26.26041666666648],[50.02291666666545,26.256249999999774],[50.02291666666545,26.243749999999757],[50.027083333332115,26.239583333333094]]}},{"type":"Feature","properties":{"HYRIV_ID":20843765,"NEXT_DOWN":20844229,"MAIN_RIV":20844229,"LENGTH_KM":2.8,"CATCH_SKM":24.83,"DIS_AV_CMS":0.0,"ORD_STRA":1,"ORD_FLOW":10},"geometry":{"type":"LineString","coordinates":[[50.04999999999882,26.249999999999794],[50.04374999999885,26.243749999999757],[50.03124999999886,26.243749999999757],[50.027083333332115,26.239583333333094]]}},{"type":"Feature","properties":{"HYRIV_ID":20844080,"NEXT_DOWN":20844462,"MAIN_RIV":20844518,"LENGTH_KM":8.2,"CATCH_SKM":27.139999,"DIS_AV_CMS":0.0,"ORD_STRA":1,"ORD_FLOW":10},"geometry":{"type":"LineString","coordinates":[[50.11041666666546,26.270833333333123],[50.11041666666546,26.264583333333128],[50.11874999999887,26.256249999999774],[50.12291666666553,26.256249999999774],[50.127083333332166,26.25208333333311],[50.127083333332166,26.243749999999757],[50.12291666666553,26.239583333333094],[50.12291666666553,26.235416666666445],[50.11874999999887,26.231249999999783],[50.11874999999887,26.22708333333312],[50.114583333332206,26.22291666666647],[50.114583333332206,26.218749999999766],[50.11874999999887,26.214583333333103],[50.12291666666553,26.214583333333103]]}},{"type":"Feature","properties":{"HYRIV_ID":20844081,"NEXT_DOWN":20844462,"MAIN_RIV":20844518,"LENGTH_KM":4.8600001,"CATCH_SKM":16.940001,"DIS_AV_CMS":0.0,"ORD_STRA":1,"ORD_FLOW":10},"geometry":{"type":"LineString","coordinates":[[50.14583333333215,26.24583333333309],[50.13541666666549,26.235416666666445],[50.13541666666549,26.231249999999783],[50.13124999999883,26.22708333333312],[50.13124999999883,26.214583333333103],[50.12291666666553,26.214583333333103]]}},{"type":"Feature","properties":{"HYRIV_ID":20844180,"NEXT_DOWN":20844318,"MAIN_RIV":20844318,"LENGTH_KM":7.7800002,"CATCH_SKM":47.759998,"DIS_AV_CMS":0.0,"ORD_STRA":3,"ORD_FLOW":10},"geometry":{"type":"LineString","coordinates":[[49.956249999998846,26.25208333333311],[49.96041666666551,26.247916666666463],[49.96041666666551,26.239583333333094],[49.98541666666546,26.214583333333103],[49.99374999999887,26.214583333333103],[50.002083333332166,26.20624999999979],[50.00624999999883,26.20624999999979]]}},{"type":"Feature","properties":{"HYRIV_ID":20844229,"NEXT_DOWN":0,"MAIN_RIV":20844229,"LENGTH_KM":4.33,"CATCH_SKM":18.1,"DIS_AV_CMS":0.0,"ORD_STRA":2,"ORD_FLOW":10},"geometry":{"type":"LineString","coordinates":[[50.027083333332115,26.239583333333094],[50.027083333332115,26.214583333333103],[50.03124999999886,26.210416666666454],[50.03124999999886,26.202083333333086]]}},{"type":"Feature","properties":{"HYRIV_ID":20844279,"NEXT_DOWN":0,"MAIN_RIV":20844279,"LENGTH_KM":12.17,"CATCH_SKM":49.09,"DIS_AV_CMS":0.0,"ORD_STRA":1,"ORD_FLOW":10},"geometry":{"type":"LineString","coordinates":[[50.16874999999885,26.29166666666645],[50.16874999999885,26.281249999999766],[50.172916666665515,26.277083333333117],[50.172916666665515,26.26041666666648],[50.18958333333214,26.243749999999757],[50.18958333333214,26.239583333333094],[50.1937499999988,26.235416666666445],[50.1937499999988,26.22708333333312],[50.18958333333214,26.22291666666647],[50.18958333333214,26.218749999999766],[50.17708333333218,26.20624999999979],[50.17708333333218,26.202083333333086],[50.172916666665515,26.19791666666648]]}},{"type":"Feature","properties":{"HYRIV_ID":20844318,"NEXT_DOWN":0,"MAIN_RIV":20844318,"LENGTH_KM":2.28,"CATCH_SKM":6.3600001,"DIS_AV_CMS":0.0,"ORD_STRA":3,"ORD_FLOW":10},"geometry":{"type":"LineString","coordinates":[[50.00624999999883,26.20624999999979],[50.01041666666549,26.202083333333086],[50.014583333332155,26.202083333333086],[50.02291666666545,26.193749999999774]]}},{"type":"Feature","properties":{"HYRIV_ID":20844402,"NEXT_DOWN":20844705,"MAIN_RIV":20844518,"LENGTH_KM":2.08,"CATCH_SKM":17.33,"DIS_AV_CMS":0.0,"ORD_STRA":1,"ORD_FLOW":10},"geometry":{"type":"LineString","coordinates":[[50.07499999999877,26.193749999999774],[50.08541666666551,26.193749999999774],[50.08958333333217,26.18958333333311],[50.093749999998835,26.18958333333311]]}},{"type":"Feature","properties":{"HYRIV_ID":20844403,"NEXT_DOWN":20844705,"MAIN_RIV":20844518,"LENGTH_KM":3.1,"CATCH_SKM":15.79,"DIS_AV_CMS":0.0,"ORD_STRA":1,"ORD_FLOW":10},"geometry":{"type":"LineString","coordinates":[[50.0999999999988,26.21249999999977],[50.093749999998835,26.20624999999979],[50.093749999998835,26.202083333333086],[50.0979166666655,26.19791666666648],[50.0979166666655,26.193749999999774],[50.093749999998835,26.18958333333311]]}},{"type":"Feature","properties":{"HYRIV_ID":20844461,"NEXT_DOWN":20844318,"MAIN_RIV":20844318,"LENGTH_KM":2.95,"CATCH_SKM":11.75,"DIS_AV_CMS":0.0,"ORD_STRA":1,"ORD_FLOW":10},"geometry":{"type":"LineString","coordinates":[[49.99583333333217,26.18333333333313],[50.002083333332166,26.18958333333311],[50.002083333332166,26.19791666666648],[50.00624999999883,26.202083333333086],[50.00624999999883,26.20624999999979]]}},{"type":"Feature","properties":{"HYRIV_ID":20844462,"NEXT_DOWN":20844518,"MAIN_RIV":20844518,"LENGTH_KM":5.7,"CATCH_SKM":23.5,"DIS_AV_CMS":0.0,"ORD_STRA":2,"ORD_FLOW":10},"geometry":{"type":"LineString","coordinates":[[50.12291666666553,26.214583333333103],[50.12291666666553,26.210416666666454],[50.127083333332166,26.20624999999979],[50.13124999999883,26.20624999999979],[50.13541666666549,26.202083333333086],[50.14791666666548,26.202083333333086],[50.15624999999878,26.193749999999774],[50.15624999999878,26.18958333333311],[50.160416666665526,26.185416666666463]]}},{"type":"Feature","properties":{"HYRIV_ID":20844518,"NEXT_DOWN":0,"MAIN_RIV":20844518,"LENGTH_KM":0.62,"CATCH_SKM":1.16,"DIS_AV_CMS":0.0,"ORD_STRA":3,"ORD_FLOW":10},"geometry":{"type":"LineString","coordinates":[[50.160416666665526,26.185416666666463],[50.16458333333219,26.1812499999998]]}},{"type":"Feature","properties":{"HYRIV_ID":20844519,"NEXT_DOWN":0,"MAIN_RIV":20844519,"LENGTH_KM":6.7,"CATCH_SKM":28.889999,"DIS_AV_CMS":0.0,"ORD_STRA":2,"ORD_FLOW":10},"geometry":{"type":"LineString","coordinates":[[50.51041666666552,26.1812499999998],[50.51041666666552,26.185416666666463],[50.51874999999882,26.193749999999774],[50.54791666666543,26.193749999999774],[50.55624999999884,26.185416666666463],[50.564583333332166,26.185416666666463]]}},{"type":"Feature","properties":{"HYRIV_ID":20844570,"NEXT_DOWN":20844519,"MAIN_RIV":20844519,"LENGTH_KM":1.66,"CATCH_SKM":13.87,"DIS_AV_CMS":0.0,"ORD_STRA":1,"ORD_FLOW":10},"geometry":{"type":"LineString","coordinates":[[50.52499999999881,26.177083333333094],[50.51874999999882,26.177083333333094],[50.51458333333218,26.1812499999998],[50.51041666666552,26.1812499999998]]}},{"type":"Feature","properties":{"HYRIV_ID":20844657,"NEXT_DOWN":20844519,"MAIN_RIV":20844519,"LENGTH_KM":1.78,"CATCH_SKM":18.3,"DIS_AV_CMS":0.0,"ORD_STRA":1,"ORD_FLOW":10},"geometry":{"type":"LineString","coordinates":[[50.50624999999886,26.16666666666645],[50.50624999999886,26.172916666666445],[50.51041666666552,26.177083333333094],[50.51041666666552,26.1812499999998]]}},{"type":"Feature","properties":{"HYRIV_ID":20844705,"NEXT_DOWN":20844518,"MAIN_RIV":20844518,"LENGTH_KM":10.43,"CATCH_SKM":27.74,"DIS_AV_CMS":0.0,"ORD_STRA":2,"ORD_FLOW":10},"geometry":{"type":"LineString","coordinates":[[50.093749999998835,26.18958333333311],[50.0979166666655,26.185416666666463],[50.10208333333213,26.185416666666463],[50.106249999998795,26.1812499999998],[50.106249999998795,26.177083333333094],[50.10208333333213,26.172916666666445],[50.11041666666546,26.16458333333312],[50.114583333332206,26.16458333333312],[50.11874999999887,26.168749999999783],[50.12291666666553,26.16458333333312],[50.13124999999883,26.172916666666445],[50.14374999999882,26.172916666666445],[50.15624999999878,26.185416666666463],[50.160416666665526,26.185416666666463]]}},{"type":"Feature","properties":{"HYRIV_ID":20845238,"NEXT_DOWN":0,"MAIN_RIV":20845238,"LENGTH_KM":2.7,"CATCH_SKM":15.81,"DIS_AV_CMS":0.0,"ORD_STRA":1,"ORD_FLOW":10},"geometry":{"type":"LineString","coordinates":[[51.204166666665486,26.1187499999998],[51.19791666666549,26.1187499999998],[51.19374999999877,26.12291666666645],[51.185416666665446,26.12291666666645],[51.18124999999878,26.12708333333311]]}},{"type":"Feature","properties":{"HYRIV_ID":20845300,"NEXT_DOWN":0,"MAIN_RIV":20845300,"LENGTH_KM":2.1800001,"CATCH_SKM":14.46,"DIS_AV_CMS":0.0,"ORD_STRA":1,"ORD_FLOW":10},"geometry":{"type":"LineString","coordinates":[[51.30416666666545,26.112499999999763],[51.31874999999877,26.12708333333311]]}},{"type":"Feature","properties":{"HYRIV_ID":20845408,"NEXT_DOWN":0,"MAIN_RIV":20845408,"LENGTH_KM":4.62,"CATCH_SKM":37.389999,"DIS_AV_CMS":0.0,"ORD_STRA":1,"ORD_FLOW":10},"geometry":{"type":"LineString","coordinates":[[50.1291666666655,26.131249999999817],[50.13541666666549,26.131249999999817],[50.14791666666548,26.1187499999998],[50.14791666666548,26.114583333333094],[50.15624999999878,26.106249999999783],[50.160416666665526,26.106249999999783]]}},{"type":"Feature","properties":{"HYRIV_ID":20845498,"NEXT_DOWN":0,"MAIN_RIV":20845498,"LENGTH_KM":1.56,"CATCH_SKM":19.469999,"DIS_AV_CMS":0.0,"ORD_STRA":1,"ORD_FLOW":10},"geometry":{"type":"LineString","coordinates":[[50.48749999999882,26.1083333333331],[50.47708333333216,26.097916666666457]]}},{"type":"Feature","properties":{"HYRIV_ID":20845597,"NEXT_DOWN":0,"MAIN_RIV":20845597,"LENGTH_KM":6.98,"CATCH_SKM":18.120001,"DIS_AV_CMS":0.0,"ORD_STRA":2,"ORD_FLOW":10},"geometry":{"type":"LineString","coordinates":[[51.247916666665475,26.089583333333103],[51.25208333333214,26.093749999999808],[51.25208333333214,26.097916666666457],[51.24374999999884,26.106249999999783],[51.24374999999884,26.11041666666643],[51.23958333333218,26.114583333333094],[51.23958333333218,26.131249999999817],[51.235416666665515,26.135416666666423],[51.235416666665515,26.139583333333128],[51.23124999999885,26.14374999999979]]}},{"type":"Feature","properties":{"HYRIV_ID":20845696,"NEXT_DOWN":0,"MAIN_RIV":20845696,"LENGTH_KM":0.93,"CATCH_SKM":19.67,"DIS_AV_CMS":0.0,"ORD_STRA":1,"ORD_FLOW":10},"geometry":{"type":"LineString","coordinates":[[51.158333333332166,26.07916666666646],[51.15208333333217,26.08541666666644]]}},{"type":"Feature","properties":{"HYRIV_ID":20845966,"NEXT_DOWN":20846099,"MAIN_RIV":20846099,"LENGTH_KM":10.41,"CATCH_SKM":49.93,"DIS_AV_CMS":0.0,"ORD_STRA":1,"ORD_FLOW":10},"geometry":{"type":"LineString","coordinates":[[50.57083333333213,26.09999999999979],[50.5604166666655,26.11041666666643],[50.55624999999884,26.11041666666643],[50.55208333333218,26.114583333333094],[50.54791666666543,26.114583333333094],[50.54374999999877,26.11041666666643],[50.53958333333213,26.11041666666643],[50.531249999998806,26.10208333333312],[50.531249999998806,26.097916666666457],[50.52291666666548,26.089583333333103],[50.52291666666548,26.06458333333311],[50.51874999999882,26.06041666666645]]}},{"type":"Feature","properties":{"HYRIV_ID":20846017,"NEXT_DOWN":20845597,"MAIN_RIV":20845597,"LENGTH_KM":7.4699998,"CATCH_SKM":23.139999,"DIS_AV_CMS":0.0,"ORD_STRA":1,"ORD_FLOW":10},"geometry":{"type":"LineString","coordinates":[[51.19999999999882,26.054166666666468],[51.21041666666548,26.06458333333311],[51.21041666666548,26.068749999999802],[51.21458333333214,26.072916666666465],[51.21458333333214,26.077083333333128],[51.227083333332104,26.089583333333103],[51.23124999999885,26.08541666666644],[51.235416666665515,26.089583333333103],[51.247916666665475,26.089583333333103]]}},{"type":"Feature","properties":{"HYRIV_ID":20846018,"NEXT_DOWN":0,"MAIN_RIV":20846018,"LENGTH_KM":6.2600002,"CATCH_SKM":25.84,"DIS_AV_CMS":0.0,"ORD_STRA":1,"ORD_FLOW":10},"geometry":{"type":"LineString","coordinates":[[51.32499999999882,26.056249999999785],[51.33541666666548,26.056249999999785],[51.33958333333214,26.06041666666645],[51.33958333333214,26.06458333333311],[51.343749999998806,26.068749999999802],[51.343749999998806,26.077083333333128],[51.34791666666547,26.08124999999979],[51.34791666666547,26.089583333333103],[51.352083333332104,26.093749999999808],[51.35624999999877,26.093749999999808]]}},{"type":"Feature","properties":{"HYRIV_ID":20846099,"NEXT_DOWN":0,"MAIN_RIV":20846099,"LENGTH_KM":4.3600001,"CATCH_SKM":10.41,"DIS_AV_CMS":0.0,"ORD_STRA":2,"ORD_FLOW":10},"geometry":{"type":"LineString","coordinates":[[50.51874999999882,26.06041666666645],[50.51041666666552,26.06041666666645],[50.50624999999886,26.056249999999785],[50.502083333332195,26.06041666666645],[50.49374999999878,26.052083333333137],[50.48958333333215,26.052083333333137],[50.485416666665486,26.04791666666643]]}},{"type":"Feature","properties":{"HYRIV_ID":20846143,"NEXT_DOWN":20845597,"MAIN_RIV":20845597,"LENGTH_KM":6.37,"CATCH_SKM":33.169998,"DIS_AV_CMS":0.0,"ORD_STRA":1,"ORD_FLOW":10},"geometry":{"type":"LineString","coordinates":[[51.25833333333213,26.04166666666645],[51.24374999999884,26.056249999999785],[51.24374999999884,26.072916666666465],[51.247916666665475,26.077083333333128],[51.247916666665475,26.08124999999979],[51.25208333333214,26.08541666666644],[51.247916666665475,26.089583333333103]]}},{"type":"Feature","properties":{"HYRIV_ID":20846241,"NEXT_DOWN":20846099,"MAIN_RIV":20846099,"LENGTH_KM":3.1700001,"CATCH_SKM":20.059999,"DIS_AV_CMS":0.0,"ORD_STRA":1,"ORD_FLOW":10},"geometry":{"type":"LineString","coordinates":[[50.52291666666548,26.033333333333125],[50.52291666666548,26.056249999999785],[50.51874999999882,26.06041666666645]]}},{"type":"Feature","properties":{"HYRIV_ID":20846418,"NEXT_DOWN":0,"MAIN_RIV":20846418,"LENGTH_KM":1.04,"CATCH_SKM":1.35,"DIS_AV_CMS":0.0,"ORD_STRA":2,"ORD_FLOW":10},"geometry":{"type":"LineString","coordinates":[[51.04791666666546,26.02291666666644],[51.043749999998795,26.027083333333145],[51.03958333333213,26.027083333333145]]}},{"type":"Feature","properties":{"HYRIV_ID":20846419,"NEXT_DOWN":0,"MAIN_RIV":20846419,"LENGTH_KM":14.4,"CATCH_SKM":54.380001,"DIS_AV_CMS":0.0,"ORD_STRA":1,"ORD_FLOW":10},"geometry":{"type":"LineString","coordinates":[[51.28749999999883,26.02083333333311],[51.281249999998835,26.027083333333145],[51.281249999998835,26.031249999999794],[51.27291666666545,26.03958333333312],[51.27291666666545,26.052083333333137],[51.27708333333209,26.056249999999785],[51.27708333333209,26.06041666666645],[51.281249999998835,26.06458333333311],[51.2854166666655,26.06458333333311],[51.297916666665486,26.077083333333128],[51.30624999999878,26.077083333333128],[51.310416666665446,26.08124999999979],[51.310416666665446,26.08541666666644],[51.31458333333211,26.089583333333103],[51.31874999999877,26.089583333333103],[51.327083333332155,26.097916666666457],[51.327083333332155,26.106249999999783],[51.33541666666548,26.114583333333094]]}},{"type":"Feature","properties":{"HYRIV_ID":20846485,"NEXT_DOWN":0,"MAIN_RIV":20846485,"LENGTH_KM":7.31,"CATCH_SKM":24.5,"DIS_AV_CMS":0.0,"ORD_STRA":1,"ORD_FLOW":10},"geometry":{"type":"LineString","coordinates":[[51.12916666666547,26.016666666666445],[51.11874999999881,26.027083333333145],[51.11874999999881,26.031249999999794],[51.11458333333218,26.035416666666457],[51.11874999999881,26.03958333333312],[51.10624999999885,26.052083333333137],[51.10624999999885,26.06041666666645],[51.09791666666544,26.068749999999802]]}},{"type":"Feature","properties":{"HYRIV_ID":20846616,"NEXT_DOWN":20846418,"MAIN_RIV":20846418,"LENGTH_KM":1.78,"CATCH_SKM":12.93,"DIS_AV_CMS":0.0,"ORD_STRA":1,"ORD_FLOW":10},"geometry":{"type":"LineString","coordinates":[[51.05208333333212,26.00833333333309],[51.05208333333212,26.014583333333128],[51.04791666666546,26.018749999999777],[51.04791666666546,26.02291666666644]]}},{"type":"Feature","properties":{"HYRIV_ID":20846617,"NEXT_DOWN":0,"MAIN_RIV":20846617,"LENGTH_KM":12.44,"CATCH_SKM":53.82,"DIS_AV_CMS":0.0,"ORD_STRA":1,"ORD_FLOW":10},"geometry":{"type":"LineString","coordinates":[[51.183333333332115,26.00833333333309],[51.18958333333211,26.014583333333128],[51.185416666665446,26.018749999999777],[51.185416666665446,26.027083333333145],[51.18124999999878,26.031249999999794],[51.17291666666546,26.031249999999794],[51.16874999999882,26.035416666666457],[51.156249999998835,26.035416666666457],[51.15208333333217,26.03958333333312],[51.13541666666546,26.03958333333312],[51.1312499999988,26.04374999999977],[51.1312499999988,26.056249999999785],[51.12708333333214,26.06041666666645],[51.1312499999988,26.06458333333311],[51.1312499999988,26.068749999999802],[51.12708333333214,26.072916666666465]]}},{"type":"Feature","properties":{"HYRIV_ID":20846762,"NEXT_DOWN":20846418,"MAIN_RIV":20846418,"LENGTH_KM":10.05,"CATCH_SKM":43.599998,"DIS_AV_CMS":0.0,"ORD_STRA":1,"ORD_FLOW":10},"geometry":{"type":"LineString","coordinates":[[51.122916666665475,25.995833333333117],[51.122916666665475,26.00208333333311],[51.09791666666544,26.027083333333145],[51.09374999999878,26.027083333333145],[51.08958333333214,26.031249999999794],[51.08541666666548,26.031249999999794],[51.08124999999882,26.027083333333145],[51.06874999999883,26.027083333333145],[51.064583333332166,26.02291666666644],[51.04791666666546,26.02291666666644]]}},{"type":"Feature","properties":{"HYRIV_ID":20847008,"NEXT_DOWN":0,"MAIN_RIV":20847008,"LENGTH_KM":4.0500002,"CATCH_SKM":24.889999,"DIS_AV_CMS":0.0,"ORD_STRA":1,"ORD_FLOW":10},"geometry":{"type":"LineString","coordinates":[[50.495833333332115,25.97499999999979],[50.468749999998835,26.00208333333311]]}},{"type":"Feature","properties":{"HYRIV_ID":20847126,"NEXT_DOWN":0,"MAIN_RIV":20847126,"LENGTH_KM":6.89,"CATCH_SKM":33.560001,"DIS_AV_CMS":0.0,"ORD_STRA":1,"ORD_FLOW":10},"geometry":{"type":"LineString","coordinates":[[50.58541666666545,26.024999999999814],[50.58541666666545,26.014583333333128],[50.58124999999879,26.010416666666423],[50.58124999999879,25.99791666666645],[50.58541666666545,25.993749999999785],[50.58541666666545,25.98124999999977],[50.589583333332115,25.97708333333312],[50.589583333332115,25.972916666666457],[50.58541666666545,25.968749999999794]]}}]}