{"type":"FeatureCollection","features":[{"type":"Feature","properties":{"HYRIV_ID":20753990,"NEXT_DOWN":20753566,"MAIN_RIV":20753119,"LENGTH_KM":3.3,"CATCH_SKM":17.08,"DIS_AV_CMS":0.12800001,"ORD_STRA":1,"ORD_FLOW":7},"geometry":{"type":"LineString","coordinates":[[34.87708333333239,32.195833333333006],[34.87708333333239,32.20624999999969],[34.87291666666573,32.210416666666355],[34.87291666666573,32.214583333333],[34.87708333333239,32.218749999999666],[34.87708333333239,32.22291666666637]]}},{"type":"Feature","properties":{"HYRIV_ID":20754053,"NEXT_DOWN":20754355,"MAIN_RIV":20755639,"LENGTH_KM":3.3,"CATCH_SKM":16.17,"DIS_AV_CMS":0.116,"ORD_STRA":1,"ORD_FLOW":7},"geometry":{"type":"LineString","coordinates":[[35.01249999999905,32.193749999999675],[34.993749999999096,32.193749999999675],[34.993749999999096,32.197916666666366],[34.98958333333243,32.202083333332986],[34.98958333333243,32.20624999999969]]}},{"type":"Feature","properties":{"HYRIV_ID":20754054,"NEXT_DOWN":20754119,"MAIN_RIV":20765143,"LENGTH_KM":2.59,"CATCH_SKM":13.62,"DIS_AV_CMS":0.042,"ORD_STRA":1,"ORD_FLOW":8},"geometry":{"type":"LineString","coordinates":[[35.83749999999901,32.21249999999967],[35.831249999999045,32.20624999999969],[35.83958333333243,32.197916666666366],[35.83958333333243,32.193749999999675]]}},{"type":"Feature","properties":{"HYRIV_ID":20754055,"NEXT_DOWN":20754119,"MAIN_RIV":20765143,"LENGTH_KM":4.0700002,"CATCH_SKM":15.26,"DIS_AV_CMS":4.8930001,"ORD_STRA":4,"ORD_FLOW":6},"geometry":{"type":"LineString","coordinates":[[35.86874999999904,32.214583333333],[35.86874999999904,32.210416666666355],[35.86458333333238,32.20624999999969],[35.860416666665714,32.20624999999969],[35.85624999999908,32.202083333332986],[35.852083333332416,32.202083333332986],[35.84791666666575,32.197916666666366],[35.84374999999909,32.197916666666366],[35.83958333333243,32.193749999999675]]}},{"type":"Feature","properties":{"HYRIV_ID":20754115,"NEXT_DOWN":20754355,"MAIN_RIV":20755639,"LENGTH_KM":12.43,"CATCH_SKM":44.68,"DIS_AV_CMS":0.318,"ORD_STRA":1,"ORD_FLOW":7},"geometry":{"type":"LineString","coordinates":[[35.09166666666573,32.18958333333301],[35.085416666665736,32.18958333333301],[35.08124999999907,32.193749999999675],[35.07708333333241,32.193749999999675],[35.072916666665776,32.197916666666366],[35.06458333333245,32.197916666666366],[35.0604166666657,32.202083333332986],[35.05208333333238,32.202083333332986],[35.04374999999908,32.210416666666355],[35.039583333332416,32.210416666666355],[35.03541666666575,32.214583333333],[35.03124999999909,32.214583333333],[35.02291666666571,32.22291666666637],[35.018749999999045,32.218749999999666],[35.01458333333238,32.218749999999666],[35.01041666666572,32.214583333333],[35.01041666666572,32.210416666666355],[35.006249999999056,32.20624999999969],[34.98958333333243,32.20624999999969]]}},{"type":"Feature","properties":{"HYRIV_ID":20754116,"NEXT_DOWN":20753783,"MAIN_RIV":20765143,"LENGTH_KM":5.58,"CATCH_SKM":33.060001,"DIS_AV_CMS":0.185,"ORD_STRA":1,"ORD_FLOW":7},"geometry":{"type":"LineString","coordinates":[[35.35833333333238,32.18958333333301],[35.35208333333239,32.18958333333301],[35.347916666665725,32.193749999999675],[35.34374999999906,32.193749999999675],[35.3395833333324,32.197916666666366],[35.335416666665765,32.197916666666366],[35.3312499999991,32.202083333332986],[35.322916666665776,32.202083333332986],[35.31874999999911,32.20624999999969],[35.314583333332365,32.20624999999969],[35.3104166666657,32.210416666666355]]}},{"type":"Feature","properties":{"HYRIV_ID":20754117,"NEXT_DOWN":20755408,"MAIN_RIV":20765143,"LENGTH_KM":2.75,"CATCH_SKM":11.08,"DIS_AV_CMS":35.900002,"ORD_STRA":5,"ORD_FLOW":5},"geometry":{"type":"LineString","coordinates":[[35.568749999999056,32.210416666666355],[35.56458333333239,32.20624999999969],[35.56458333333239,32.197916666666366],[35.568749999999056,32.193749999999675],[35.56458333333239,32.18958333333301]]}},{"type":"Feature","properties":{"HYRIV_ID":20754118,"NEXT_DOWN":20754185,"MAIN_RIV":20765143,"LENGTH_KM":3.57,"CATCH_SKM":16.530001,"DIS_AV_CMS":5.2379999,"ORD_STRA":4,"ORD_FLOW":6},"geometry":{"type":"LineString","coordinates":[[35.83541666666568,32.18958333333301],[35.82291666666572,32.18958333333301],[35.818749999999056,32.193749999999675],[35.81458333333239,32.193749999999675],[35.81041666666573,32.18958333333301],[35.80208333333235,32.18958333333301]]}},{"type":"Feature","properties":{"HYRIV_ID":20754119,"NEXT_DOWN":20754118,"MAIN_RIV":20765143,"LENGTH_KM":0.61,"CATCH_SKM":0.55,"DIS_AV_CMS":4.9590001,"ORD_STRA":4,"ORD_FLOW":6},"geometry":{"type":"LineString","coordinates":[[35.83958333333243,32.193749999999675],[35.83541666666568,32.18958333333301]]}},{"type":"Feature","properties":{"HYRIV_ID":20754120,"NEXT_DOWN":20753706,"MAIN_RIV":20765143,"LENGTH_KM":8.1,"CATCH_SKM":41.41,"DIS_AV_CMS":4.1589999,"ORD_STRA":4,"ORD_FLOW":6},"geometry":{"type":"LineString","coordinates":[[35.956249999999045,32.18958333333301],[35.95208333333238,32.193749999999675],[35.93958333333239,32.193749999999675],[35.93541666666576,32.18958333333301],[35.91874999999902,32.18958333333301],[35.91458333333236,32.193749999999675],[35.9104166666657,32.193749999999675],[35.90624999999906,32.197916666666366],[35.90624999999906,32.202083333332986],[35.9020833333324,32.20624999999969],[35.9020833333324,32.210416666666355],[35.897916666665736,32.214583333333],[35.89374999999907,32.214583333333]]}},{"type":"Feature","properties":{"HYRIV_ID":20754121,"NEXT_DOWN":20754120,"MAIN_RIV":20765143,"LENGTH_KM":0.39,"CATCH_SKM":0.36,"DIS_AV_CMS":3.711,"ORD_STRA":4,"ORD_FLOW":6},"geometry":{"type":"LineString","coordinates":[[35.96041666666571,32.18958333333301],[35.956249999999045,32.18958333333301]]}},{"type":"Feature","properties":{"HYRIV_ID":20754122,"NEXT_DOWN":20754121,"MAIN_RIV":20765143,"LENGTH_KM":3.21,"CATCH_SKM":10.72,"DIS_AV_CMS":3.642,"ORD_STRA":4,"ORD_FLOW":6},"geometry":{"type":"LineString","coordinates":[[35.98541666666574,32.20624999999969],[35.98124999999908,32.20624999999969],[35.96458333333234,32.18958333333301],[35.96041666666571,32.18958333333301]]}},{"type":"Feature","properties":{"HYRIV_ID":20754183,"NEXT_DOWN":20754713,"MAIN_RIV":20765143,"LENGTH_KM":5.39,"CATCH_SKM":22.709999,"DIS_AV_CMS":6.0780001,"ORD_STRA":4,"ORD_FLOW":6},"geometry":{"type":"LineString","coordinates":[[35.73124999999905,32.18541666666635],[35.71458333333243,32.18541666666635],[35.710416666665765,32.18958333333301],[35.70624999999902,32.18541666666635],[35.69791666666572,32.18541666666635],[35.693749999999056,32.18958333333301],[35.68958333333239,32.18541666666635],[35.68541666666573,32.18958333333301]]}},{"type":"Feature","properties":{"HYRIV_ID":20754184,"NEXT_DOWN":20754183,"MAIN_RIV":20765143,"LENGTH_KM":0.69,"CATCH_SKM":10.35,"DIS_AV_CMS":0.036,"ORD_STRA":1,"ORD_FLOW":8},"geometry":{"type":"LineString","coordinates":[[35.73124999999905,32.19166666666634],[35.73124999999905,32.18541666666635]]}},{"type":"Feature","properties":{"HYRIV_ID":20754185,"NEXT_DOWN":20754183,"MAIN_RIV":20765143,"LENGTH_KM":7.7399998,"CATCH_SKM":47.23,"DIS_AV_CMS":5.8870001,"ORD_STRA":4,"ORD_FLOW":6},"geometry":{"type":"LineString","coordinates":[[35.80208333333235,32.18958333333301],[35.7854166666657,32.18958333333301],[35.781249999999034,32.18541666666635],[35.7770833333324,32.18958333333301],[35.772916666665736,32.18541666666635],[35.76874999999907,32.18958333333301],[35.76458333333241,32.18541666666635],[35.73124999999905,32.18541666666635]]}},{"type":"Feature","properties":{"HYRIV_ID":20754267,"NEXT_DOWN":20754773,"MAIN_RIV":20765143,"LENGTH_KM":0.59,"CATCH_SKM":11.27,"DIS_AV_CMS":0.057,"ORD_STRA":1,"ORD_FLOW":8},"geometry":{"type":"LineString","coordinates":[[35.44999999999911,32.1812499999997],[35.4562499999991,32.1812499999997]]}},{"type":"Feature","properties":{"HYRIV_ID":20754268,"NEXT_DOWN":20754773,"MAIN_RIV":20765143,"LENGTH_KM":15.38,"CATCH_SKM":91.879997,"DIS_AV_CMS":1.408,"ORD_STRA":3,"ORD_FLOW":6},"geometry":{"type":"LineString","coordinates":[[35.35208333333239,32.26458333333303],[35.360416666665714,32.256249999999675],[35.36458333333235,32.256249999999675],[35.36874999999901,32.25208333333301],[35.37291666666576,32.25208333333301],[35.37708333333242,32.24791666666636],[35.381249999999085,32.24791666666636],[35.38958333333238,32.23958333333304],[35.393749999999045,32.23958333333304],[35.39791666666571,32.235416666666346],[35.406249999999034,32.235416666666346],[35.4104166666657,32.23124999999968],[35.418749999998994,32.23124999999968],[35.44374999999903,32.20624999999969],[35.44791666666569,32.20624999999969],[35.4562499999991,32.197916666666366],[35.4562499999991,32.18958333333301],[35.45208333333244,32.18541666666635],[35.4562499999991,32.1812499999997]]}},{"type":"Feature","properties":{"HYRIV_ID":20754269,"NEXT_DOWN":20755408,"MAIN_RIV":20765143,"LENGTH_KM":21.030001,"CATCH_SKM":72.620003,"DIS_AV_CMS":0.375,"ORD_STRA":1,"ORD_FLOW":7},"geometry":{"type":"LineString","coordinates":[[35.420833333332325,32.281249999999666],[35.427083333332405,32.281249999999666],[35.43124999999907,32.277083333333],[35.43541666666573,32.277083333333],[35.43958333333239,32.272916666666355],[35.44374999999903,32.272916666666355],[35.472916666665725,32.2437499999997],[35.485416666665714,32.2437499999997],[35.49374999999901,32.235416666666346],[35.49374999999901,32.23124999999968],[35.50208333333242,32.22291666666637],[35.50208333333242,32.218749999999666],[35.506249999999085,32.214583333333],[35.506249999999085,32.210416666666355],[35.51874999999907,32.197916666666366],[35.51874999999907,32.18541666666635],[35.52291666666571,32.1812499999997],[35.5354166666657,32.193749999999675],[35.56041666666573,32.193749999999675],[35.56458333333239,32.18958333333301]]}},{"type":"Feature","properties":{"HYRIV_ID":20754270,"NEXT_DOWN":20753918,"MAIN_RIV":20765143,"LENGTH_KM":2.8900001,"CATCH_SKM":6.9,"DIS_AV_CMS":3.0469999,"ORD_STRA":4,"ORD_FLOW":6},"geometry":{"type":"LineString","coordinates":[[36.002083333332365,32.1812499999997],[35.99374999999904,32.18958333333301],[35.9979166666657,32.193749999999675],[35.99374999999904,32.197916666666366],[35.99374999999904,32.202083333332986]]}},{"type":"Feature","properties":{"HYRIV_ID":20754355,"NEXT_DOWN":20754771,"MAIN_RIV":20755639,"LENGTH_KM":5.7800002,"CATCH_SKM":13.44,"DIS_AV_CMS":0.53,"ORD_STRA":2,"ORD_FLOW":7},"geometry":{"type":"LineString","coordinates":[[34.98958333333243,32.20624999999969],[34.98541666666577,32.20624999999969],[34.98124999999911,32.202083333332986],[34.9645833333324,32.202083333332986],[34.960416666665736,32.197916666666366],[34.960416666665736,32.193749999999675],[34.95624999999907,32.18958333333301],[34.95624999999907,32.18541666666635],[34.95208333333241,32.1812499999997],[34.95208333333241,32.17708333333304]]}},{"type":"Feature","properties":{"HYRIV_ID":20754356,"NEXT_DOWN":20754713,"MAIN_RIV":20765143,"LENGTH_KM":1.62,"CATCH_SKM":12.9,"DIS_AV_CMS":0.049,"ORD_STRA":1,"ORD_FLOW":8},"geometry":{"type":"LineString","coordinates":[[35.68541666666573,32.17499999999966],[35.68541666666573,32.18958333333301]]}},{"type":"Feature","properties":{"HYRIV_ID":20754429,"NEXT_DOWN":20754712,"MAIN_RIV":20755639,"LENGTH_KM":5.6500001,"CATCH_SKM":20.530001,"DIS_AV_CMS":0.13600001,"ORD_STRA":1,"ORD_FLOW":7},"geometry":{"type":"LineString","coordinates":[[35.22083333333239,32.18541666666635],[35.1854166666657,32.18541666666635],[35.18124999999904,32.1812499999997],[35.17291666666574,32.1812499999997],[35.17291666666574,32.17291666666633]]}},{"type":"Feature","properties":{"HYRIV_ID":20754430,"NEXT_DOWN":20754120,"MAIN_RIV":20765143,"LENGTH_KM":2.73,"CATCH_SKM":15.08,"DIS_AV_CMS":0.039,"ORD_STRA":1,"ORD_FLOW":8},"geometry":{"type":"LineString","coordinates":[[35.93749999999906,32.170833333333015],[35.956249999999045,32.18958333333301]]}},{"type":"Feature","properties":{"HYRIV_ID":20754632,"NEXT_DOWN":20754771,"MAIN_RIV":20755639,"LENGTH_KM":7.83,"CATCH_SKM":28.34,"DIS_AV_CMS":0.203,"ORD_STRA":1,"ORD_FLOW":7},"geometry":{"type":"LineString","coordinates":[[35.02499999999901,32.15833333333304],[35.018749999999045,32.16458333333302],[35.01041666666572,32.16458333333302],[35.006249999999056,32.16874999999968],[34.98124999999911,32.16874999999968],[34.97708333333236,32.17291666666633],[34.9729166666657,32.17291666666633],[34.96874999999906,32.17708333333304],[34.95208333333241,32.17708333333304]]}},{"type":"Feature","properties":{"HYRIV_ID":20754711,"NEXT_DOWN":0,"MAIN_RIV":20754711,"LENGTH_KM":2.6600001,"CATCH_SKM":17.629999,"DIS_AV_CMS":0.131,"ORD_STRA":1,"ORD_FLOW":7},"geometry":{"type":"LineString","coordinates":[[34.81249999999912,32.15624999999971],[34.80624999999904,32.15624999999971],[34.80624999999904,32.16041666666636],[34.80208333333238,32.16458333333302],[34.797916666665714,32.16458333333302],[34.79374999999905,32.16874999999968]]}},{"type":"Feature","properties":{"HYRIV_ID":20754712,"NEXT_DOWN":20754931,"MAIN_RIV":20755639,"LENGTH_KM":3.21,"CATCH_SKM":5.8200002,"DIS_AV_CMS":0.60600001,"ORD_STRA":2,"ORD_FLOW":7},"geometry":{"type":"LineString","coordinates":[[35.17291666666574,32.17291666666633],[35.16874999999908,32.17291666666633],[35.164583333332416,32.16874999999968],[35.16041666666567,32.16874999999968],[35.14791666666571,32.15624999999971]]}},{"type":"Feature","properties":{"HYRIV_ID":20754713,"NEXT_DOWN":20755210,"MAIN_RIV":20765143,"LENGTH_KM":11.35,"CATCH_SKM":50.68,"DIS_AV_CMS":6.2540002,"ORD_STRA":4,"ORD_FLOW":6},"geometry":{"type":"LineString","coordinates":[[35.68541666666573,32.18958333333301],[35.68124999999907,32.193749999999675],[35.677083333332405,32.193749999999675],[35.67291666666577,32.197916666666366],[35.6604166666657,32.197916666666366],[35.656249999999034,32.193749999999675],[35.647916666665736,32.193749999999675],[35.64374999999907,32.18958333333301],[35.63958333333241,32.193749999999675],[35.63541666666575,32.18958333333301],[35.63541666666575,32.18541666666635],[35.631249999999085,32.18541666666635],[35.61874999999904,32.17291666666633],[35.61458333333246,32.17291666666633],[35.60208333333239,32.16041666666636],[35.60208333333239,32.15624999999971]]}},{"type":"Feature","properties":{"HYRIV_ID":20754714,"NEXT_DOWN":20754475,"MAIN_RIV":20765143,"LENGTH_KM":2.6600001,"CATCH_SKM":14.18,"DIS_AV_CMS":0.03,"ORD_STRA":1,"ORD_FLOW":8},"geometry":{"type":"LineString","coordinates":[[35.99583333333237,32.15624999999971],[36.00624999999903,32.15624999999971],[36.014583333332354,32.16458333333302],[36.014583333332354,32.16874999999968]]}},{"type":"Feature","properties":{"HYRIV_ID":20754771,"NEXT_DOWN":20755208,"MAIN_RIV":20755639,"LENGTH_KM":4.14,"CATCH_SKM":19.8,"DIS_AV_CMS":0.876,"ORD_STRA":2,"ORD_FLOW":7},"geometry":{"type":"LineString","coordinates":[[34.95208333333241,32.17708333333304],[34.94374999999903,32.16874999999968],[34.9354166666657,32.16874999999968],[34.92708333333238,32.16041666666636],[34.92708333333238,32.152083333333]]}},{"type":"Feature","properties":{"HYRIV_ID":20754772,"NEXT_DOWN":20755147,"MAIN_RIV":20765143,"LENGTH_KM":2.37,"CATCH_SKM":14.36,"DIS_AV_CMS":0.061,"ORD_STRA":1,"ORD_FLOW":8},"geometry":{"type":"LineString","coordinates":[[35.45833333333243,32.15624999999971],[35.46874999999906,32.15624999999971],[35.472916666665725,32.152083333333],[35.48124999999905,32.152083333333]]}},{"type":"Feature","properties":{"HYRIV_ID":20754773,"NEXT_DOWN":20755147,"MAIN_RIV":20765143,"LENGTH_KM":4.1100001,"CATCH_SKM":11.08,"DIS_AV_CMS":1.521,"ORD_STRA":3,"ORD_FLOW":6},"geometry":{"type":"LineString","coordinates":[[35.4562499999991,32.1812499999997],[35.48124999999905,32.15624999999971],[35.48124999999905,32.152083333333]]}},{"type":"Feature","properties":{"HYRIV_ID":20754774,"NEXT_DOWN":20755210,"MAIN_RIV":20765143,"LENGTH_KM":2.37,"CATCH_SKM":14.9,"DIS_AV_CMS":0.059,"ORD_STRA":1,"ORD_FLOW":8},"geometry":{"type":"LineString","coordinates":[[35.624999999999005,32.152083333333],[35.61458333333246,32.152083333333],[35.610416666665714,32.15624999999971],[35.60208333333239,32.15624999999971]]}},{"type":"Feature","properties":{"HYRIV_ID":20754775,"NEXT_DOWN":20754185,"MAIN_RIV":20765143,"LENGTH_KM":4.6,"CATCH_SKM":17.08,"DIS_AV_CMS":0.54100001,"ORD_STRA":3,"ORD_FLOW":7},"geometry":{"type":"LineString","coordinates":[[35.81458333333239,32.152083333333],[35.81458333333239,32.16041666666636],[35.81041666666573,32.16458333333302],[35.81041666666573,32.17708333333304],[35.80624999999907,32.1812499999997],[35.80624999999907,32.18541666666635],[35.80208333333235,32.18958333333301]]}},{"type":"Feature","properties":{"HYRIV_ID":20754858,"NEXT_DOWN":20754932,"MAIN_RIV":20755639,"LENGTH_KM":5.4400001,"CATCH_SKM":31.25,"DIS_AV_CMS":0.173,"ORD_STRA":1,"ORD_FLOW":7},"geometry":{"type":"LineString","coordinates":[[35.29999999999907,32.16874999999968],[35.27708333333237,32.16874999999968],[35.26458333333238,32.15624999999971],[35.26458333333238,32.152083333333],[35.26041666666572,32.14791666666634],[35.256249999999085,32.14791666666634]]}},{"type":"Feature","properties":{"HYRIV_ID":20754859,"NEXT_DOWN":20754183,"MAIN_RIV":20765143,"LENGTH_KM":4.54,"CATCH_SKM":30.360001,"DIS_AV_CMS":0.107,"ORD_STRA":1,"ORD_FLOW":7},"geometry":{"type":"LineString","coordinates":[[35.727083333332416,32.14583333333302],[35.727083333332416,32.152083333333],[35.73124999999905,32.15624999999971],[35.73124999999905,32.18541666666635]]}},{"type":"Feature","properties":{"HYRIV_ID":20754860,"NEXT_DOWN":20754121,"MAIN_RIV":20765143,"LENGTH_KM":5.9,"CATCH_SKM":22.360001,"DIS_AV_CMS":0.054,"ORD_STRA":1,"ORD_FLOW":8},"geometry":{"type":"LineString","coordinates":[[35.94583333333239,32.14583333333302],[35.956249999999045,32.15624999999971],[35.96041666666571,32.15624999999971],[35.96458333333234,32.16041666666636],[35.96458333333234,32.16874999999968],[35.96041666666571,32.17291666666633],[35.96041666666571,32.18958333333301]]}},{"type":"Feature","properties":{"HYRIV_ID":20754931,"NEXT_DOWN":20755146,"MAIN_RIV":20755639,"LENGTH_KM":10.49,"CATCH_SKM":30.530001,"DIS_AV_CMS":1.108,"ORD_STRA":2,"ORD_FLOW":6},"geometry":{"type":"LineString","coordinates":[[35.14791666666571,32.15624999999971],[35.143749999999045,32.152083333333],[35.13958333333238,32.152083333333],[35.13541666666572,32.15624999999971],[35.12708333333242,32.15624999999971],[35.12291666666576,32.16041666666636],[35.11458333333243,32.16041666666636],[35.11041666666577,32.15624999999971],[35.10208333333236,32.16458333333302],[35.097916666665725,32.16458333333302],[35.09374999999906,32.16874999999968],[35.07708333333241,32.152083333333],[35.07708333333241,32.14791666666634],[35.072916666665776,32.14791666666634],[35.06874999999911,32.14374999999969]]}},{"type":"Feature","properties":{"HYRIV_ID":20754932,"NEXT_DOWN":20754712,"MAIN_RIV":20755639,"LENGTH_KM":9.9899998,"CATCH_SKM":24.17,"DIS_AV_CMS":0.43,"ORD_STRA":2,"ORD_FLOW":7},"geometry":{"type":"LineString","coordinates":[[35.256249999999085,32.14791666666634],[35.25208333333242,32.14791666666634],[35.24791666666576,32.14374999999969],[35.243749999999096,32.14374999999969],[35.23958333333243,32.14791666666634],[35.23124999999905,32.14791666666634],[35.22708333333239,32.152083333333],[35.21874999999906,32.152083333333],[35.20208333333244,32.16874999999968],[35.19791666666569,32.16874999999968],[35.19374999999903,32.17291666666633],[35.189583333332365,32.17291666666633],[35.1854166666657,32.16874999999968],[35.18124999999904,32.17291666666633],[35.17291666666574,32.17291666666633]]}},{"type":"Feature","properties":{"HYRIV_ID":20754933,"NEXT_DOWN":20754118,"MAIN_RIV":20765143,"LENGTH_KM":8.79,"CATCH_SKM":42.16,"DIS_AV_CMS":0.119,"ORD_STRA":1,"ORD_FLOW":7},"geometry":{"type":"LineString","coordinates":[[35.88333333333236,32.14374999999969],[35.8729166666657,32.14374999999969],[35.86874999999904,32.14791666666634],[35.86458333333238,32.14374999999969],[35.860416666665714,32.14791666666634],[35.852083333332416,32.14791666666634],[35.84791666666575,32.152083333333],[35.84791666666575,32.16041666666636],[35.84374999999909,32.16458333333302],[35.84374999999909,32.17708333333304],[35.83541666666568,32.18541666666635],[35.83541666666568,32.18958333333301]]}},{"type":"Feature","properties":{"HYRIV_ID":20754997,"NEXT_DOWN":20755146,"MAIN_RIV":20755639,"LENGTH_KM":5.3,"CATCH_SKM":25.27,"DIS_AV_CMS":0.175,"ORD_STRA":1,"ORD_FLOW":7},"geometry":{"type":"LineString","coordinates":[[35.1124999999991,32.1374999999997],[35.10624999999902,32.14374999999969],[35.10208333333236,32.14374999999969],[35.097916666665725,32.13958333333303],[35.0895833333324,32.13958333333303],[35.085416666665736,32.14374999999969],[35.08124999999907,32.13958333333303],[35.07708333333241,32.13958333333303],[35.072916666665776,32.14374999999969],[35.06874999999911,32.14374999999969]]}},{"type":"Feature","properties":{"HYRIV_ID":20754998,"NEXT_DOWN":20754932,"MAIN_RIV":20755639,"LENGTH_KM":2.05,"CATCH_SKM":17.09,"DIS_AV_CMS":0.094,"ORD_STRA":1,"ORD_FLOW":8},"geometry":{"type":"LineString","coordinates":[[35.27083333333238,32.13958333333303],[35.26041666666572,32.13958333333303],[35.256249999999085,32.14374999999969],[35.256249999999085,32.14791666666634]]}},{"type":"Feature","properties":{"HYRIV_ID":20755146,"NEXT_DOWN":20755208,"MAIN_RIV":20755639,"LENGTH_KM":16.77,"CATCH_SKM":49.259998,"DIS_AV_CMS":1.626,"ORD_STRA":2,"ORD_FLOW":6},"geometry":{"type":"LineString","coordinates":[[35.06874999999911,32.14374999999969],[35.06458333333245,32.14791666666634],[35.05624999999904,32.14791666666634],[35.05208333333238,32.14374999999969],[35.04374999999908,32.14374999999969],[35.03541666666575,32.13541666666632],[35.018749999999045,32.13541666666632],[35.01458333333238,32.131249999999675],[35.01041666666572,32.13541666666632],[35.006249999999056,32.13541666666632],[35.00208333333239,32.13958333333303],[34.99791666666573,32.13541666666632],[34.993749999999096,32.13541666666632],[34.98958333333243,32.13958333333303],[34.97708333333236,32.13958333333303],[34.96874999999906,32.14791666666634],[34.95624999999907,32.14791666666634],[34.95208333333241,32.152083333333],[34.94374999999903,32.152083333333],[34.939583333332365,32.14791666666634],[34.93124999999904,32.15624999999971],[34.92708333333238,32.152083333333]]}},{"type":"Feature","properties":{"HYRIV_ID":20755147,"NEXT_DOWN":20756406,"MAIN_RIV":20765143,"LENGTH_KM":3.28,"CATCH_SKM":9.6300001,"DIS_AV_CMS":1.6289999,"ORD_STRA":3,"ORD_FLOW":6},"geometry":{"type":"LineString","coordinates":[[35.48124999999905,32.152083333333],[35.485416666665714,32.14791666666634],[35.485416666665714,32.14374999999969],[35.48958333333238,32.13958333333303],[35.49374999999901,32.13958333333303],[35.50208333333242,32.131249999999675]]}},{"type":"Feature","properties":{"HYRIV_ID":20755208,"NEXT_DOWN":20755640,"MAIN_RIV":20755639,"LENGTH_KM":3.8900001,"CATCH_SKM":13.09,"DIS_AV_CMS":2.589,"ORD_STRA":3,"ORD_FLOW":6},"geometry":{"type":"LineString","coordinates":[[34.92708333333238,32.152083333333],[34.91041666666575,32.13541666666632],[34.91041666666575,32.131249999999675],[34.90624999999909,32.12708333333301],[34.90208333333243,32.12708333333301]]}},{"type":"Feature","properties":{"HYRIV_ID":20755209,"NEXT_DOWN":20756406,"MAIN_RIV":20765143,"LENGTH_KM":1.59,"CATCH_SKM":17.639999,"DIS_AV_CMS":0.065,"ORD_STRA":1,"ORD_FLOW":8},"geometry":{"type":"LineString","coordinates":[[35.487499999999045,32.12708333333301],[35.49374999999901,32.12708333333301],[35.497916666665674,32.131249999999675],[35.50208333333242,32.131249999999675]]}},{"type":"Feature","properties":{"HYRIV_ID":20755210,"NEXT_DOWN":20755529,"MAIN_RIV":20765143,"LENGTH_KM":4.1100001,"CATCH_SKM":15.99,"DIS_AV_CMS":6.3540001,"ORD_STRA":4,"ORD_FLOW":6},"geometry":{"type":"LineString","coordinates":[[35.60208333333239,32.15624999999971],[35.585416666665765,32.13958333333303],[35.585416666665765,32.13541666666632],[35.577083333332354,32.12708333333301]]}},{"type":"Feature","properties":{"HYRIV_ID":20755211,"NEXT_DOWN":20754775,"MAIN_RIV":20765143,"LENGTH_KM":3.07,"CATCH_SKM":5.0900002,"DIS_AV_CMS":0.343,"ORD_STRA":2,"ORD_FLOW":7},"geometry":{"type":"LineString","coordinates":[[35.80624999999907,32.12708333333301],[35.81041666666573,32.131249999999675],[35.81041666666573,32.14374999999969],[35.81458333333239,32.14791666666634],[35.81458333333239,32.152083333333]]}},{"type":"Feature","properties":{"HYRIV_ID":20755338,"NEXT_DOWN":20755640,"MAIN_RIV":20755639,"LENGTH_KM":1.21,"CATCH_SKM":2.0,"DIS_AV_CMS":3.4430001,"ORD_STRA":3,"ORD_FLOW":6},"geometry":{"type":"LineString","coordinates":[[34.91041666666575,32.1187499999997],[34.90208333333243,32.12708333333301]]}},{"type":"Feature","properties":{"HYRIV_ID":20755339,"NEXT_DOWN":20754931,"MAIN_RIV":20755639,"LENGTH_KM":8.4799995,"CATCH_SKM":43.27,"DIS_AV_CMS":0.289,"ORD_STRA":1,"ORD_FLOW":7},"geometry":{"type":"LineString","coordinates":[[35.21249999999907,32.12291666666635],[35.19374999999903,32.12291666666635],[35.189583333332365,32.1187499999997],[35.18124999999904,32.12708333333301],[35.177083333332405,32.12708333333301],[35.164583333332416,32.13958333333303],[35.16041666666567,32.13958333333303],[35.15208333333237,32.14791666666634],[35.15208333333237,32.152083333333],[35.14791666666571,32.15624999999971]]}},{"type":"Feature","properties":{"HYRIV_ID":20755340,"NEXT_DOWN":20756537,"MAIN_RIV":20765143,"LENGTH_KM":4.87,"CATCH_SKM":32.720001,"DIS_AV_CMS":0.082,"ORD_STRA":1,"ORD_FLOW":8},"geometry":{"type":"LineString","coordinates":[[35.37291666666576,32.11666666666637],[35.37291666666576,32.12291666666635],[35.37708333333242,32.12708333333301],[35.38541666666575,32.12708333333301],[35.38958333333238,32.12291666666635],[35.393749999999045,32.12291666666635],[35.39791666666571,32.1187499999997],[35.4104166666657,32.1187499999997]]}},{"type":"Feature","properties":{"HYRIV_ID":20755341,"NEXT_DOWN":20756537,"MAIN_RIV":20765143,"LENGTH_KM":5.23,"CATCH_SKM":26.35,"DIS_AV_CMS":0.11,"ORD_STRA":1,"ORD_FLOW":7},"geometry":{"type":"LineString","coordinates":[[35.38749999999908,32.15416666666638],[35.393749999999045,32.14791666666634],[35.40208333333237,32.14791666666634],[35.4104166666657,32.13958333333303],[35.4104166666657,32.1187499999997]]}},{"type":"Feature","properties":{"HYRIV_ID":20755408,"NEXT_DOWN":20755828,"MAIN_RIV":20765143,"LENGTH_KM":10.17,"CATCH_SKM":54.700001,"DIS_AV_CMS":35.973,"ORD_STRA":5,"ORD_FLOW":5},"geometry":{"type":"LineString","coordinates":[[35.56458333333239,32.18958333333301],[35.56041666666573,32.18541666666635],[35.56041666666573,32.17708333333304],[35.55624999999907,32.17291666666633],[35.55624999999907,32.16041666666636],[35.56041666666573,32.15624999999971],[35.55624999999907,32.152083333333],[35.56041666666573,32.14791666666634],[35.55624999999907,32.14374999999969],[35.552083333332405,32.14374999999969],[35.54791666666566,32.13958333333303],[35.54791666666566,32.13541666666632],[35.552083333332405,32.131249999999675],[35.552083333332405,32.12708333333301],[35.54791666666566,32.12291666666635],[35.54791666666566,32.1187499999997],[35.54374999999911,32.11458333333304]]}},{"type":"Feature","properties":{"HYRIV_ID":20755466,"NEXT_DOWN":20755211,"MAIN_RIV":20765143,"LENGTH_KM":1.85,"CATCH_SKM":3.09,"DIS_AV_CMS":0.213,"ORD_STRA":2,"ORD_FLOW":7},"geometry":{"type":"LineString","coordinates":[[35.80624999999907,32.11041666666633],[35.80624999999907,32.12708333333301]]}},{"type":"Feature","properties":{"HYRIV_ID":20755528,"NEXT_DOWN":20755338,"MAIN_RIV":20755639,"LENGTH_KM":2.21,"CATCH_SKM":14.54,"DIS_AV_CMS":3.257,"ORD_STRA":3,"ORD_FLOW":6},"geometry":{"type":"LineString","coordinates":[[34.92708333333238,32.106249999999726],[34.914583333332416,32.1187499999997],[34.91041666666575,32.1187499999997]]}},{"type":"Feature","properties":{"HYRIV_ID":20755529,"NEXT_DOWN":20755828,"MAIN_RIV":20765143,"LENGTH_KM":5.14,"CATCH_SKM":15.46,"DIS_AV_CMS":6.5300002,"ORD_STRA":4,"ORD_FLOW":6},"geometry":{"type":"LineString","coordinates":[[35.577083333332354,32.12708333333301],[35.577083333332354,32.12291666666635],[35.57291666666569,32.1187499999997],[35.57291666666569,32.11458333333304],[35.568749999999056,32.11041666666633],[35.55624999999907,32.11041666666633],[35.552083333332405,32.106249999999726],[35.54374999999911,32.11458333333304]]}},{"type":"Feature","properties":{"HYRIV_ID":20755530,"NEXT_DOWN":20754775,"MAIN_RIV":20765143,"LENGTH_KM":6.25,"CATCH_SKM":17.09,"DIS_AV_CMS":0.146,"ORD_STRA":2,"ORD_FLOW":7},"geometry":{"type":"LineString","coordinates":[[35.84791666666575,32.106249999999726],[35.82708333333238,32.12708333333301],[35.82708333333238,32.13958333333303],[35.81458333333239,32.152083333333]]}},{"type":"Feature","properties":{"HYRIV_ID":20755531,"NEXT_DOWN":20755530,"MAIN_RIV":20765143,"LENGTH_KM":0.98,"CATCH_SKM":13.82,"DIS_AV_CMS":0.039,"ORD_STRA":1,"ORD_FLOW":8},"geometry":{"type":"LineString","coordinates":[[35.85833333333238,32.106249999999726],[35.84791666666575,32.106249999999726]]}},{"type":"Feature","properties":{"HYRIV_ID":20755595,"NEXT_DOWN":20755641,"MAIN_RIV":20755639,"LENGTH_KM":0.59,"CATCH_SKM":17.82,"DIS_AV_CMS":0.127,"ORD_STRA":1,"ORD_FLOW":7},"geometry":{"type":"LineString","coordinates":[[34.991666666665765,32.10208333333302],[34.98541666666577,32.10208333333302]]}},{"type":"Feature","properties":{"HYRIV_ID":20755596,"NEXT_DOWN":20756141,"MAIN_RIV":20755639,"LENGTH_KM":4.98,"CATCH_SKM":26.18,"DIS_AV_CMS":0.104,"ORD_STRA":1,"ORD_FLOW":7},"geometry":{"type":"LineString","coordinates":[[35.312499999999034,32.1187499999997],[35.30624999999907,32.1187499999997],[35.302083333332405,32.11458333333304],[35.289583333332416,32.11458333333304],[35.281249999999034,32.106249999999726],[35.27708333333237,32.106249999999726],[35.27291666666571,32.10208333333302],[35.268749999999045,32.10208333333302]]}},{"type":"Feature","properties":{"HYRIV_ID":20755597,"NEXT_DOWN":20755529,"MAIN_RIV":20765143,"LENGTH_KM":10.76,"CATCH_SKM":36.549999,"DIS_AV_CMS":0.133,"ORD_STRA":1,"ORD_FLOW":7},"geometry":{"type":"LineString","coordinates":[[35.67499999999907,32.10208333333302],[35.66874999999902,32.10208333333302],[35.6604166666657,32.11041666666633],[35.62708333333234,32.11041666666633],[35.6229166666657,32.11458333333304],[35.6229166666657,32.1187499999997],[35.61874999999904,32.12291666666635],[35.60208333333239,32.12291666666635],[35.597916666665725,32.12708333333301],[35.577083333332354,32.12708333333301]]}},{"type":"Feature","properties":{"HYRIV_ID":20755639,"NEXT_DOWN":0,"MAIN_RIV":20755639,"LENGTH_KM":3.61,"CATCH_SKM":5.64,"DIS_AV_CMS":12.249,"ORD_STRA":4,"ORD_FLOW":5},"geometry":{"type":"LineString","coordinates":[[34.80208333333238,32.09791666666636],[34.797916666665714,32.10208333333302],[34.79374999999905,32.09791666666636],[34.78124999999909,32.09791666666636],[34.772916666665765,32.106249999999726]]}},{"type":"Feature","properties":{"HYRIV_ID":20755640,"NEXT_DOWN":20755639,"MAIN_RIV":20755639,"LENGTH_KM":11.6,"CATCH_SKM":73.639999,"DIS_AV_CMS":6.493,"ORD_STRA":4,"ORD_FLOW":6},"geometry":{"type":"LineString","coordinates":[[34.90208333333243,32.12708333333301],[34.89791666666568,32.12708333333301],[34.8937499999991,32.12291666666635],[34.88958333333238,32.12291666666635],[34.88541666666572,32.12708333333301],[34.881249999999056,32.12708333333301],[34.87708333333239,32.12291666666635],[34.86874999999907,32.12291666666635],[34.86458333333243,32.1187499999997],[34.86458333333243,32.11458333333304],[34.86041666666577,32.11041666666633],[34.85624999999911,32.11041666666633],[34.852083333332445,32.106249999999726],[34.83124999999907,32.106249999999726],[34.82708333333241,32.10208333333302],[34.81458333333242,32.10208333333302],[34.8104166666657,32.09791666666636],[34.80208333333238,32.09791666666636]]}},{"type":"Feature","properties":{"HYRIV_ID":20755641,"NEXT_DOWN":20755528,"MAIN_RIV":20755639,"LENGTH_KM":7.25,"CATCH_SKM":15.82,"DIS_AV_CMS":0.59,"ORD_STRA":2,"ORD_FLOW":7},"geometry":{"type":"LineString","coordinates":[[34.98541666666577,32.10208333333302],[34.9645833333324,32.10208333333302],[34.960416666665736,32.09791666666636],[34.95624999999907,32.10208333333302],[34.95208333333241,32.10208333333302],[34.94791666666575,32.09791666666636],[34.94374999999903,32.10208333333302],[34.94374999999903,32.106249999999726],[34.939583333332365,32.11041666666633],[34.93124999999904,32.11041666666633],[34.92708333333238,32.106249999999726]]}},{"type":"Feature","properties":{"HYRIV_ID":20755642,"NEXT_DOWN":20755211,"MAIN_RIV":20765143,"LENGTH_KM":6.6599998,"CATCH_SKM":35.639999,"DIS_AV_CMS":0.115,"ORD_STRA":1,"ORD_FLOW":7},"geometry":{"type":"LineString","coordinates":[[35.76249999999908,32.09791666666636],[35.76874999999907,32.09791666666636],[35.772916666665736,32.10208333333302],[35.781249999999034,32.10208333333302],[35.78958333333236,32.11041666666633],[35.79374999999902,32.11041666666633],[35.797916666665685,32.11458333333304],[35.79374999999902,32.1187499999997],[35.79374999999902,32.12291666666635],[35.797916666665685,32.12708333333301],[35.80624999999907,32.12708333333301]]}},{"type":"Feature","properties":{"HYRIV_ID":20755643,"NEXT_DOWN":20755530,"MAIN_RIV":20765143,"LENGTH_KM":1.77,"CATCH_SKM":20.01,"DIS_AV_CMS":0.057,"ORD_STRA":1,"ORD_FLOW":8},"geometry":{"type":"LineString","coordinates":[[35.85833333333238,32.095833333333026],[35.852083333332416,32.10208333333302],[35.84791666666575,32.10208333333302],[35.84791666666575,32.106249999999726]]}},{"type":"Feature","properties":{"HYRIV_ID":20755765,"NEXT_DOWN":20756141,"MAIN_RIV":20755639,"LENGTH_KM":2.55,"CATCH_SKM":22.370001,"DIS_AV_CMS":0.093,"ORD_STRA":1,"ORD_FLOW":8},"geometry":{"type":"LineString","coordinates":[[35.281249999999034,32.08749999999967],[35.281249999999034,32.093749999999694],[35.27291666666571,32.093749999999694],[35.268749999999045,32.09791666666636],[35.268749999999045,32.10208333333302]]}},{"type":"Feature","properties":{"HYRIV_ID":20755828,"NEXT_DOWN":20756407,"MAIN_RIV":20765143,"LENGTH_KM":3.82,"CATCH_SKM":8.5500002,"DIS_AV_CMS":42.312,"ORD_STRA":5,"ORD_FLOW":5},"geometry":{"type":"LineString","coordinates":[[35.54374999999911,32.11458333333304],[35.5354166666657,32.106249999999726],[35.5354166666657,32.10208333333302],[35.53958333333236,32.09791666666636],[35.53958333333236,32.089583333333046],[35.54374999999911,32.08541666666634]]}},{"type":"Feature","properties":{"HYRIV_ID":20755880,"NEXT_DOWN":20755641,"MAIN_RIV":20755639,"LENGTH_KM":4.96,"CATCH_SKM":8.0,"DIS_AV_CMS":0.353,"ORD_STRA":2,"ORD_FLOW":7},"geometry":{"type":"LineString","coordinates":[[35.018749999999045,32.08124999999968],[35.006249999999056,32.08124999999968],[35.00208333333239,32.08541666666634],[34.99791666666573,32.08541666666634],[34.993749999999096,32.089583333333046],[34.98541666666577,32.089583333333046],[34.98541666666577,32.10208333333302]]}},{"type":"Feature","properties":{"HYRIV_ID":20755881,"NEXT_DOWN":20755880,"MAIN_RIV":20755639,"LENGTH_KM":5.0900002,"CATCH_SKM":18.91,"DIS_AV_CMS":0.133,"ORD_STRA":1,"ORD_FLOW":7},"geometry":{"type":"LineString","coordinates":[[35.062499999999034,32.09999999999969],[35.05624999999904,32.093749999999694],[35.05208333333238,32.093749999999694],[35.04791666666574,32.089583333333046],[35.04374999999908,32.089583333333046],[35.039583333332416,32.08541666666634],[35.02291666666571,32.08541666666634],[35.018749999999045,32.08124999999968]]}},{"type":"Feature","properties":{"HYRIV_ID":20755882,"NEXT_DOWN":20755466,"MAIN_RIV":20765143,"LENGTH_KM":3.82,"CATCH_SKM":9.2799997,"DIS_AV_CMS":0.137,"ORD_STRA":2,"ORD_FLOW":7},"geometry":{"type":"LineString","coordinates":[[35.82291666666572,32.08124999999968],[35.81041666666573,32.093749999999694],[35.81041666666573,32.106249999999726],[35.80624999999907,32.11041666666633]]}},{"type":"Feature","properties":{"HYRIV_ID":20755883,"NEXT_DOWN":20754715,"MAIN_RIV":20765143,"LENGTH_KM":14.47,"CATCH_SKM":56.189999,"DIS_AV_CMS":0.13,"ORD_STRA":1,"ORD_FLOW":7},"geometry":{"type":"LineString","coordinates":[[35.92083333333244,32.08124999999968],[35.92708333333243,32.08124999999968],[35.93958333333239,32.093749999999694],[35.95208333333238,32.093749999999694],[35.96041666666571,32.10208333333302],[35.96041666666571,32.11041666666633],[35.968749999999005,32.1187499999997],[35.977083333332416,32.1187499999997],[35.98124999999908,32.12291666666635],[35.98958333333238,32.12291666666635],[35.99374999999904,32.12708333333301],[35.99374999999904,32.131249999999675],[35.9979166666657,32.13541666666632],[36.002083333332365,32.13541666666632],[36.014583333332354,32.14791666666634],[36.01874999999899,32.14791666666634],[36.022916666665736,32.152083333333],[36.022916666665736,32.15624999999971]]}},{"type":"Feature","properties":{"HYRIV_ID":20755949,"NEXT_DOWN":20755338,"MAIN_RIV":20755639,"LENGTH_KM":5.3,"CATCH_SKM":24.190001,"DIS_AV_CMS":0.175,"ORD_STRA":1,"ORD_FLOW":7},"geometry":{"type":"LineString","coordinates":[[34.90624999999909,32.074999999999655],[34.90624999999909,32.08124999999968],[34.91041666666575,32.08541666666634],[34.91041666666575,32.106249999999726],[34.90624999999909,32.11041666666633],[34.90624999999909,32.11458333333304],[34.91041666666575,32.1187499999997]]}},{"type":"Feature","properties":{"HYRIV_ID":20756010,"NEXT_DOWN":20755528,"MAIN_RIV":20755639,"LENGTH_KM":4.39,"CATCH_SKM":8.37,"DIS_AV_CMS":2.5669999,"ORD_STRA":3,"ORD_FLOW":6},"geometry":{"type":"LineString","coordinates":[[34.939583333332365,32.072916666666366],[34.9354166666657,32.072916666666366],[34.9354166666657,32.07708333333303],[34.92708333333238,32.08541666666634],[34.92708333333238,32.106249999999726]]}},{"type":"Feature","properties":{"HYRIV_ID":20756011,"NEXT_DOWN":20755880,"MAIN_RIV":20755639,"LENGTH_KM":7.9400001,"CATCH_SKM":23.639999,"DIS_AV_CMS":0.16500001,"ORD_STRA":1,"ORD_FLOW":7},"geometry":{"type":"LineString","coordinates":[[35.09166666666573,32.08541666666634],[35.085416666665736,32.08541666666634],[35.08124999999907,32.08124999999968],[35.06458333333245,32.08124999999968],[35.05624999999904,32.072916666666366],[35.03541666666575,32.072916666666366],[35.03124999999909,32.07708333333303],[35.02291666666571,32.07708333333303],[35.018749999999045,32.08124999999968]]}},{"type":"Feature","properties":{"HYRIV_ID":20756012,"NEXT_DOWN":20755466,"MAIN_RIV":20765143,"LENGTH_KM":4.98,"CATCH_SKM":22.01,"DIS_AV_CMS":0.066,"ORD_STRA":1,"ORD_FLOW":8},"geometry":{"type":"LineString","coordinates":[[35.78958333333236,32.07083333333299],[35.78958333333236,32.089583333333046],[35.80624999999907,32.106249999999726],[35.80624999999907,32.11041666666633]]}},{"type":"Feature","properties":{"HYRIV_ID":20756081,"NEXT_DOWN":20756407,"MAIN_RIV":20765143,"LENGTH_KM":13.91,"CATCH_SKM":58.200001,"DIS_AV_CMS":0.208,"ORD_STRA":1,"ORD_FLOW":7},"geometry":{"type":"LineString","coordinates":[[35.670833333332354,32.072916666666366],[35.63958333333241,32.072916666666366],[35.63541666666575,32.06874999999966],[35.6229166666657,32.06874999999966],[35.61874999999904,32.072916666666366],[35.60208333333239,32.072916666666366],[35.58958333333243,32.08541666666634],[35.585416666665765,32.08541666666634],[35.5812499999991,32.089583333333046],[35.577083333332354,32.08541666666634],[35.57291666666569,32.08541666666634],[35.568749999999056,32.089583333333046],[35.56458333333239,32.089583333333046],[35.56041666666573,32.08541666666634],[35.54374999999911,32.08541666666634]]}},{"type":"Feature","properties":{"HYRIV_ID":20756082,"NEXT_DOWN":20755882,"MAIN_RIV":20765143,"LENGTH_KM":2.1300001,"CATCH_SKM":13.64,"DIS_AV_CMS":0.037,"ORD_STRA":1,"ORD_FLOW":8},"geometry":{"type":"LineString","coordinates":[[35.83749999999901,32.06666666666634],[35.82291666666572,32.08124999999968]]}},{"type":"Feature","properties":{"HYRIV_ID":20756140,"NEXT_DOWN":20756467,"MAIN_RIV":20755639,"LENGTH_KM":5.3,"CATCH_SKM":26.73,"DIS_AV_CMS":0.182,"ORD_STRA":1,"ORD_FLOW":7},"geometry":{"type":"LineString","coordinates":[[35.141666666665714,32.08541666666634],[35.131249999999056,32.08541666666634],[35.12291666666576,32.07708333333303],[35.10624999999902,32.07708333333303],[35.10624999999902,32.06874999999966],[35.11041666666577,32.06458333333301]]}},{"type":"Feature","properties":{"HYRIV_ID":20756141,"NEXT_DOWN":20756346,"MAIN_RIV":20755639,"LENGTH_KM":10.96,"CATCH_SKM":29.459999,"DIS_AV_CMS":0.427,"ORD_STRA":2,"ORD_FLOW":7},"geometry":{"type":"LineString","coordinates":[[35.268749999999045,32.10208333333302],[35.26458333333238,32.10208333333302],[35.26041666666572,32.09791666666636],[35.24791666666576,32.09791666666636],[35.23958333333243,32.089583333333046],[35.23124999999905,32.089583333333046],[35.22708333333239,32.08541666666634],[35.21874999999906,32.08541666666634],[35.2145833333324,32.08124999999968],[35.20208333333244,32.08124999999968],[35.19374999999903,32.072916666666366],[35.189583333332365,32.072916666666366],[35.18124999999904,32.06458333333301],[35.17291666666574,32.06458333333301]]}},{"type":"Feature","properties":{"HYRIV_ID":20756142,"NEXT_DOWN":20755882,"MAIN_RIV":20765143,"LENGTH_KM":2.08,"CATCH_SKM":26.02,"DIS_AV_CMS":0.072,"ORD_STRA":1,"ORD_FLOW":8},"geometry":{"type":"LineString","coordinates":[[35.82291666666572,32.06249999999968],[35.82291666666572,32.08124999999968]]}},{"type":"Feature","properties":{"HYRIV_ID":20756210,"NEXT_DOWN":20756010,"MAIN_RIV":20755639,"LENGTH_KM":1.98,"CATCH_SKM":12.55,"DIS_AV_CMS":0.089,"ORD_STRA":1,"ORD_FLOW":8},"geometry":{"type":"LineString","coordinates":[[34.9416666666657,32.05833333333302],[34.9354166666657,32.06458333333301],[34.939583333332365,32.06874999999966],[34.939583333332365,32.072916666666366]]}},{"type":"Feature","properties":{"HYRIV_ID":20756345,"NEXT_DOWN":20756467,"MAIN_RIV":20755639,"LENGTH_KM":2.61,"CATCH_SKM":5.2800002,"DIS_AV_CMS":1.67,"ORD_STRA":3,"ORD_FLOW":6},"geometry":{"type":"LineString","coordinates":[[35.131249999999056,32.05208333333304],[35.12291666666576,32.06041666666635],[35.118749999999096,32.06041666666635],[35.11458333333243,32.06458333333301],[35.11041666666577,32.06458333333301]]}},{"type":"Feature","properties":{"HYRIV_ID":20756346,"NEXT_DOWN":20756345,"MAIN_RIV":20755639,"LENGTH_KM":5.0,"CATCH_SKM":10.01,"DIS_AV_CMS":0.95300001,"ORD_STRA":3,"ORD_FLOW":7},"geometry":{"type":"LineString","coordinates":[[35.17291666666574,32.06458333333301],[35.164583333332416,32.056249999999686],[35.15208333333237,32.056249999999686],[35.14791666666571,32.05208333333304],[35.143749999999045,32.05208333333304],[35.13958333333238,32.056249999999686],[35.13541666666572,32.05208333333304],[35.131249999999056,32.05208333333304]]}},{"type":"Feature","properties":{"HYRIV_ID":20756347,"NEXT_DOWN":20756797,"MAIN_RIV":20765143,"LENGTH_KM":2.73,"CATCH_SKM":15.64,"DIS_AV_CMS":0.016,"ORD_STRA":1,"ORD_FLOW":8},"geometry":{"type":"LineString","coordinates":[[35.383333333332416,32.07083333333299],[35.40208333333237,32.05208333333304]]}},{"type":"Feature","properties":{"HYRIV_ID":20756403,"NEXT_DOWN":20756010,"MAIN_RIV":20755639,"LENGTH_KM":13.46,"CATCH_SKM":29.84,"DIS_AV_CMS":2.424,"ORD_STRA":3,"ORD_FLOW":6},"geometry":{"type":"LineString","coordinates":[[35.04791666666574,32.04791666666633],[35.04374999999908,32.04791666666633],[35.039583333332416,32.05208333333304],[35.03541666666575,32.05208333333304],[35.03124999999909,32.056249999999686],[35.02291666666571,32.056249999999686],[35.018749999999045,32.06041666666635],[35.006249999999056,32.06041666666635],[34.99791666666573,32.05208333333304],[34.993749999999096,32.05208333333304],[34.98958333333243,32.056249999999686],[34.98124999999911,32.056249999999686],[34.96874999999906,32.06874999999966],[34.96874999999906,32.072916666666366],[34.9645833333324,32.072916666666366],[34.960416666665736,32.06874999999966],[34.95208333333241,32.07708333333303],[34.94791666666575,32.072916666666366],[34.939583333332365,32.072916666666366]]}},{"type":"Feature","properties":{"HYRIV_ID":20756404,"NEXT_DOWN":20756346,"MAIN_RIV":20755639,"LENGTH_KM":4.0,"CATCH_SKM":8.9099998,"DIS_AV_CMS":0.435,"ORD_STRA":2,"ORD_FLOW":7},"geometry":{"type":"LineString","coordinates":[[35.20624999999907,32.04791666666633],[35.20208333333244,32.04791666666633],[35.19374999999903,32.056249999999686],[35.18124999999904,32.056249999999686],[35.17291666666574,32.06458333333301]]}},{"type":"Feature","properties":{"HYRIV_ID":20756405,"NEXT_DOWN":20756404,"MAIN_RIV":20755639,"LENGTH_KM":0.59,"CATCH_SKM":11.1,"DIS_AV_CMS":0.073,"ORD_STRA":1,"ORD_FLOW":8},"geometry":{"type":"LineString","coordinates":[[35.21249999999907,32.04791666666633],[35.20624999999907,32.04791666666633]]}},{"type":"Feature","properties":{"HYRIV_ID":20756406,"NEXT_DOWN":20756799,"MAIN_RIV":20765143,"LENGTH_KM":10.27,"CATCH_SKM":35.099998,"DIS_AV_CMS":1.8329999,"ORD_STRA":3,"ORD_FLOW":6},"geometry":{"type":"LineString","coordinates":[[35.50208333333242,32.131249999999675],[35.52291666666571,32.11041666666633],[35.52291666666571,32.06874999999966],[35.51874999999907,32.06458333333301],[35.51874999999907,32.056249999999686],[35.52291666666571,32.05208333333304],[35.52291666666571,32.04791666666633]]}},{"type":"Feature","properties":{"HYRIV_ID":20756407,"NEXT_DOWN":20756799,"MAIN_RIV":20765143,"LENGTH_KM":4.89,"CATCH_SKM":14.37,"DIS_AV_CMS":42.325001,"ORD_STRA":5,"ORD_FLOW":5},"geometry":{"type":"LineString","coordinates":[[35.54374999999911,32.08541666666634],[35.53958333333236,32.08124999999968],[35.53958333333236,32.07708333333303],[35.5354166666657,32.072916666666366],[35.5354166666657,32.06874999999966],[35.531249999999034,32.06458333333301],[35.531249999999034,32.056249999999686],[35.52291666666571,32.04791666666633]]}},{"type":"Feature","properties":{"HYRIV_ID":20756467,"NEXT_DOWN":20756403,"MAIN_RIV":20755639,"LENGTH_KM":8.3900003,"CATCH_SKM":27.66,"DIS_AV_CMS":2.072,"ORD_STRA":3,"ORD_FLOW":6},"geometry":{"type":"LineString","coordinates":[[35.11041666666577,32.06458333333301],[35.10624999999902,32.06041666666635],[35.097916666665725,32.06041666666635],[35.09374999999906,32.056249999999686],[35.0895833333324,32.06041666666635],[35.08124999999907,32.06041666666635],[35.07708333333241,32.056249999999686],[35.08124999999907,32.05208333333304],[35.072916666665776,32.04374999999967],[35.06874999999911,32.04791666666633],[35.04791666666574,32.04791666666633]]}},{"type":"Feature","properties":{"HYRIV_ID":20756468,"NEXT_DOWN":20756404,"MAIN_RIV":20755639,"LENGTH_KM":11.87,"CATCH_SKM":54.040001,"DIS_AV_CMS":0.302,"ORD_STRA":1,"ORD_FLOW":7},"geometry":{"type":"LineString","coordinates":[[35.29999999999907,32.04374999999967],[35.29374999999908,32.04374999999967],[35.28541666666567,32.05208333333304],[35.281249999999034,32.05208333333304],[35.27708333333237,32.056249999999686],[35.27291666666571,32.056249999999686],[35.268749999999045,32.06041666666635],[35.26458333333238,32.06041666666635],[35.26041666666572,32.06458333333301],[35.256249999999085,32.06041666666635],[35.25208333333242,32.06041666666635],[35.243749999999096,32.06874999999966],[35.23958333333243,32.06874999999966],[35.235416666665685,32.06458333333301],[35.235416666665685,32.06041666666635],[35.23124999999905,32.06041666666635],[35.22708333333239,32.056249999999686],[35.2145833333324,32.056249999999686],[35.20624999999907,32.04791666666633]]}},{"type":"Feature","properties":{"HYRIV_ID":20756469,"NEXT_DOWN":20756797,"MAIN_RIV":20765143,"LENGTH_KM":4.1599998,"CATCH_SKM":21.110001,"DIS_AV_CMS":0.034,"ORD_STRA":1,"ORD_FLOW":8},"geometry":{"type":"LineString","coordinates":[[35.362499999999045,32.04374999999967],[35.381249999999085,32.04374999999967],[35.38541666666575,32.04791666666633],[35.38958333333238,32.04791666666633],[35.393749999999045,32.05208333333304],[35.40208333333237,32.05208333333304]]}},{"type":"Feature","properties":{"HYRIV_ID":20756537,"NEXT_DOWN":20756798,"MAIN_RIV":20765143,"LENGTH_KM":15.74,"CATCH_SKM":53.110001,"DIS_AV_CMS":0.325,"ORD_STRA":2,"ORD_FLOW":7},"geometry":{"type":"LineString","coordinates":[[35.4104166666657,32.1187499999997],[35.41458333333236,32.11458333333304],[35.42291666666574,32.11458333333304],[35.427083333332405,32.11041666666633],[35.427083333332405,32.089583333333046],[35.42291666666574,32.08541666666634],[35.42291666666574,32.08124999999968],[35.427083333332405,32.07708333333303],[35.43541666666573,32.07708333333303],[35.43541666666573,32.072916666666366],[35.43958333333239,32.06874999999966],[35.43958333333239,32.06041666666635],[35.44791666666569,32.05208333333304],[35.45208333333244,32.05208333333304],[35.4562499999991,32.04791666666633],[35.48124999999905,32.04791666666633],[35.48958333333238,32.03958333333302],[35.50208333333242,32.03958333333302]]}},{"type":"Feature","properties":{"HYRIV_ID":20756538,"NEXT_DOWN":20756798,"MAIN_RIV":20765143,"LENGTH_KM":0.91,"CATCH_SKM":11.1,"DIS_AV_CMS":0.03,"ORD_STRA":1,"ORD_FLOW":8},"geometry":{"type":"LineString","coordinates":[[35.508333333332416,32.045833333333],[35.50208333333242,32.03958333333302]]}},{"type":"Feature","properties":{"HYRIV_ID":20756539,"NEXT_DOWN":20757480,"MAIN_RIV":20765143,"LENGTH_KM":4.9499998,"CATCH_SKM":19.1,"DIS_AV_CMS":0.068,"ORD_STRA":1,"ORD_FLOW":8},"geometry":{"type":"LineString","coordinates":[[35.59583333333242,32.05208333333304],[35.58958333333243,32.05208333333304],[35.5812499999991,32.06041666666635],[35.577083333332354,32.06041666666635],[35.56458333333239,32.04791666666633],[35.56458333333239,32.03958333333302]]}},{"type":"Feature","properties":{"HYRIV_ID":20756594,"NEXT_DOWN":20755639,"MAIN_RIV":20755639,"LENGTH_KM":9.1400003,"CATCH_SKM":25.469999,"DIS_AV_CMS":5.7620001,"ORD_STRA":3,"ORD_FLOW":6},"geometry":{"type":"LineString","coordinates":[[34.8104166666657,32.03541666666636],[34.797916666665714,32.03541666666636],[34.78541666666575,32.04791666666633],[34.78541666666575,32.06041666666635],[34.79374999999905,32.06874999999966],[34.79374999999905,32.07708333333303],[34.797916666665714,32.08124999999968],[34.797916666665714,32.089583333333046],[34.80208333333238,32.093749999999694],[34.80208333333238,32.09791666666636]]}},{"type":"Feature","properties":{"HYRIV_ID":20756595,"NEXT_DOWN":20756594,"MAIN_RIV":20755639,"LENGTH_KM":1.09,"CATCH_SKM":13.83,"DIS_AV_CMS":0.101,"ORD_STRA":1,"ORD_FLOW":7},"geometry":{"type":"LineString","coordinates":[[34.81458333333242,32.04166666666635],[34.81458333333242,32.03541666666636],[34.8104166666657,32.03541666666636]]}},{"type":"Feature","properties":{"HYRIV_ID":20756596,"NEXT_DOWN":20756403,"MAIN_RIV":20755639,"LENGTH_KM":2.8,"CATCH_SKM":16.200001,"DIS_AV_CMS":0.112,"ORD_STRA":1,"ORD_FLOW":7},"geometry":{"type":"LineString","coordinates":[[35.070833333332445,32.03541666666636],[35.0604166666657,32.03541666666636],[35.04791666666574,32.04791666666633]]}},{"type":"Feature","properties":{"HYRIV_ID":20756658,"NEXT_DOWN":20757480,"MAIN_RIV":20765143,"LENGTH_KM":2.98,"CATCH_SKM":15.29,"DIS_AV_CMS":0.052,"ORD_STRA":1,"ORD_FLOW":8},"geometry":{"type":"LineString","coordinates":[[35.59166666666576,32.031249999999694],[35.585416666665765,32.031249999999694],[35.5812499999991,32.03541666666636],[35.57291666666569,32.03541666666636],[35.568749999999056,32.03958333333302],[35.56458333333239,32.03958333333302]]}},{"type":"Feature","properties":{"HYRIV_ID":20756731,"NEXT_DOWN":20756594,"MAIN_RIV":20755639,"LENGTH_KM":1.0700001,"CATCH_SKM":0.91,"DIS_AV_CMS":5.5289998,"ORD_STRA":3,"ORD_FLOW":6},"geometry":{"type":"LineString","coordinates":[[34.81458333333242,32.027083333333046],[34.81458333333242,32.031249999999694],[34.8104166666657,32.03541666666636]]}},{"type":"Feature","properties":{"HYRIV_ID":20756732,"NEXT_DOWN":20756955,"MAIN_RIV":20765143,"LENGTH_KM":4.8800001,"CATCH_SKM":24.74,"DIS_AV_CMS":0.061,"ORD_STRA":1,"ORD_FLOW":8},"geometry":{"type":"LineString","coordinates":[[35.941666666665725,32.04374999999967],[35.94791666666572,32.04374999999967],[35.95208333333238,32.03958333333302],[35.956249999999045,32.03958333333302],[35.96041666666571,32.04374999999967],[35.96458333333234,32.03958333333302],[35.968749999999005,32.03958333333302],[35.977083333332416,32.031249999999694],[35.977083333332416,32.027083333333046]]}},{"type":"Feature","properties":{"HYRIV_ID":20756797,"NEXT_DOWN":20756954,"MAIN_RIV":20765143,"LENGTH_KM":7.0,"CATCH_SKM":31.66,"DIS_AV_CMS":0.07,"ORD_STRA":2,"ORD_FLOW":8},"geometry":{"type":"LineString","coordinates":[[35.40208333333237,32.05208333333304],[35.418749999998994,32.05208333333304],[35.42291666666574,32.04791666666633],[35.43124999999907,32.04791666666633],[35.44374999999903,32.03541666666636],[35.44791666666569,32.03541666666636],[35.460416666665765,32.02291666666634]]}},{"type":"Feature","properties":{"HYRIV_ID":20756798,"NEXT_DOWN":20757546,"MAIN_RIV":20765143,"LENGTH_KM":3.07,"CATCH_SKM":11.1,"DIS_AV_CMS":0.413,"ORD_STRA":2,"ORD_FLOW":7},"geometry":{"type":"LineString","coordinates":[[35.50208333333242,32.03958333333302],[35.51041666666575,32.031249999999694],[35.51041666666575,32.027083333333046],[35.51458333333241,32.027083333333046],[35.51874999999907,32.02291666666634],[35.52291666666571,32.02291666666634]]}},{"type":"Feature","properties":{"HYRIV_ID":20756799,"NEXT_DOWN":20757546,"MAIN_RIV":20765143,"LENGTH_KM":3.07,"CATCH_SKM":6.37,"DIS_AV_CMS":43.974998,"ORD_STRA":5,"ORD_FLOW":5},"geometry":{"type":"LineString","coordinates":[[35.52291666666571,32.04791666666633],[35.52291666666571,32.03958333333302],[35.51874999999907,32.03541666666636],[35.52291666666571,32.031249999999694],[35.52291666666571,32.02291666666634]]}},{"type":"Feature","properties":{"HYRIV_ID":20756800,"NEXT_DOWN":20756875,"MAIN_RIV":20765143,"LENGTH_KM":3.2,"CATCH_SKM":14.38,"DIS_AV_CMS":0.036,"ORD_STRA":1,"ORD_FLOW":8},"geometry":{"type":"LineString","coordinates":[[35.91249999999903,32.03541666666636],[35.91874999999902,32.03541666666636],[35.92708333333243,32.027083333333046],[35.931249999999096,32.027083333333046],[35.93541666666576,32.02291666666634],[35.93958333333239,32.02291666666634]]}},{"type":"Feature","properties":{"HYRIV_ID":20756873,"NEXT_DOWN":20756951,"MAIN_RIV":20755639,"LENGTH_KM":2.05,"CATCH_SKM":13.83,"DIS_AV_CMS":0.099,"ORD_STRA":1,"ORD_FLOW":8},"geometry":{"type":"LineString","coordinates":[[34.899999999999096,32.027083333333046],[34.88958333333238,32.027083333333046],[34.88541666666572,32.02291666666634],[34.88541666666572,32.01874999999968]]}},{"type":"Feature","properties":{"HYRIV_ID":20756874,"NEXT_DOWN":20756875,"MAIN_RIV":20765143,"LENGTH_KM":1.91,"CATCH_SKM":14.2,"DIS_AV_CMS":0.034,"ORD_STRA":1,"ORD_FLOW":8},"geometry":{"type":"LineString","coordinates":[[35.9249999999991,32.024999999999714],[35.931249999999096,32.01874999999968],[35.93541666666576,32.01874999999968],[35.93958333333239,32.02291666666634]]}},{"type":"Feature","properties":{"HYRIV_ID":20756875,"NEXT_DOWN":20756955,"MAIN_RIV":20765143,"LENGTH_KM":4.6100001,"CATCH_SKM":9.2799997,"DIS_AV_CMS":0.093,"ORD_STRA":2,"ORD_FLOW":8},"geometry":{"type":"LineString","coordinates":[[35.93958333333239,32.02291666666634],[35.943749999999056,32.01874999999968],[35.94791666666572,32.02291666666634],[35.956249999999045,32.02291666666634],[35.96041666666571,32.01874999999968],[35.96458333333234,32.02291666666634],[35.97291666666575,32.02291666666634],[35.977083333332416,32.027083333333046]]}},{"type":"Feature","properties":{"HYRIV_ID":20756949,"NEXT_DOWN":20756731,"MAIN_RIV":20755639,"LENGTH_KM":5.04,"CATCH_SKM":25.66,"DIS_AV_CMS":5.3850002,"ORD_STRA":3,"ORD_FLOW":6},"geometry":{"type":"LineString","coordinates":[[34.852083333332445,32.01458333333303],[34.843749999999034,32.02291666666634],[34.8395833333324,32.02291666666634],[34.835416666665736,32.027083333333046],[34.83124999999907,32.027083333333046],[34.82708333333241,32.02291666666634],[34.82291666666575,32.027083333333046],[34.818749999999085,32.02291666666634],[34.81458333333242,32.027083333333046]]}},{"type":"Feature","properties":{"HYRIV_ID":20756950,"NEXT_DOWN":20756949,"MAIN_RIV":20755639,"LENGTH_KM":1.5700001,"CATCH_SKM":7.64,"DIS_AV_CMS":4.967,"ORD_STRA":3,"ORD_FLOW":6},"geometry":{"type":"LineString","coordinates":[[34.86874999999907,32.01458333333303],[34.852083333332445,32.01458333333303]]}},{"type":"Feature","properties":{"HYRIV_ID":20756951,"NEXT_DOWN":20756950,"MAIN_RIV":20755639,"LENGTH_KM":1.79,"CATCH_SKM":5.64,"DIS_AV_CMS":0.8,"ORD_STRA":2,"ORD_FLOW":7},"geometry":{"type":"LineString","coordinates":[[34.88541666666572,32.01874999999968],[34.881249999999056,32.01874999999968],[34.87708333333239,32.01458333333303],[34.86874999999907,32.01458333333303]]}},{"type":"Feature","properties":{"HYRIV_ID":20756952,"NEXT_DOWN":20757391,"MAIN_RIV":20755639,"LENGTH_KM":0.98,"CATCH_SKM":12.19,"DIS_AV_CMS":0.086,"ORD_STRA":1,"ORD_FLOW":8},"geometry":{"type":"LineString","coordinates":[[35.016666666665714,32.01458333333303],[35.006249999999056,32.01458333333303]]}},{"type":"Feature","properties":{"HYRIV_ID":20756953,"NEXT_DOWN":20756954,"MAIN_RIV":20765143,"LENGTH_KM":2.2,"CATCH_SKM":13.29,"DIS_AV_CMS":0.008,"ORD_STRA":1,"ORD_FLOW":9},"geometry":{"type":"LineString","coordinates":[[35.4416666666657,32.01458333333303],[35.44791666666569,32.01458333333303],[35.45208333333244,32.01874999999968],[35.4562499999991,32.01874999999968],[35.460416666665765,32.02291666666634]]}},{"type":"Feature","properties":{"HYRIV_ID":20756954,"NEXT_DOWN":20757479,"MAIN_RIV":20765143,"LENGTH_KM":2.3900001,"CATCH_SKM":7.83,"DIS_AV_CMS":0.084,"ORD_STRA":2,"ORD_FLOW":8},"geometry":{"type":"LineString","coordinates":[[35.460416666665765,32.02291666666634],[35.46458333333243,32.01874999999968],[35.46874999999906,32.01874999999968],[35.472916666665725,32.01458333333303],[35.48124999999905,32.01458333333303]]}},{"type":"Feature","properties":{"HYRIV_ID":20756955,"NEXT_DOWN":20756956,"MAIN_RIV":20765143,"LENGTH_KM":3.0,"CATCH_SKM":4.9099998,"DIS_AV_CMS":0.166,"ORD_STRA":2,"ORD_FLOW":7},"geometry":{"type":"LineString","coordinates":[[35.977083333332416,32.027083333333046],[35.98124999999908,32.027083333333046],[35.98958333333238,32.01874999999968],[35.99374999999904,32.01874999999968],[35.9979166666657,32.01458333333303],[36.002083333332365,32.01458333333303]]}},{"type":"Feature","properties":{"HYRIV_ID":20757092,"NEXT_DOWN":20756951,"MAIN_RIV":20755639,"LENGTH_KM":4.1799998,"CATCH_SKM":10.92,"DIS_AV_CMS":0.66100001,"ORD_STRA":2,"ORD_FLOW":7},"geometry":{"type":"LineString","coordinates":[[34.922916666665714,32.00624999999966],[34.91874999999908,32.00624999999966],[34.914583333332416,32.010416666666366],[34.89791666666568,32.010416666666366],[34.8937499999991,32.01458333333303],[34.88958333333238,32.01458333333303],[34.88541666666572,32.01874999999968]]}},{"type":"Feature","properties":{"HYRIV_ID":20757093,"NEXT_DOWN":20757092,"MAIN_RIV":20755639,"LENGTH_KM":3.45,"CATCH_SKM":16.02,"DIS_AV_CMS":0.113,"ORD_STRA":1,"ORD_FLOW":7},"geometry":{"type":"LineString","coordinates":[[34.94999999999908,32.01874999999968],[34.93124999999904,32.01874999999968],[34.92708333333238,32.01458333333303],[34.92708333333238,32.010416666666366],[34.922916666665714,32.00624999999966]]}},{"type":"Feature","properties":{"HYRIV_ID":20757094,"NEXT_DOWN":20757391,"MAIN_RIV":20755639,"LENGTH_KM":1.16,"CATCH_SKM":16.75,"DIS_AV_CMS":0.118,"ORD_STRA":1,"ORD_FLOW":7},"geometry":{"type":"LineString","coordinates":[[35.006249999999056,32.00416666666637],[35.006249999999056,32.01458333333303]]}},{"type":"Feature","properties":{"HYRIV_ID":20757187,"NEXT_DOWN":20756345,"MAIN_RIV":20755639,"LENGTH_KM":13.61,"CATCH_SKM":40.400002,"DIS_AV_CMS":0.672,"ORD_STRA":2,"ORD_FLOW":7},"geometry":{"type":"LineString","coordinates":[[35.23124999999905,32.00208333333304],[35.22708333333239,32.00624999999966],[35.22708333333239,32.010416666666366],[35.222916666665725,32.01458333333303],[35.21874999999906,32.01458333333303],[35.2145833333324,32.01874999999968],[35.20624999999907,32.01874999999968],[35.20208333333244,32.02291666666634],[35.189583333332365,32.02291666666634],[35.18124999999904,32.031249999999694],[35.177083333332405,32.027083333333046],[35.17291666666574,32.027083333333046],[35.16874999999908,32.031249999999694],[35.156249999999005,32.031249999999694],[35.14791666666571,32.03958333333302],[35.143749999999045,32.03541666666636],[35.13958333333238,32.03541666666636],[35.13541666666572,32.03958333333302],[35.13541666666572,32.04374999999967],[35.131249999999056,32.04791666666633],[35.131249999999056,32.05208333333304]]}},{"type":"Feature","properties":{"HYRIV_ID":20757325,"NEXT_DOWN":20756731,"MAIN_RIV":20755639,"LENGTH_KM":4.37,"CATCH_SKM":19.84,"DIS_AV_CMS":0.142,"ORD_STRA":1,"ORD_FLOW":7},"geometry":{"type":"LineString","coordinates":[[34.80208333333238,31.991666666666355],[34.80208333333238,32.00208333333304],[34.80624999999904,32.00624999999966],[34.80624999999904,32.01458333333303],[34.81458333333242,32.02291666666634],[34.81458333333242,32.027083333333046]]}},{"type":"Feature","properties":{"HYRIV_ID":20757326,"NEXT_DOWN":20757187,"MAIN_RIV":20755639,"LENGTH_KM":2.2,"CATCH_SKM":22.76,"DIS_AV_CMS":0.14300001,"ORD_STRA":1,"ORD_FLOW":7},"geometry":{"type":"LineString","coordinates":[[35.24999999999909,31.993749999999686],[35.243749999999096,31.993749999999686],[35.235416666665685,32.00208333333304],[35.23124999999905,32.00208333333304]]}},{"type":"Feature","properties":{"HYRIV_ID":20757327,"NEXT_DOWN":20757669,"MAIN_RIV":20765143,"LENGTH_KM":4.4400001,"CATCH_SKM":25.290001,"DIS_AV_CMS":0.07,"ORD_STRA":1,"ORD_FLOW":8},"geometry":{"type":"LineString","coordinates":[[35.72916666666572,32.02916666666636],[35.735416666665714,32.02291666666634],[35.735416666665714,32.010416666666366],[35.73124999999905,32.00624999999966],[35.73124999999905,31.99791666666635],[35.735416666665714,31.993749999999686]]}},{"type":"Feature","properties":{"HYRIV_ID":20757328,"NEXT_DOWN":20757669,"MAIN_RIV":20765143,"LENGTH_KM":6.6599998,"CATCH_SKM":33.130001,"DIS_AV_CMS":0.085,"ORD_STRA":1,"ORD_FLOW":8},"geometry":{"type":"LineString","coordinates":[[35.77916666666573,32.0124999999997],[35.76874999999907,32.02291666666634],[35.76458333333241,32.02291666666634],[35.76041666666566,32.01874999999968],[35.756249999999,32.01874999999968],[35.7479166666657,32.010416666666366],[35.7479166666657,32.00208333333304],[35.74374999999904,31.99791666666635],[35.73958333333238,31.99791666666635],[35.735416666665714,31.993749999999686]]}},{"type":"Feature","properties":{"HYRIV_ID":20757391,"NEXT_DOWN":20757477,"MAIN_RIV":20755639,"LENGTH_KM":6.54,"CATCH_SKM":15.11,"DIS_AV_CMS":0.31,"ORD_STRA":2,"ORD_FLOW":7},"geometry":{"type":"LineString","coordinates":[[35.006249999999056,32.01458333333303],[35.00208333333239,32.01874999999968],[34.99791666666573,32.01874999999968],[34.993749999999096,32.01458333333303],[34.98541666666577,32.01458333333303],[34.98124999999911,32.010416666666366],[34.97708333333236,32.010416666666366],[34.96874999999906,32.00208333333304],[34.96874999999906,31.993749999999686],[34.9645833333324,31.989583333333023],[34.960416666665736,31.989583333333023]]}},{"type":"Feature","properties":{"HYRIV_ID":20757475,"NEXT_DOWN":20756949,"MAIN_RIV":20755639,"LENGTH_KM":3.82,"CATCH_SKM":7.6500001,"DIS_AV_CMS":0.257,"ORD_STRA":2,"ORD_FLOW":7},"geometry":{"type":"LineString","coordinates":[[34.86041666666577,31.985416666666374],[34.86041666666577,31.989583333333023],[34.852083333332445,31.99791666666635],[34.852083333332445,32.00208333333304],[34.84791666666578,32.00624999999966],[34.84791666666578,32.010416666666366],[34.852083333332445,32.01458333333303]]}},{"type":"Feature","properties":{"HYRIV_ID":20757476,"NEXT_DOWN":20756950,"MAIN_RIV":20755639,"LENGTH_KM":4.5,"CATCH_SKM":8.7399998,"DIS_AV_CMS":4.1230001,"ORD_STRA":3,"ORD_FLOW":6},"geometry":{"type":"LineString","coordinates":[[34.89791666666568,31.985416666666374],[34.8937499999991,31.985416666666374],[34.87708333333239,32.00208333333304],[34.87708333333239,32.00624999999966],[34.86874999999907,32.01458333333303]]}},{"type":"Feature","properties":{"HYRIV_ID":20757477,"NEXT_DOWN":20757092,"MAIN_RIV":20755639,"LENGTH_KM":5.75,"CATCH_SKM":9.4700003,"DIS_AV_CMS":0.473,"ORD_STRA":2,"ORD_FLOW":7},"geometry":{"type":"LineString","coordinates":[[34.960416666665736,31.989583333333023],[34.95624999999907,31.989583333333023],[34.95208333333241,31.985416666666374],[34.94791666666575,31.989583333333023],[34.94374999999903,31.985416666666374],[34.9354166666657,31.985416666666374],[34.93124999999904,31.989583333333023],[34.93124999999904,31.993749999999686],[34.92708333333238,31.99791666666635],[34.92708333333238,32.00208333333304],[34.922916666665714,32.00624999999966]]}},{"type":"Feature","properties":{"HYRIV_ID":20757479,"NEXT_DOWN":20758422,"MAIN_RIV":20765143,"LENGTH_KM":4.21,"CATCH_SKM":8.37,"DIS_AV_CMS":0.118,"ORD_STRA":2,"ORD_FLOW":7},"geometry":{"type":"LineString","coordinates":[[35.48124999999905,32.01458333333303],[35.48958333333238,32.00624999999966],[35.49374999999901,32.00624999999966],[35.497916666665674,32.00208333333304],[35.497916666665674,31.993749999999686],[35.50208333333242,31.989583333333023],[35.50208333333242,31.985416666666374]]}},{"type":"Feature","properties":{"HYRIV_ID":20757480,"NEXT_DOWN":20757547,"MAIN_RIV":20765143,"LENGTH_KM":6.7399998,"CATCH_SKM":20.200001,"DIS_AV_CMS":0.20100001,"ORD_STRA":2,"ORD_FLOW":7},"geometry":{"type":"LineString","coordinates":[[35.56458333333239,32.03958333333302],[35.56458333333239,32.03541666666636],[35.56041666666573,32.031249999999694],[35.56041666666573,32.027083333333046],[35.55624999999907,32.02291666666634],[35.55624999999907,32.01458333333303],[35.54791666666566,32.00624999999966],[35.54791666666566,32.00208333333304],[35.552083333332405,31.99791666666635],[35.552083333332405,31.985416666666374]]}},{"type":"Feature","properties":{"HYRIV_ID":20757481,"NEXT_DOWN":20757547,"MAIN_RIV":20765143,"LENGTH_KM":12.13,"CATCH_SKM":63.16,"DIS_AV_CMS":0.193,"ORD_STRA":1,"ORD_FLOW":7},"geometry":{"type":"LineString","coordinates":[[35.647916666665736,32.033333333333026],[35.647916666665736,32.027083333333046],[35.63541666666575,32.01458333333303],[35.6229166666657,32.01458333333303],[35.61874999999904,32.010416666666366],[35.597916666665725,32.010416666666366],[35.59374999999909,32.00624999999966],[35.58958333333243,32.00624999999966],[35.585416666665765,32.00208333333304],[35.585416666665765,31.99791666666635],[35.577083333332354,31.989583333333023],[35.56041666666573,31.989583333333023],[35.55624999999907,31.985416666666374],[35.552083333332405,31.985416666666374]]}},{"type":"Feature","properties":{"HYRIV_ID":20757544,"NEXT_DOWN":20758068,"MAIN_RIV":20755639,"LENGTH_KM":11.24,"CATCH_SKM":58.630001,"DIS_AV_CMS":0.415,"ORD_STRA":1,"ORD_FLOW":7},"geometry":{"type":"LineString","coordinates":[[35.141666666665714,32.00624999999966],[35.13541666666572,32.00624999999966],[35.12708333333242,31.99791666666635],[35.12291666666576,31.99791666666635],[35.118749999999096,31.993749999999686],[35.11041666666577,31.993749999999686],[35.10624999999902,31.99791666666635],[35.10208333333236,31.99791666666635],[35.097916666665725,31.993749999999686],[35.097916666665725,31.989583333333023],[35.09374999999906,31.985416666666374],[35.085416666665736,31.985416666666374],[35.08124999999907,31.989583333333023],[35.06458333333245,31.989583333333023],[35.05624999999904,31.98124999999971],[35.04791666666574,31.98124999999971]]}},{"type":"Feature","properties":{"HYRIV_ID":20757545,"NEXT_DOWN":20757479,"MAIN_RIV":20765143,"LENGTH_KM":6.8800001,"CATCH_SKM":24.940001,"DIS_AV_CMS":0.016,"ORD_STRA":1,"ORD_FLOW":8},"geometry":{"type":"LineString","coordinates":[[35.429166666665736,31.98124999999971],[35.43958333333239,31.98124999999971],[35.44791666666569,31.989583333333023],[35.44791666666569,31.993749999999686],[35.45208333333244,31.99791666666635],[35.4562499999991,31.99791666666635],[35.460416666665765,32.00208333333304],[35.46458333333243,32.00208333333304],[35.46874999999906,32.00624999999966],[35.472916666665725,32.00624999999966],[35.48124999999905,32.01458333333303]]}},{"type":"Feature","properties":{"HYRIV_ID":20757546,"NEXT_DOWN":20758271,"MAIN_RIV":20765143,"LENGTH_KM":5.21,"CATCH_SKM":15.65,"DIS_AV_CMS":44.653,"ORD_STRA":5,"ORD_FLOW":5},"geometry":{"type":"LineString","coordinates":[[35.52291666666571,32.02291666666634],[35.52291666666571,32.01874999999968],[35.52708333333237,32.01458333333303],[35.52708333333237,32.00208333333304],[35.53958333333236,31.989583333333023],[35.53958333333236,31.98124999999971]]}},{"type":"Feature","properties":{"HYRIV_ID":20757602,"NEXT_DOWN":20757187,"MAIN_RIV":20755639,"LENGTH_KM":3.21,"CATCH_SKM":12.74,"DIS_AV_CMS":0.257,"ORD_STRA":2,"ORD_FLOW":7},"geometry":{"type":"LineString","coordinates":[[35.235416666665685,31.977083333333006],[35.235416666665685,31.98124999999971],[35.22708333333239,31.989583333333023],[35.22708333333239,31.99791666666635],[35.23124999999905,32.00208333333304]]}},{"type":"Feature","properties":{"HYRIV_ID":20757936,"NEXT_DOWN":20756956,"MAIN_RIV":20765143,"LENGTH_KM":8.71,"CATCH_SKM":42.060001,"DIS_AV_CMS":0.406,"ORD_STRA":2,"ORD_FLOW":7},"geometry":{"type":"LineString","coordinates":[[35.95208333333238,31.956249999999677],[35.956249999999045,31.960416666666383],[35.96041666666571,31.960416666666383],[35.96041666666571,31.96458333333303],[35.96458333333234,31.968749999999694],[35.968749999999005,31.968749999999694],[35.97291666666575,31.972916666666357],[35.97291666666575,31.98124999999971],[35.98124999999908,31.989583333333023],[35.98124999999908,31.993749999999686],[36.002083333332365,32.01458333333303]]}}]}