{"type":"FeatureCollection","features":[{"type":"Feature","properties":{"HYRIV_ID":20753935,"NEXT_DOWN":20753588,"MAIN_RIV":20791150,"LENGTH_KM":9.54,"CATCH_SKM":41.77,"DIS_AV_CMS":0.019,"ORD_STRA":1,"ORD_FLOW":8},"geometry":{"type":"LineString","coordinates":[[45.34999999999894,32.199999999999655],[45.35624999999891,32.20624999999969],[45.37708333333231,32.20624999999969],[45.38124999999886,32.202083333332986],[45.38958333333227,32.202083333332986],[45.39374999999893,32.20624999999969],[45.40624999999889,32.20624999999969],[45.410416666665554,32.202083333332986],[45.427083333332206,32.218749999999666],[45.427083333332206,32.22291666666637]]}},{"type":"Feature","properties":{"HYRIV_ID":20754002,"NEXT_DOWN":20754803,"MAIN_RIV":20791150,"LENGTH_KM":0.61,"CATCH_SKM":0.55,"DIS_AV_CMS":702.13202,"ORD_STRA":8,"ORD_FLOW":4},"geometry":{"type":"LineString","coordinates":[[44.356249999998965,32.202083333332986],[44.35208333333222,32.197916666666366]]}},{"type":"Feature","properties":{"HYRIV_ID":20754003,"NEXT_DOWN":20753934,"MAIN_RIV":20791150,"LENGTH_KM":2.9100001,"CATCH_SKM":17.26,"DIS_AV_CMS":0.029,"ORD_STRA":1,"ORD_FLOW":8},"geometry":{"type":"LineString","coordinates":[[44.462499999998926,32.195833333333006],[44.46874999999889,32.202083333332986],[44.472916666665554,32.202083333332986],[44.47708333333222,32.20624999999969],[44.48124999999888,32.20624999999969],[44.48541666666563,32.210416666666355]]}},{"type":"Feature","properties":{"HYRIV_ID":20754004,"NEXT_DOWN":20753871,"MAIN_RIV":20791150,"LENGTH_KM":2.9100001,"CATCH_SKM":27.98,"DIS_AV_CMS":0.009,"ORD_STRA":1,"ORD_FLOW":9},"geometry":{"type":"LineString","coordinates":[[45.82916666666557,32.195833333333006],[45.835416666665566,32.202083333332986],[45.83958333333223,32.202083333332986],[45.84374999999889,32.20624999999969],[45.847916666665554,32.20624999999969],[45.85208333333219,32.210416666666355]]}},{"type":"Feature","properties":{"HYRIV_ID":20754067,"NEXT_DOWN":20754803,"MAIN_RIV":20791150,"LENGTH_KM":16.73,"CATCH_SKM":73.019997,"DIS_AV_CMS":0.223,"ORD_STRA":2,"ORD_FLOW":7},"geometry":{"type":"LineString","coordinates":[[44.2062499999989,32.20624999999969],[44.21458333333223,32.197916666666366],[44.22708333333222,32.197916666666366],[44.23124999999894,32.193749999999675],[44.23958333333226,32.193749999999675],[44.243749999998926,32.197916666666366],[44.24791666666559,32.197916666666366],[44.25208333333225,32.202083333332986],[44.2645833333323,32.202083333332986],[44.26874999999896,32.20624999999969],[44.27291666666562,32.202083333332986],[44.28541666666558,32.202083333332986],[44.29374999999891,32.210416666666355],[44.29791666666557,32.20624999999969],[44.3062499999989,32.20624999999969],[44.31041666666553,32.202083333332986],[44.314583333332195,32.202083333332986],[44.31874999999894,32.197916666666366],[44.33124999999893,32.197916666666366],[44.335416666665566,32.202083333332986],[44.347916666665554,32.202083333332986],[44.35208333333222,32.197916666666366]]}},{"type":"Feature","properties":{"HYRIV_ID":20754068,"NEXT_DOWN":20753937,"MAIN_RIV":20791150,"LENGTH_KM":2.59,"CATCH_SKM":19.440001,"DIS_AV_CMS":0.001,"ORD_STRA":1,"ORD_FLOW":9},"geometry":{"type":"LineString","coordinates":[[45.674999999998875,32.193749999999675],[45.664583333332246,32.193749999999675],[45.66041666666558,32.197916666666366],[45.65624999999892,32.197916666666366],[45.65208333333226,32.202083333332986]]}},{"type":"Feature","properties":{"HYRIV_ID":20754137,"NEXT_DOWN":20754494,"MAIN_RIV":20791150,"LENGTH_KM":4.0300002,"CATCH_SKM":20.34,"DIS_AV_CMS":1.737,"ORD_STRA":4,"ORD_FLOW":6},"geometry":{"type":"LineString","coordinates":[[45.552083333332206,32.214583333333],[45.564583333332166,32.202083333332986],[45.568749999998914,32.202083333332986],[45.5812499999989,32.18958333333301]]}},{"type":"Feature","properties":{"HYRIV_ID":20754196,"NEXT_DOWN":20754583,"MAIN_RIV":20791150,"LENGTH_KM":2.1400001,"CATCH_SKM":2.9100001,"DIS_AV_CMS":0.054,"ORD_STRA":2,"ORD_FLOW":8},"geometry":{"type":"LineString","coordinates":[[44.48541666666563,32.18541666666635],[44.48541666666563,32.193749999999675],[44.493749999998926,32.202083333332986]]}},{"type":"Feature","properties":{"HYRIV_ID":20754197,"NEXT_DOWN":20754493,"MAIN_RIV":20791150,"LENGTH_KM":8.5299997,"CATCH_SKM":35.23,"DIS_AV_CMS":1.698,"ORD_STRA":4,"ORD_FLOW":6},"geometry":{"type":"LineString","coordinates":[[44.80208333333226,32.235416666666346],[44.7979166666656,32.235416666666346],[44.79374999999894,32.23124999999968],[44.79374999999894,32.22708333333302],[44.789583333332274,32.22291666666637],[44.789583333332274,32.214583333333],[44.80208333333226,32.202083333332986],[44.80208333333226,32.193749999999675],[44.7979166666656,32.18958333333301],[44.80208333333226,32.18541666666635],[44.818749999998886,32.18541666666635]]}},{"type":"Feature","properties":{"HYRIV_ID":20754198,"NEXT_DOWN":20754493,"MAIN_RIV":20791150,"LENGTH_KM":2.73,"CATCH_SKM":25.25,"DIS_AV_CMS":0.021,"ORD_STRA":1,"ORD_FLOW":8},"geometry":{"type":"LineString","coordinates":[[44.83333333333218,32.202083333332986],[44.82708333333221,32.202083333332986],[44.82291666666555,32.197916666666366],[44.82291666666555,32.193749999999675],[44.818749999998886,32.18958333333301],[44.818749999998886,32.18541666666635]]}},{"type":"Feature","properties":{"HYRIV_ID":20754292,"NEXT_DOWN":20754196,"MAIN_RIV":20791150,"LENGTH_KM":0.91,"CATCH_SKM":10.72,"DIS_AV_CMS":0.015,"ORD_STRA":1,"ORD_FLOW":8},"geometry":{"type":"LineString","coordinates":[[44.491666666665594,32.179166666666326],[44.48541666666563,32.18541666666635]]}},{"type":"Feature","properties":{"HYRIV_ID":20754293,"NEXT_DOWN":20754137,"MAIN_RIV":20791150,"LENGTH_KM":6.83,"CATCH_SKM":25.8,"DIS_AV_CMS":0.003,"ORD_STRA":1,"ORD_FLOW":9},"geometry":{"type":"LineString","coordinates":[[45.49999999999889,32.18541666666635],[45.51041666666552,32.18541666666635],[45.51458333333218,32.1812499999997],[45.51874999999893,32.18541666666635],[45.522916666665594,32.18541666666635],[45.552083333332206,32.214583333333]]}},{"type":"Feature","properties":{"HYRIV_ID":20754294,"NEXT_DOWN":20755295,"MAIN_RIV":20791150,"LENGTH_KM":4.2800002,"CATCH_SKM":20.889999,"DIS_AV_CMS":1.425,"ORD_STRA":4,"ORD_FLOW":6},"geometry":{"type":"LineString","coordinates":[[45.99791666666559,32.20624999999969],[45.99791666666559,32.202083333332986],[46.00208333333225,32.197916666666366],[46.006249999998886,32.197916666666366],[46.01458333333221,32.18958333333301],[46.018749999998875,32.18958333333301],[46.0270833333322,32.1812499999997]]}},{"type":"Feature","properties":{"HYRIV_ID":20754379,"NEXT_DOWN":20754196,"MAIN_RIV":20791150,"LENGTH_KM":1.6900001,"CATCH_SKM":21.08,"DIS_AV_CMS":0.035,"ORD_STRA":1,"ORD_FLOW":8},"geometry":{"type":"LineString","coordinates":[[44.47708333333222,32.17499999999966],[44.47708333333222,32.1812499999997],[44.48124999999888,32.18541666666635],[44.48541666666563,32.18541666666635]]}},{"type":"Feature","properties":{"HYRIV_ID":20754442,"NEXT_DOWN":20755014,"MAIN_RIV":20791150,"LENGTH_KM":2.52,"CATCH_SKM":16.889999,"DIS_AV_CMS":0.01,"ORD_STRA":1,"ORD_FLOW":8},"geometry":{"type":"LineString","coordinates":[[44.94583333333222,32.18749999999968],[44.96041666666554,32.17291666666633],[44.96458333333226,32.17291666666633]]}},{"type":"Feature","properties":{"HYRIV_ID":20754489,"NEXT_DOWN":20754002,"MAIN_RIV":20791150,"LENGTH_KM":5.2600002,"CATCH_SKM":30.16,"DIS_AV_CMS":0.064,"ORD_STRA":1,"ORD_FLOW":8},"geometry":{"type":"LineString","coordinates":[[44.383333333332246,32.16874999999968],[44.37708333333225,32.16874999999968],[44.37291666666559,32.17291666666633],[44.37291666666559,32.17708333333304],[44.36458333333226,32.18541666666635],[44.36458333333226,32.197916666666366],[44.36041666666563,32.202083333332986],[44.356249999998965,32.202083333332986]]}},{"type":"Feature","properties":{"HYRIV_ID":20754490,"NEXT_DOWN":20754658,"MAIN_RIV":20791150,"LENGTH_KM":4.6300001,"CATCH_SKM":19.07,"DIS_AV_CMS":0.13500001,"ORD_STRA":2,"ORD_FLOW":7},"geometry":{"type":"LineString","coordinates":[[44.70624999999893,32.210416666666355],[44.70624999999893,32.16874999999968]]}},{"type":"Feature","properties":{"HYRIV_ID":20754491,"NEXT_DOWN":20754658,"MAIN_RIV":20791150,"LENGTH_KM":4.0500002,"CATCH_SKM":19.98,"DIS_AV_CMS":0.017,"ORD_STRA":1,"ORD_FLOW":8},"geometry":{"type":"LineString","coordinates":[[44.737499999998875,32.18541666666635],[44.73124999999888,32.18541666666635],[44.72708333333222,32.1812499999997],[44.72708333333222,32.17708333333304],[44.72291666666558,32.17291666666633],[44.71458333333226,32.17291666666633],[44.710416666665594,32.16874999999968],[44.70624999999893,32.16874999999968]]}},{"type":"Feature","properties":{"HYRIV_ID":20754492,"NEXT_DOWN":20755420,"MAIN_RIV":20791150,"LENGTH_KM":0.59,"CATCH_SKM":10.9,"DIS_AV_CMS":0.01,"ORD_STRA":1,"ORD_FLOW":8},"geometry":{"type":"LineString","coordinates":[[44.81249999999889,32.16874999999968],[44.818749999998886,32.16874999999968]]}},{"type":"Feature","properties":{"HYRIV_ID":20754493,"NEXT_DOWN":20755420,"MAIN_RIV":20791150,"LENGTH_KM":2.1400001,"CATCH_SKM":6.7199998,"DIS_AV_CMS":1.725,"ORD_STRA":4,"ORD_FLOW":6},"geometry":{"type":"LineString","coordinates":[[44.818749999998886,32.18541666666635],[44.82291666666555,32.1812499999997],[44.82291666666555,32.17708333333304],[44.818749999998886,32.17291666666633],[44.818749999998886,32.16874999999968]]}},{"type":"Feature","properties":{"HYRIV_ID":20754494,"NEXT_DOWN":20754883,"MAIN_RIV":20791150,"LENGTH_KM":3.04,"CATCH_SKM":21.25,"DIS_AV_CMS":1.765,"ORD_STRA":4,"ORD_FLOW":6},"geometry":{"type":"LineString","coordinates":[[45.5812499999989,32.18958333333301],[45.602083333332274,32.16874999999968]]}},{"type":"Feature","properties":{"HYRIV_ID":20754495,"NEXT_DOWN":20754883,"MAIN_RIV":20791150,"LENGTH_KM":6.2800002,"CATCH_SKM":19.07,"DIS_AV_CMS":0.117,"ORD_STRA":3,"ORD_FLOW":7},"geometry":{"type":"LineString","coordinates":[[45.647916666665594,32.202083333332986],[45.647916666665594,32.197916666666366],[45.63958333333221,32.18958333333301],[45.631249999998886,32.18958333333301],[45.62708333333222,32.18541666666635],[45.62291666666556,32.18541666666635],[45.60624999999894,32.16874999999968],[45.602083333332274,32.16874999999968]]}},{"type":"Feature","properties":{"HYRIV_ID":20754582,"NEXT_DOWN":20753932,"MAIN_RIV":20791150,"LENGTH_KM":20.6,"CATCH_SKM":65.400002,"DIS_AV_CMS":0.059,"ORD_STRA":1,"ORD_FLOW":8},"geometry":{"type":"LineString","coordinates":[[43.96666666666556,32.16458333333302],[43.972916666665526,32.16458333333302],[43.977083333332274,32.16874999999968],[43.977083333332274,32.17291666666633],[43.98124999999894,32.17291666666633],[43.98958333333226,32.1812499999997],[43.993749999998926,32.1812499999997],[43.99791666666556,32.17708333333304],[44.00208333333222,32.1812499999997],[44.006249999998886,32.1812499999997],[44.01874999999896,32.193749999999675],[44.039583333332246,32.193749999999675],[44.04791666666557,32.202083333332986],[44.052083333332206,32.202083333332986],[44.056249999998954,32.20624999999969],[44.07708333333224,32.20624999999969],[44.0812499999989,32.210416666666355],[44.085416666665566,32.20624999999969],[44.08958333333223,32.20624999999969],[44.09374999999889,32.202083333332986],[44.097916666665554,32.202083333332986],[44.102083333332274,32.20624999999969],[44.1104166666656,32.20624999999969],[44.11458333333226,32.202083333332986],[44.12708333333222,32.202083333332986],[44.131249999998886,32.20624999999969],[44.135416666665634,32.202083333332986],[44.1395833333323,32.202083333332986]]}},{"type":"Feature","properties":{"HYRIV_ID":20754583,"NEXT_DOWN":20754879,"MAIN_RIV":20791150,"LENGTH_KM":7.0300002,"CATCH_SKM":39.599998,"DIS_AV_CMS":0.51099998,"ORD_STRA":3,"ORD_FLOW":7},"geometry":{"type":"LineString","coordinates":[[44.493749999998926,32.202083333332986],[44.50208333333225,32.193749999999675],[44.506249999998914,32.193749999999675],[44.51458333333224,32.18541666666635],[44.518749999998875,32.18541666666635],[44.52291666666554,32.1812499999997],[44.527083333332286,32.1812499999997],[44.539583333332274,32.16874999999968],[44.54374999999891,32.16874999999968],[44.54791666666557,32.16458333333302]]}},{"type":"Feature","properties":{"HYRIV_ID":20754584,"NEXT_DOWN":20753588,"MAIN_RIV":20791150,"LENGTH_KM":9.04,"CATCH_SKM":57.959999,"DIS_AV_CMS":0.024,"ORD_STRA":1,"ORD_FLOW":8},"geometry":{"type":"LineString","coordinates":[[45.399999999998926,32.16874999999968],[45.40624999999889,32.16874999999968],[45.410416666665554,32.16458333333302],[45.41874999999888,32.17291666666633],[45.427083333332206,32.17291666666633],[45.43124999999884,32.17708333333304],[45.43124999999884,32.218749999999666],[45.427083333332206,32.22291666666637]]}},{"type":"Feature","properties":{"HYRIV_ID":20754657,"NEXT_DOWN":20753932,"MAIN_RIV":20791150,"LENGTH_KM":15.18,"CATCH_SKM":53.790001,"DIS_AV_CMS":0.058,"ORD_STRA":1,"ORD_FLOW":8},"geometry":{"type":"LineString","coordinates":[[44.01666666666563,32.15833333333304],[44.022916666665594,32.16458333333302],[44.02708333333226,32.16041666666636],[44.039583333332246,32.16041666666636],[44.04374999999891,32.16458333333302],[44.04791666666557,32.16458333333302],[44.052083333332206,32.16874999999968],[44.07708333333224,32.16874999999968],[44.0812499999989,32.17291666666633],[44.085416666665566,32.17291666666633],[44.097916666665554,32.18541666666635],[44.102083333332274,32.18541666666635],[44.10624999999894,32.1812499999997],[44.1104166666656,32.1812499999997],[44.11458333333226,32.18541666666635],[44.11458333333226,32.18958333333301],[44.118749999998926,32.193749999999675],[44.135416666665634,32.193749999999675],[44.1395833333323,32.197916666666366],[44.1395833333323,32.202083333332986]]}},{"type":"Feature","properties":{"HYRIV_ID":20754658,"NEXT_DOWN":20755359,"MAIN_RIV":20791150,"LENGTH_KM":1.0700001,"CATCH_SKM":2.36,"DIS_AV_CMS":0.155,"ORD_STRA":2,"ORD_FLOW":7},"geometry":{"type":"LineString","coordinates":[[44.70624999999893,32.16874999999968],[44.70624999999893,32.16458333333302],[44.70208333333218,32.16041666666636]]}},{"type":"Feature","properties":{"HYRIV_ID":20754727,"NEXT_DOWN":20755359,"MAIN_RIV":20791150,"LENGTH_KM":1.3,"CATCH_SKM":11.45,"DIS_AV_CMS":0.01,"ORD_STRA":1,"ORD_FLOW":8},"geometry":{"type":"LineString","coordinates":[[44.712499999998926,32.15416666666638],[44.70624999999893,32.16041666666636],[44.70208333333218,32.16041666666636]]}},{"type":"Feature","properties":{"HYRIV_ID":20754800,"NEXT_DOWN":20754801,"MAIN_RIV":20791150,"LENGTH_KM":11.61,"CATCH_SKM":33.080002,"DIS_AV_CMS":0.012,"ORD_STRA":1,"ORD_FLOW":8},"geometry":{"type":"LineString","coordinates":[[44.16666666666558,32.15416666666638],[44.17291666666557,32.16041666666636],[44.21874999999889,32.16041666666636],[44.222916666665554,32.15624999999971],[44.23124999999894,32.16458333333302],[44.23958333333226,32.16458333333302],[44.243749999998926,32.16041666666636],[44.2645833333323,32.16041666666636],[44.27291666666562,32.152083333333]]}},{"type":"Feature","properties":{"HYRIV_ID":20754801,"NEXT_DOWN":20754802,"MAIN_RIV":20791150,"LENGTH_KM":5.39,"CATCH_SKM":13.99,"DIS_AV_CMS":0.052,"ORD_STRA":2,"ORD_FLOW":8},"geometry":{"type":"LineString","coordinates":[[44.27291666666562,32.152083333333],[44.277083333332286,32.152083333333],[44.28124999999895,32.15624999999971],[44.28541666666558,32.152083333333],[44.289583333332246,32.15624999999971],[44.29791666666557,32.15624999999971],[44.3062499999989,32.16458333333302],[44.31874999999894,32.16458333333302]]}},{"type":"Feature","properties":{"HYRIV_ID":20754802,"NEXT_DOWN":20755289,"MAIN_RIV":20791150,"LENGTH_KM":4.5700002,"CATCH_SKM":7.6300001,"DIS_AV_CMS":0.156,"ORD_STRA":2,"ORD_FLOW":7},"geometry":{"type":"LineString","coordinates":[[44.31874999999894,32.16458333333302],[44.335416666665566,32.16458333333302],[44.33958333333223,32.16041666666636],[44.34374999999889,32.16041666666636],[44.35208333333222,32.152083333333],[44.36041666666563,32.152083333333]]}},{"type":"Feature","properties":{"HYRIV_ID":20754803,"NEXT_DOWN":20755289,"MAIN_RIV":20791150,"LENGTH_KM":5.6700001,"CATCH_SKM":11.08,"DIS_AV_CMS":702.93402,"ORD_STRA":8,"ORD_FLOW":4},"geometry":{"type":"LineString","coordinates":[[44.35208333333222,32.197916666666366],[44.35208333333222,32.193749999999675],[44.347916666665554,32.18958333333301],[44.347916666665554,32.1812499999997],[44.35208333333222,32.17708333333304],[44.35208333333222,32.17291666666633],[44.356249999998965,32.16874999999968],[44.356249999998965,32.16041666666636],[44.36041666666563,32.15624999999971],[44.36041666666563,32.152083333333]]}},{"type":"Feature","properties":{"HYRIV_ID":20754879,"NEXT_DOWN":20755011,"MAIN_RIV":20791150,"LENGTH_KM":3.21,"CATCH_SKM":25.98,"DIS_AV_CMS":0.57099998,"ORD_STRA":3,"ORD_FLOW":7},"geometry":{"type":"LineString","coordinates":[[44.54791666666557,32.16458333333302],[44.552083333332234,32.16041666666636],[44.56041666666556,32.16041666666636],[44.57291666666552,32.14791666666634]]}},{"type":"Feature","properties":{"HYRIV_ID":20754880,"NEXT_DOWN":20755014,"MAIN_RIV":20791150,"LENGTH_KM":9.7200003,"CATCH_SKM":44.150002,"DIS_AV_CMS":0.029,"ORD_STRA":1,"ORD_FLOW":8},"geometry":{"type":"LineString","coordinates":[[44.8999999999989,32.179166666666326],[44.90624999999889,32.17291666666633],[44.910416666665526,32.17291666666633],[44.931249999998926,32.152083333333],[44.943749999998886,32.152083333333],[44.94791666666555,32.14791666666634],[44.95208333333221,32.14791666666634],[44.96041666666554,32.15624999999971],[44.96041666666554,32.16458333333302],[44.96458333333226,32.16874999999968],[44.96458333333226,32.17291666666633]]}},{"type":"Feature","properties":{"HYRIV_ID":20754881,"NEXT_DOWN":20754882,"MAIN_RIV":20791150,"LENGTH_KM":2.1300001,"CATCH_SKM":13.08,"DIS_AV_CMS":0.003,"ORD_STRA":1,"ORD_FLOW":9},"geometry":{"type":"LineString","coordinates":[[45.5166666666656,32.16249999999969],[45.53124999999892,32.14791666666634]]}},{"type":"Feature","properties":{"HYRIV_ID":20754882,"NEXT_DOWN":20754494,"MAIN_RIV":20791150,"LENGTH_KM":7.1,"CATCH_SKM":21.809999,"DIS_AV_CMS":0.027,"ORD_STRA":2,"ORD_FLOW":8},"geometry":{"type":"LineString","coordinates":[[45.53124999999892,32.14791666666634],[45.54374999999888,32.16041666666636],[45.54374999999888,32.16458333333302],[45.552083333332206,32.17291666666633],[45.56041666666553,32.17291666666633],[45.568749999998914,32.1812499999997],[45.57291666666558,32.1812499999997],[45.5812499999989,32.18958333333301]]}},{"type":"Feature","properties":{"HYRIV_ID":20754883,"NEXT_DOWN":20755229,"MAIN_RIV":20791150,"LENGTH_KM":3.04,"CATCH_SKM":15.26,"DIS_AV_CMS":1.886,"ORD_STRA":4,"ORD_FLOW":6},"geometry":{"type":"LineString","coordinates":[[45.602083333332274,32.16874999999968],[45.62291666666556,32.14791666666634]]}},{"type":"Feature","properties":{"HYRIV_ID":20754884,"NEXT_DOWN":20753728,"MAIN_RIV":20791150,"LENGTH_KM":16.65,"CATCH_SKM":83.040001,"DIS_AV_CMS":0.052,"ORD_STRA":1,"ORD_FLOW":8},"geometry":{"type":"LineString","coordinates":[[45.833333333332234,32.15624999999971],[45.83958333333223,32.15624999999971],[45.84374999999889,32.152083333333],[45.847916666665554,32.152083333333],[45.85208333333219,32.14791666666634],[45.8604166666656,32.14791666666634],[45.86458333333226,32.152083333333],[45.87291666666559,32.152083333333],[45.881249999998886,32.16041666666636],[45.88541666666555,32.16041666666636],[45.89791666666554,32.17291666666633],[45.90208333333217,32.17291666666633],[45.93541666666553,32.20624999999969],[45.93541666666553,32.210416666666355],[45.939583333332195,32.214583333333],[45.94374999999886,32.214583333333],[45.947916666665606,32.218749999999666],[45.947916666665606,32.22291666666637],[45.95208333333224,32.22708333333302],[45.95208333333224,32.23124999999968]]}},{"type":"Feature","properties":{"HYRIV_ID":20754956,"NEXT_DOWN":20754801,"MAIN_RIV":20791150,"LENGTH_KM":4.0,"CATCH_SKM":6.3600001,"DIS_AV_CMS":0.025,"ORD_STRA":2,"ORD_FLOW":8},"geometry":{"type":"LineString","coordinates":[[44.23958333333226,32.14374999999969],[44.243749999998926,32.14791666666634],[44.24791666666559,32.14791666666634],[44.25208333333225,32.14374999999969],[44.256249999998914,32.14791666666634],[44.2645833333323,32.14791666666634],[44.26874999999896,32.152083333333],[44.27291666666562,32.152083333333]]}},{"type":"Feature","properties":{"HYRIV_ID":20755009,"NEXT_DOWN":20754956,"MAIN_RIV":20791150,"LENGTH_KM":8.29,"CATCH_SKM":48.540001,"DIS_AV_CMS":0.015,"ORD_STRA":1,"ORD_FLOW":8},"geometry":{"type":"LineString","coordinates":[[44.15833333333225,32.13958333333303],[44.177083333332234,32.13958333333303],[44.18124999999887,32.14374999999969],[44.20208333333227,32.14374999999969],[44.2062499999989,32.13958333333303],[44.22708333333222,32.13958333333303],[44.23124999999894,32.14374999999969],[44.23958333333226,32.14374999999969]]}},{"type":"Feature","properties":{"HYRIV_ID":20755010,"NEXT_DOWN":20754879,"MAIN_RIV":20791150,"LENGTH_KM":4.3,"CATCH_SKM":22.360001,"DIS_AV_CMS":0.028,"ORD_STRA":1,"ORD_FLOW":8},"geometry":{"type":"LineString","coordinates":[[44.524999999998954,32.1374999999997],[44.53124999999895,32.14374999999969],[44.53124999999895,32.14791666666634],[44.53541666666561,32.14791666666634],[44.539583333332274,32.152083333333],[44.539583333332274,32.15624999999971],[44.54374999999891,32.16041666666636],[44.54374999999891,32.16458333333302],[44.54791666666557,32.16458333333302]]}},{"type":"Feature","properties":{"HYRIV_ID":20755011,"NEXT_DOWN":20755012,"MAIN_RIV":20791150,"LENGTH_KM":3.57,"CATCH_SKM":20.540001,"DIS_AV_CMS":0.60600001,"ORD_STRA":3,"ORD_FLOW":7},"geometry":{"type":"LineString","coordinates":[[44.57291666666552,32.14791666666634],[44.57708333333227,32.14791666666634],[44.58124999999893,32.14374999999969],[44.58958333333226,32.14374999999969],[44.59374999999892,32.13958333333303],[44.60624999999888,32.13958333333303]]}},{"type":"Feature","properties":{"HYRIV_ID":20755012,"NEXT_DOWN":20755079,"MAIN_RIV":20791150,"LENGTH_KM":1.96,"CATCH_SKM":6.1799998,"DIS_AV_CMS":0.64200002,"ORD_STRA":3,"ORD_FLOW":7},"geometry":{"type":"LineString","coordinates":[[44.60624999999888,32.13958333333303],[44.62708333333225,32.13958333333303]]}},{"type":"Feature","properties":{"HYRIV_ID":20755013,"NEXT_DOWN":20755079,"MAIN_RIV":20791150,"LENGTH_KM":7.8400002,"CATCH_SKM":19.8,"DIS_AV_CMS":0.154,"ORD_STRA":2,"ORD_FLOW":7},"geometry":{"type":"LineString","coordinates":[[44.62291666666559,32.20624999999969],[44.62291666666559,32.197916666666366],[44.62708333333225,32.193749999999675],[44.62708333333225,32.18541666666635],[44.62291666666559,32.1812499999997],[44.62291666666559,32.16041666666636],[44.62708333333225,32.15624999999971],[44.62708333333225,32.13958333333303]]}},{"type":"Feature","properties":{"HYRIV_ID":20755014,"NEXT_DOWN":20755291,"MAIN_RIV":20791150,"LENGTH_KM":10.31,"CATCH_SKM":44.700001,"DIS_AV_CMS":0.065,"ORD_STRA":2,"ORD_FLOW":8},"geometry":{"type":"LineString","coordinates":[[44.96458333333226,32.17291666666633],[44.97291666666558,32.1812499999997],[44.977083333332246,32.1812499999997],[44.98124999999891,32.17708333333304],[44.98541666666557,32.1812499999997],[44.989583333332206,32.17708333333304],[45.00624999999894,32.17708333333304],[45.03124999999889,32.152083333333],[45.03124999999889,32.14791666666634],[45.03958333333222,32.13958333333303]]}},{"type":"Feature","properties":{"HYRIV_ID":20755077,"NEXT_DOWN":20754067,"MAIN_RIV":20791150,"LENGTH_KM":17.76,"CATCH_SKM":65.239998,"DIS_AV_CMS":0.042,"ORD_STRA":1,"ORD_FLOW":8},"geometry":{"type":"LineString","coordinates":[[44.07916666666557,32.13333333333299],[44.085416666665566,32.13958333333303],[44.085416666665566,32.14374999999969],[44.08958333333223,32.14374999999969],[44.09374999999889,32.13958333333303],[44.1104166666656,32.15624999999971],[44.11458333333226,32.15624999999971],[44.118749999998926,32.152083333333],[44.12291666666559,32.152083333333],[44.14374999999896,32.17291666666633],[44.14374999999896,32.17708333333304],[44.16041666666558,32.17708333333304],[44.164583333332246,32.17291666666633],[44.177083333332234,32.18541666666635],[44.18541666666562,32.18541666666635],[44.19374999999894,32.193749999999675],[44.197916666665606,32.193749999999675],[44.2062499999989,32.202083333332986],[44.2062499999989,32.20624999999969]]}},{"type":"Feature","properties":{"HYRIV_ID":20755078,"NEXT_DOWN":20755011,"MAIN_RIV":20791150,"LENGTH_KM":1.62,"CATCH_SKM":10.55,"DIS_AV_CMS":0.012,"ORD_STRA":1,"ORD_FLOW":8},"geometry":{"type":"LineString","coordinates":[[44.57291666666552,32.13333333333299],[44.57291666666552,32.14791666666634]]}},{"type":"Feature","properties":{"HYRIV_ID":20755079,"NEXT_DOWN":20755290,"MAIN_RIV":20791150,"LENGTH_KM":1.78,"CATCH_SKM":7.0900002,"DIS_AV_CMS":0.80400002,"ORD_STRA":3,"ORD_FLOW":7},"geometry":{"type":"LineString","coordinates":[[44.62708333333225,32.13958333333303],[44.63541666666558,32.13958333333303],[44.63958333333224,32.13541666666632],[44.6437499999989,32.13541666666632]]}},{"type":"Feature","properties":{"HYRIV_ID":20755080,"NEXT_DOWN":20755290,"MAIN_RIV":20791150,"LENGTH_KM":4.9099998,"CATCH_SKM":22.35,"DIS_AV_CMS":0.02,"ORD_STRA":1,"ORD_FLOW":8},"geometry":{"type":"LineString","coordinates":[[44.65833333333228,32.17499999999966],[44.6520833333322,32.16874999999968],[44.6520833333322,32.14791666666634],[44.647916666665566,32.14374999999969],[44.647916666665566,32.13958333333303],[44.6437499999989,32.13541666666632]]}},{"type":"Feature","properties":{"HYRIV_ID":20755081,"NEXT_DOWN":20753872,"MAIN_RIV":20791150,"LENGTH_KM":11.78,"CATCH_SKM":29.26,"DIS_AV_CMS":0.037,"ORD_STRA":2,"ORD_FLOW":8},"geometry":{"type":"LineString","coordinates":[[45.91874999999891,32.13541666666632],[45.92291666666557,32.13958333333303],[45.92291666666557,32.14374999999969],[45.93124999999887,32.152083333333],[45.93124999999887,32.15624999999971],[45.939583333332195,32.16458333333302],[45.947916666665606,32.16458333333302],[45.96458333333223,32.1812499999997],[45.96874999999889,32.1812499999997],[45.972916666665554,32.18541666666635],[45.972916666665554,32.18958333333301],[45.98124999999885,32.197916666666366],[45.98124999999885,32.202083333332986],[45.9854166666656,32.20624999999969],[45.9854166666656,32.210416666666355],[45.98958333333226,32.210416666666355]]}},{"type":"Feature","properties":{"HYRIV_ID":20755166,"NEXT_DOWN":20754802,"MAIN_RIV":20791150,"LENGTH_KM":4.5100002,"CATCH_SKM":18.360001,"DIS_AV_CMS":0.025,"ORD_STRA":1,"ORD_FLOW":8},"geometry":{"type":"LineString","coordinates":[[44.302083333332234,32.129166666666386],[44.302083333332234,32.13541666666632],[44.31041666666553,32.14374999999969],[44.31041666666553,32.152083333333],[44.31874999999894,32.16041666666636],[44.31874999999894,32.16458333333302]]}},{"type":"Feature","properties":{"HYRIV_ID":20755167,"NEXT_DOWN":20755081,"MAIN_RIV":20791150,"LENGTH_KM":0.91,"CATCH_SKM":10.36,"DIS_AV_CMS":0.006,"ORD_STRA":1,"ORD_FLOW":9},"geometry":{"type":"LineString","coordinates":[[45.912499999998914,32.129166666666386],[45.91874999999891,32.13541666666632]]}},{"type":"Feature","properties":{"HYRIV_ID":20755226,"NEXT_DOWN":20755291,"MAIN_RIV":20791150,"LENGTH_KM":4.4400001,"CATCH_SKM":26.360001,"DIS_AV_CMS":0.013,"ORD_STRA":1,"ORD_FLOW":8},"geometry":{"type":"LineString","coordinates":[[45.00416666666561,32.131249999999675],[45.010416666665606,32.131249999999675],[45.01458333333224,32.12708333333301],[45.02708333333223,32.12708333333301],[45.03124999999889,32.131249999999675],[45.035416666665554,32.131249999999675],[45.03958333333222,32.13541666666632],[45.03958333333222,32.13958333333303]]}},{"type":"Feature","properties":{"HYRIV_ID":20755227,"NEXT_DOWN":20755228,"MAIN_RIV":20791150,"LENGTH_KM":2.77,"CATCH_SKM":20.9,"DIS_AV_CMS":0.009,"ORD_STRA":1,"ORD_FLOW":9},"geometry":{"type":"LineString","coordinates":[[45.46666666666553,32.131249999999675],[45.47291666666561,32.131249999999675],[45.477083333332274,32.12708333333301],[45.4937499999989,32.12708333333301]]}},{"type":"Feature","properties":{"HYRIV_ID":20755228,"NEXT_DOWN":20754882,"MAIN_RIV":20791150,"LENGTH_KM":4.6100001,"CATCH_SKM":15.09,"DIS_AV_CMS":0.019,"ORD_STRA":2,"ORD_FLOW":8},"geometry":{"type":"LineString","coordinates":[[45.4937499999989,32.12708333333301],[45.49791666666556,32.131249999999675],[45.506249999998886,32.131249999999675],[45.51041666666552,32.13541666666632],[45.51458333333218,32.13541666666632],[45.51874999999893,32.13958333333303],[45.522916666665594,32.13958333333303],[45.53124999999892,32.14791666666634]]}},{"type":"Feature","properties":{"HYRIV_ID":20755229,"NEXT_DOWN":20755422,"MAIN_RIV":20791150,"LENGTH_KM":3.04,"CATCH_SKM":14.54,"DIS_AV_CMS":1.904,"ORD_STRA":4,"ORD_FLOW":6},"geometry":{"type":"LineString","coordinates":[[45.62291666666556,32.14791666666634],[45.643749999998846,32.12708333333301]]}},{"type":"Feature","properties":{"HYRIV_ID":20755230,"NEXT_DOWN":20755081,"MAIN_RIV":20791150,"LENGTH_KM":1.16,"CATCH_SKM":12.73,"DIS_AV_CMS":0.008,"ORD_STRA":1,"ORD_FLOW":9},"geometry":{"type":"LineString","coordinates":[[45.91874999999891,32.12499999999968],[45.91874999999891,32.13541666666632]]}},{"type":"Feature","properties":{"HYRIV_ID":20755289,"NEXT_DOWN":20755786,"MAIN_RIV":20791150,"LENGTH_KM":3.3900001,"CATCH_SKM":5.6300001,"DIS_AV_CMS":703.35699,"ORD_STRA":8,"ORD_FLOW":4},"geometry":{"type":"LineString","coordinates":[[44.36041666666563,32.152083333333],[44.36041666666563,32.131249999999675],[44.356249999998965,32.12708333333301],[44.356249999998965,32.12291666666635]]}},{"type":"Feature","properties":{"HYRIV_ID":20755290,"NEXT_DOWN":20755358,"MAIN_RIV":20791150,"LENGTH_KM":3.3900001,"CATCH_SKM":19.27,"DIS_AV_CMS":0.84399998,"ORD_STRA":3,"ORD_FLOW":7},"geometry":{"type":"LineString","coordinates":[[44.6437499999989,32.13541666666632],[44.647916666665566,32.131249999999675],[44.664583333332274,32.131249999999675],[44.6729166666656,32.12291666666635]]}},{"type":"Feature","properties":{"HYRIV_ID":20755291,"NEXT_DOWN":20756680,"MAIN_RIV":20791150,"LENGTH_KM":4.39,"CATCH_SKM":16.0,"DIS_AV_CMS":0.086,"ORD_STRA":2,"ORD_FLOW":8},"geometry":{"type":"LineString","coordinates":[[45.03958333333222,32.13958333333303],[45.0479166666656,32.131249999999675],[45.06041666666559,32.131249999999675],[45.068749999998886,32.12291666666635],[45.07708333333221,32.12291666666635]]}},{"type":"Feature","properties":{"HYRIV_ID":20755292,"NEXT_DOWN":20756680,"MAIN_RIV":20791150,"LENGTH_KM":2.84,"CATCH_SKM":15.08,"DIS_AV_CMS":0.009,"ORD_STRA":1,"ORD_FLOW":9},"geometry":{"type":"LineString","coordinates":[[45.08541666666554,32.14583333333302],[45.08541666666554,32.131249999999675],[45.07708333333221,32.12291666666635]]}},{"type":"Feature","properties":{"HYRIV_ID":20755293,"NEXT_DOWN":20755964,"MAIN_RIV":20791150,"LENGTH_KM":20.120001,"CATCH_SKM":102.47,"DIS_AV_CMS":0.56300002,"ORD_STRA":3,"ORD_FLOW":7},"geometry":{"type":"LineString","coordinates":[[45.23541666666557,32.214583333333],[45.239583333332234,32.218749999999666],[45.24791666666556,32.218749999999666],[45.252083333332195,32.214583333333],[45.26458333333227,32.214583333333],[45.26874999999893,32.210416666666355],[45.26874999999893,32.20624999999969],[45.27708333333223,32.197916666666366],[45.28124999999889,32.197916666666366],[45.285416666665554,32.193749999999675],[45.285416666665554,32.18958333333301],[45.28958333333222,32.18541666666635],[45.29374999999888,32.18541666666635],[45.30208333333218,32.17708333333304],[45.30624999999884,32.17708333333304],[45.31041666666559,32.17291666666633],[45.31041666666559,32.16874999999968],[45.31458333333225,32.16874999999968],[45.318749999998914,32.16458333333302],[45.318749999998914,32.16041666666636],[45.32291666666558,32.16041666666636],[45.331249999998875,32.152083333333],[45.33541666666554,32.152083333333],[45.34374999999895,32.14374999999969],[45.34374999999895,32.13958333333303],[45.35624999999891,32.12708333333301],[45.37291666666556,32.12708333333301],[45.37708333333231,32.12291666666635],[45.38124999999886,32.12291666666635]]}},{"type":"Feature","properties":{"HYRIV_ID":20755294,"NEXT_DOWN":20755228,"MAIN_RIV":20791150,"LENGTH_KM":0.91,"CATCH_SKM":10.91,"DIS_AV_CMS":0.005,"ORD_STRA":1,"ORD_FLOW":9},"geometry":{"type":"LineString","coordinates":[[45.4874999999989,32.12083333333302],[45.4937499999989,32.12708333333301]]}},{"type":"Feature","properties":{"HYRIV_ID":20755357,"NEXT_DOWN":20754956,"MAIN_RIV":20791150,"LENGTH_KM":3.52,"CATCH_SKM":19.09,"DIS_AV_CMS":0.006,"ORD_STRA":1,"ORD_FLOW":9},"geometry":{"type":"LineString","coordinates":[[44.224999999998886,32.11666666666637],[44.2354166666656,32.12708333333301],[44.2354166666656,32.13541666666632],[44.23958333333226,32.13958333333303],[44.23958333333226,32.14374999999969]]}},{"type":"Feature","properties":{"HYRIV_ID":20755358,"NEXT_DOWN":20755663,"MAIN_RIV":20791150,"LENGTH_KM":1.39,"CATCH_SKM":1.8200001,"DIS_AV_CMS":0.89300001,"ORD_STRA":3,"ORD_FLOW":7},"geometry":{"type":"LineString","coordinates":[[44.6729166666656,32.12291666666635],[44.677083333332234,32.12291666666635],[44.6812499999989,32.1187499999997],[44.68541666666556,32.1187499999997]]}},{"type":"Feature","properties":{"HYRIV_ID":20755359,"NEXT_DOWN":20755663,"MAIN_RIV":20791150,"LENGTH_KM":5.21,"CATCH_SKM":15.09,"DIS_AV_CMS":0.18,"ORD_STRA":2,"ORD_FLOW":7},"geometry":{"type":"LineString","coordinates":[[44.70208333333218,32.16041666666636],[44.69791666666555,32.15624999999971],[44.69791666666555,32.152083333333],[44.693749999998886,32.14791666666634],[44.693749999998886,32.14374999999969],[44.68958333333222,32.13958333333303],[44.68958333333222,32.13541666666632],[44.68541666666556,32.131249999999675],[44.68541666666556,32.1187499999997]]}},{"type":"Feature","properties":{"HYRIV_ID":20755360,"NEXT_DOWN":20755421,"MAIN_RIV":20791150,"LENGTH_KM":1.52,"CATCH_SKM":17.629999,"DIS_AV_CMS":0.015,"ORD_STRA":1,"ORD_FLOW":8},"geometry":{"type":"LineString","coordinates":[[44.837499999998926,32.129166666666386],[44.82708333333221,32.1187499999997]]}},{"type":"Feature","properties":{"HYRIV_ID":20755361,"NEXT_DOWN":20755421,"MAIN_RIV":20791150,"LENGTH_KM":0.59,"CATCH_SKM":10.73,"DIS_AV_CMS":0.009,"ORD_STRA":1,"ORD_FLOW":9},"geometry":{"type":"LineString","coordinates":[[44.83333333333218,32.1187499999997],[44.82708333333221,32.1187499999997]]}},{"type":"Feature","properties":{"HYRIV_ID":20755419,"NEXT_DOWN":20755786,"MAIN_RIV":20791150,"LENGTH_KM":4.0,"CATCH_SKM":14.54,"DIS_AV_CMS":0.11,"ORD_STRA":2,"ORD_FLOW":7},"geometry":{"type":"LineString","coordinates":[[44.322916666665606,32.11458333333304],[44.32708333333227,32.1187499999997],[44.335416666665566,32.1187499999997],[44.34374999999889,32.12708333333301],[44.347916666665554,32.12291666666635],[44.356249999998965,32.12291666666635]]}},{"type":"Feature","properties":{"HYRIV_ID":20755420,"NEXT_DOWN":20756425,"MAIN_RIV":20791150,"LENGTH_KM":8.25,"CATCH_SKM":23.26,"DIS_AV_CMS":1.756,"ORD_STRA":4,"ORD_FLOW":6},"geometry":{"type":"LineString","coordinates":[[44.818749999998886,32.16874999999968],[44.82291666666555,32.16458333333302],[44.82291666666555,32.152083333333],[44.818749999998886,32.14791666666634],[44.81041666666556,32.14791666666634],[44.7979166666656,32.13541666666632],[44.818749999998886,32.11458333333304]]}},{"type":"Feature","properties":{"HYRIV_ID":20755421,"NEXT_DOWN":20756425,"MAIN_RIV":20791150,"LENGTH_KM":1.0,"CATCH_SKM":4.3600001,"DIS_AV_CMS":0.027,"ORD_STRA":2,"ORD_FLOW":8},"geometry":{"type":"LineString","coordinates":[[44.82708333333221,32.1187499999997],[44.82291666666555,32.11458333333304],[44.818749999998886,32.11458333333304]]}},{"type":"Feature","properties":{"HYRIV_ID":20755422,"NEXT_DOWN":20755966,"MAIN_RIV":20791150,"LENGTH_KM":2.61,"CATCH_SKM":8.1800003,"DIS_AV_CMS":1.909,"ORD_STRA":4,"ORD_FLOW":6},"geometry":{"type":"LineString","coordinates":[[45.643749999998846,32.12708333333301],[45.65208333333226,32.1187499999997],[45.65624999999892,32.1187499999997],[45.66041666666558,32.11458333333304],[45.664583333332246,32.11458333333304]]}},{"type":"Feature","properties":{"HYRIV_ID":20755423,"NEXT_DOWN":20755966,"MAIN_RIV":20791150,"LENGTH_KM":11.98,"CATCH_SKM":55.060001,"DIS_AV_CMS":0.004,"ORD_STRA":1,"ORD_FLOW":9},"geometry":{"type":"LineString","coordinates":[[45.72499999999894,32.19166666666634],[45.71874999999886,32.18541666666635],[45.71874999999886,32.1812499999997],[45.722916666665526,32.17708333333304],[45.722916666665526,32.17291666666633],[45.710416666665566,32.16041666666636],[45.71458333333223,32.15624999999971],[45.710416666665566,32.152083333333],[45.7062499999989,32.152083333333],[45.70208333333224,32.14791666666634],[45.69791666666558,32.14791666666634],[45.68124999999887,32.131249999999675],[45.677083333332206,32.131249999999675],[45.67291666666554,32.12708333333301],[45.67291666666554,32.12291666666635],[45.664583333332246,32.11458333333304]]}},{"type":"Feature","properties":{"HYRIV_ID":20755480,"NEXT_DOWN":20755665,"MAIN_RIV":20791150,"LENGTH_KM":17.25,"CATCH_SKM":63.060001,"DIS_AV_CMS":0.04,"ORD_STRA":1,"ORD_FLOW":8},"geometry":{"type":"LineString","coordinates":[[45.208333333332206,32.18541666666635],[45.21874999999895,32.18541666666635],[45.22291666666558,32.1812499999997],[45.227083333332246,32.1812499999997],[45.23124999999891,32.17708333333304],[45.23541666666557,32.1812499999997],[45.2437499999989,32.1812499999997],[45.24791666666556,32.17708333333304],[45.24791666666556,32.14791666666634],[45.252083333332195,32.14374999999969],[45.260416666665606,32.14374999999969],[45.26874999999893,32.152083333333],[45.272916666665594,32.14791666666634],[45.272916666665594,32.13541666666632],[45.285416666665554,32.12291666666635],[45.29791666666554,32.12291666666635],[45.30624999999884,32.11458333333304],[45.30208333333218,32.11041666666633]]}},{"type":"Feature","properties":{"HYRIV_ID":20755606,"NEXT_DOWN":20755419,"MAIN_RIV":20791150,"LENGTH_KM":7.5100002,"CATCH_SKM":34.189999,"DIS_AV_CMS":0.035,"ORD_STRA":1,"ORD_FLOW":8},"geometry":{"type":"LineString","coordinates":[[44.24999999999892,32.10208333333302],[44.256249999998914,32.10208333333302],[44.2645833333323,32.11041666666633],[44.3062499999989,32.11041666666633],[44.31041666666553,32.11458333333304],[44.322916666665606,32.11458333333304]]}},{"type":"Feature","properties":{"HYRIV_ID":20755607,"NEXT_DOWN":20755012,"MAIN_RIV":20791150,"LENGTH_KM":4.83,"CATCH_SKM":27.82,"DIS_AV_CMS":0.028,"ORD_STRA":1,"ORD_FLOW":8},"geometry":{"type":"LineString","coordinates":[[44.60208333333222,32.09999999999969],[44.60208333333222,32.106249999999726],[44.597916666665554,32.11041666666633],[44.597916666665554,32.1187499999997],[44.60624999999888,32.12708333333301],[44.60624999999888,32.13958333333303]]}},{"type":"Feature","properties":{"HYRIV_ID":20755663,"NEXT_DOWN":20756304,"MAIN_RIV":20791150,"LENGTH_KM":3.28,"CATCH_SKM":14.0,"DIS_AV_CMS":1.1289999,"ORD_STRA":3,"ORD_FLOW":6},"geometry":{"type":"LineString","coordinates":[[44.68541666666556,32.1187499999997],[44.693749999998886,32.11041666666633],[44.69791666666555,32.11041666666633],[44.70624999999893,32.10208333333302],[44.70624999999893,32.09791666666636]]}},{"type":"Feature","properties":{"HYRIV_ID":20755664,"NEXT_DOWN":20756304,"MAIN_RIV":20791150,"LENGTH_KM":4.23,"CATCH_SKM":27.09,"DIS_AV_CMS":0.024,"ORD_STRA":1,"ORD_FLOW":8},"geometry":{"type":"LineString","coordinates":[[44.73333333333221,32.12083333333302],[44.72708333333222,32.11458333333304],[44.72708333333222,32.106249999999726],[44.72291666666558,32.10208333333302],[44.71458333333226,32.10208333333302],[44.710416666665594,32.09791666666636],[44.70624999999893,32.09791666666636]]}},{"type":"Feature","properties":{"HYRIV_ID":20755665,"NEXT_DOWN":20755964,"MAIN_RIV":20791150,"LENGTH_KM":10.07,"CATCH_SKM":27.09,"DIS_AV_CMS":0.13500001,"ORD_STRA":2,"ORD_FLOW":7},"geometry":{"type":"LineString","coordinates":[[45.30208333333218,32.11041666666633],[45.31041666666559,32.10208333333302],[45.31458333333225,32.10208333333302],[45.318749999998914,32.09791666666636],[45.32708333333221,32.106249999999726],[45.331249999998875,32.106249999999726],[45.33541666666554,32.10208333333302],[45.34374999999895,32.10208333333302],[45.352083333332246,32.11041666666633],[45.36041666666557,32.11041666666633],[45.364583333332234,32.11458333333304],[45.37708333333231,32.11458333333304],[45.38124999999886,32.1187499999997],[45.38124999999886,32.12291666666635]]}},{"type":"Feature","properties":{"HYRIV_ID":20755716,"NEXT_DOWN":20755358,"MAIN_RIV":20791150,"LENGTH_KM":3.3900001,"CATCH_SKM":4.5500002,"DIS_AV_CMS":0.045,"ORD_STRA":2,"ORD_FLOW":8},"geometry":{"type":"LineString","coordinates":[[44.66874999999894,32.093749999999694],[44.66874999999894,32.11458333333304],[44.6729166666656,32.1187499999997],[44.6729166666656,32.12291666666635]]}},{"type":"Feature","properties":{"HYRIV_ID":20755717,"NEXT_DOWN":20755665,"MAIN_RIV":20791150,"LENGTH_KM":27.32,"CATCH_SKM":136.88,"DIS_AV_CMS":0.081,"ORD_STRA":1,"ORD_FLOW":8},"geometry":{"type":"LineString","coordinates":[[45.09583333333225,32.17708333333304],[45.102083333332246,32.17708333333304],[45.10624999999891,32.17291666666633],[45.114583333332234,32.17291666666633],[45.11874999999887,32.16874999999968],[45.13124999999894,32.16874999999968],[45.1437499999989,32.15624999999971],[45.147916666665566,32.15624999999971],[45.160416666665554,32.14374999999969],[45.160416666665554,32.13958333333303],[45.16874999999888,32.131249999999675],[45.16874999999888,32.12708333333301],[45.172916666665515,32.12291666666635],[45.17708333333226,32.12708333333301],[45.18541666666559,32.12708333333301],[45.193749999998914,32.1187499999997],[45.206249999998875,32.1187499999997],[45.21041666666554,32.11458333333304],[45.20208333333221,32.106249999999726],[45.20208333333221,32.10208333333302],[45.206249999998875,32.09791666666636],[45.21874999999895,32.09791666666636],[45.22291666666558,32.093749999999694],[45.24791666666556,32.093749999999694],[45.252083333332195,32.09791666666636],[45.260416666665606,32.09791666666636],[45.26874999999893,32.106249999999726],[45.272916666665594,32.106249999999726],[45.27708333333223,32.11041666666633],[45.30208333333218,32.11041666666633]]}},{"type":"Feature","properties":{"HYRIV_ID":20755718,"NEXT_DOWN":20755229,"MAIN_RIV":20791150,"LENGTH_KM":13.65,"CATCH_SKM":66.370003,"DIS_AV_CMS":0.018,"ORD_STRA":1,"ORD_FLOW":8},"geometry":{"type":"LineString","coordinates":[[45.51249999999885,32.09791666666636],[45.53124999999892,32.09791666666636],[45.535416666665554,32.093749999999694],[45.54374999999888,32.093749999999694],[45.55624999999887,32.106249999999726],[45.56041666666553,32.106249999999726],[45.564583333332166,32.11041666666633],[45.564583333332166,32.11458333333304],[45.585416666665566,32.13541666666632],[45.6104166666656,32.13541666666632],[45.62291666666556,32.14791666666634]]}},{"type":"Feature","properties":{"HYRIV_ID":20755719,"NEXT_DOWN":20755422,"MAIN_RIV":20791150,"LENGTH_KM":8.1899996,"CATCH_SKM":38.369999,"DIS_AV_CMS":0.003,"ORD_STRA":1,"ORD_FLOW":9},"geometry":{"type":"LineString","coordinates":[[45.585416666665566,32.09166666666638],[45.585416666665566,32.09791666666636],[45.59374999999886,32.106249999999726],[45.6187499999989,32.106249999999726],[45.62291666666556,32.11041666666633],[45.62291666666556,32.11458333333304],[45.631249999998886,32.11458333333304],[45.63541666666555,32.1187499999997],[45.63958333333221,32.1187499999997],[45.643749999998846,32.12291666666635],[45.643749999998846,32.12708333333301]]}},{"type":"Feature","properties":{"HYRIV_ID":20755786,"NEXT_DOWN":20756365,"MAIN_RIV":20791150,"LENGTH_KM":4.2800002,"CATCH_SKM":12.36,"DIS_AV_CMS":703.56403,"ORD_STRA":8,"ORD_FLOW":4},"geometry":{"type":"LineString","coordinates":[[44.356249999998965,32.12291666666635],[44.356249999998965,32.11041666666633],[44.37291666666559,32.093749999999694],[44.37291666666559,32.089583333333046]]}},{"type":"Feature","properties":{"HYRIV_ID":20755787,"NEXT_DOWN":20755716,"MAIN_RIV":20791150,"LENGTH_KM":1.91,"CATCH_SKM":12.0,"DIS_AV_CMS":0.011,"ORD_STRA":1,"ORD_FLOW":8},"geometry":{"type":"LineString","coordinates":[[44.65416666666553,32.095833333333026],[44.66041666666561,32.089583333333046],[44.664583333332274,32.093749999999694],[44.66874999999894,32.093749999999694]]}},{"type":"Feature","properties":{"HYRIV_ID":20755788,"NEXT_DOWN":20756163,"MAIN_RIV":20791150,"LENGTH_KM":2.6900001,"CATCH_SKM":22.73,"DIS_AV_CMS":0.017,"ORD_STRA":1,"ORD_FLOW":8},"geometry":{"type":"LineString","coordinates":[[45.98124999999885,32.10416666666635],[45.98124999999885,32.09791666666636],[45.9854166666656,32.093749999999694],[45.993749999998926,32.093749999999694],[45.99791666666559,32.089583333333046]]}},{"type":"Feature","properties":{"HYRIV_ID":20755789,"NEXT_DOWN":20756163,"MAIN_RIV":20791150,"LENGTH_KM":5.46,"CATCH_SKM":10.18,"DIS_AV_CMS":1.421,"ORD_STRA":4,"ORD_FLOW":6},"geometry":{"type":"LineString","coordinates":[[46.0270833333322,32.12291666666635],[46.01458333333221,32.12291666666635],[46.01041666666555,32.1187499999997],[46.01041666666555,32.106249999999726],[46.00208333333225,32.09791666666636],[46.00208333333225,32.093749999999694],[45.99791666666559,32.089583333333046]]}},{"type":"Feature","properties":{"HYRIV_ID":20755902,"NEXT_DOWN":20755419,"MAIN_RIV":20791150,"LENGTH_KM":6.3400002,"CATCH_SKM":23.459999,"DIS_AV_CMS":0.034,"ORD_STRA":1,"ORD_FLOW":8},"geometry":{"type":"LineString","coordinates":[[44.287499999998914,32.08124999999968],[44.302083333332234,32.08124999999968],[44.31041666666553,32.089583333333046],[44.31041666666553,32.093749999999694],[44.314583333332195,32.09791666666636],[44.31874999999894,32.09791666666636],[44.322916666665606,32.10208333333302],[44.322916666665606,32.106249999999726],[44.32708333333227,32.11041666666633],[44.322916666665606,32.11458333333304]]}},{"type":"Feature","properties":{"HYRIV_ID":20755903,"NEXT_DOWN":20756555,"MAIN_RIV":20791150,"LENGTH_KM":3.1500001,"CATCH_SKM":29.09,"DIS_AV_CMS":0.021,"ORD_STRA":1,"ORD_FLOW":8},"geometry":{"type":"LineString","coordinates":[[44.897916666665566,32.10833333333304],[44.897916666665566,32.089583333333046],[44.90208333333223,32.08541666666634],[44.90208333333223,32.08124999999968]]}},{"type":"Feature","properties":{"HYRIV_ID":20755904,"NEXT_DOWN":20756555,"MAIN_RIV":20791150,"LENGTH_KM":4.4099998,"CATCH_SKM":30.18,"DIS_AV_CMS":0.019,"ORD_STRA":1,"ORD_FLOW":8},"geometry":{"type":"LineString","coordinates":[[44.929166666665594,32.10416666666635],[44.91458333333219,32.089583333333046],[44.910416666665526,32.093749999999694],[44.90624999999889,32.089583333333046],[44.90624999999889,32.08541666666634],[44.90208333333223,32.08124999999968]]}},{"type":"Feature","properties":{"HYRIV_ID":20755964,"NEXT_DOWN":20756497,"MAIN_RIV":20791150,"LENGTH_KM":6.6,"CATCH_SKM":30.549999,"DIS_AV_CMS":0.708,"ORD_STRA":3,"ORD_FLOW":7},"geometry":{"type":"LineString","coordinates":[[45.38124999999886,32.12291666666635],[45.385416666665606,32.1187499999997],[45.385416666665606,32.11458333333304],[45.39374999999893,32.106249999999726],[45.39374999999893,32.10208333333302],[45.397916666665594,32.09791666666636],[45.40624999999889,32.09791666666636],[45.410416666665554,32.093749999999694],[45.410416666665554,32.07708333333303]]}},{"type":"Feature","properties":{"HYRIV_ID":20755965,"NEXT_DOWN":20756497,"MAIN_RIV":20791150,"LENGTH_KM":3.9400001,"CATCH_SKM":23.83,"DIS_AV_CMS":0.014,"ORD_STRA":1,"ORD_FLOW":8},"geometry":{"type":"LineString","coordinates":[[45.44999999999891,32.08124999999968],[45.42291666666554,32.08124999999968],[45.41874999999888,32.07708333333303],[45.410416666665554,32.07708333333303]]}},{"type":"Feature","properties":{"HYRIV_ID":20755966,"NEXT_DOWN":20756498,"MAIN_RIV":20791150,"LENGTH_KM":6.1100001,"CATCH_SKM":45.279999,"DIS_AV_CMS":1.918,"ORD_STRA":4,"ORD_FLOW":6},"geometry":{"type":"LineString","coordinates":[[45.664583333332246,32.11458333333304],[45.67291666666554,32.106249999999726],[45.677083333332206,32.106249999999726],[45.68124999999887,32.10208333333302],[45.68541666666553,32.10208333333302],[45.70208333333224,32.08541666666634],[45.70208333333224,32.08124999999968],[45.7062499999989,32.07708333333303]]}},{"type":"Feature","properties":{"HYRIV_ID":20756025,"NEXT_DOWN":20756162,"MAIN_RIV":20791150,"LENGTH_KM":5.77,"CATCH_SKM":37.82,"DIS_AV_CMS":0.07,"ORD_STRA":1,"ORD_FLOW":8},"geometry":{"type":"LineString","coordinates":[[43.99583333333226,32.09166666666638],[44.00208333333222,32.08541666666634],[44.006249999998886,32.08541666666634],[44.010416666665634,32.089583333333046],[44.022916666665594,32.089583333333046],[44.03124999999892,32.08124999999968],[44.03541666666558,32.08124999999968],[44.039583333332246,32.07708333333303],[44.039583333332246,32.072916666666366]]}},{"type":"Feature","properties":{"HYRIV_ID":20756026,"NEXT_DOWN":20756365,"MAIN_RIV":20791150,"LENGTH_KM":7.37,"CATCH_SKM":36.560001,"DIS_AV_CMS":0.067,"ORD_STRA":1,"ORD_FLOW":8},"geometry":{"type":"LineString","coordinates":[[44.32499999999894,32.07083333333299],[44.33124999999893,32.07708333333303],[44.335416666665566,32.07708333333303],[44.33958333333223,32.08124999999968],[44.335416666665566,32.08541666666634],[44.335416666665566,32.089583333333046],[44.34374999999889,32.089583333333046],[44.35208333333222,32.08124999999968],[44.36041666666563,32.08124999999968],[44.36458333333226,32.08541666666634],[44.368749999998926,32.08541666666634],[44.37291666666559,32.089583333333046]]}},{"type":"Feature","properties":{"HYRIV_ID":20756027,"NEXT_DOWN":20756557,"MAIN_RIV":20791150,"LENGTH_KM":1.52,"CATCH_SKM":15.46,"DIS_AV_CMS":0.006,"ORD_STRA":1,"ORD_FLOW":9},"geometry":{"type":"LineString","coordinates":[[45.866666666665594,32.08333333333301],[45.85624999999894,32.072916666666366]]}},{"type":"Feature","properties":{"HYRIV_ID":20756097,"NEXT_DOWN":20756162,"MAIN_RIV":20791150,"LENGTH_KM":4.14,"CATCH_SKM":21.65,"DIS_AV_CMS":1.568,"ORD_STRA":4,"ORD_FLOW":6},"geometry":{"type":"LineString","coordinates":[[43.99791666666556,32.06874999999966],[44.022916666665594,32.06874999999966],[44.02708333333226,32.072916666666366],[44.039583333332246,32.072916666666366]]}},{"type":"Feature","properties":{"HYRIV_ID":20756098,"NEXT_DOWN":20756230,"MAIN_RIV":20791150,"LENGTH_KM":14.12,"CATCH_SKM":81.639999,"DIS_AV_CMS":0.162,"ORD_STRA":1,"ORD_FLOW":7},"geometry":{"type":"LineString","coordinates":[[44.383333333332246,32.13333333333299],[44.393749999998875,32.12291666666635],[44.39791666666562,32.12291666666635],[44.402083333332286,32.1187499999997],[44.41041666666561,32.1187499999997],[44.42291666666557,32.106249999999726],[44.427083333332234,32.106249999999726],[44.45624999999893,32.07708333333303],[44.460416666665594,32.07708333333303],[44.46458333333226,32.072916666666366],[44.48958333333229,32.072916666666366],[44.493749999998926,32.06874999999966],[44.49791666666559,32.06874999999966]]}},{"type":"Feature","properties":{"HYRIV_ID":20756099,"NEXT_DOWN":20756230,"MAIN_RIV":20791150,"LENGTH_KM":4.12,"CATCH_SKM":29.82,"DIS_AV_CMS":0.042,"ORD_STRA":1,"ORD_FLOW":8},"geometry":{"type":"LineString","coordinates":[[44.48124999999888,32.095833333333026],[44.48124999999888,32.089583333333046],[44.48541666666563,32.08541666666634],[44.48958333333229,32.08541666666634],[44.49791666666559,32.07708333333303],[44.493749999998926,32.072916666666366],[44.49791666666559,32.06874999999966]]}},{"type":"Feature","properties":{"HYRIV_ID":20756100,"NEXT_DOWN":20756557,"MAIN_RIV":20791150,"LENGTH_KM":0.91,"CATCH_SKM":12.37,"DIS_AV_CMS":0.005,"ORD_STRA":1,"ORD_FLOW":9},"geometry":{"type":"LineString","coordinates":[[45.86249999999893,32.06666666666634],[45.85624999999894,32.072916666666366]]}},{"type":"Feature","properties":{"HYRIV_ID":20756162,"NEXT_DOWN":20756303,"MAIN_RIV":20791150,"LENGTH_KM":3.1800001,"CATCH_SKM":17.459999,"DIS_AV_CMS":1.66,"ORD_STRA":4,"ORD_FLOW":6},"geometry":{"type":"LineString","coordinates":[[44.039583333332246,32.072916666666366],[44.04374999999891,32.072916666666366],[44.04791666666557,32.06874999999966],[44.06458333333228,32.06874999999966],[44.06874999999894,32.06458333333301]]}},{"type":"Feature","properties":{"HYRIV_ID":20756163,"NEXT_DOWN":20756501,"MAIN_RIV":20791150,"LENGTH_KM":3.07,"CATCH_SKM":9.46,"DIS_AV_CMS":1.4400001,"ORD_STRA":4,"ORD_FLOW":6},"geometry":{"type":"LineString","coordinates":[[45.99791666666559,32.089583333333046],[45.99791666666559,32.08541666666634],[45.993749999998926,32.08124999999968],[45.993749999998926,32.07708333333303],[45.98958333333226,32.072916666666366],[45.98958333333226,32.06458333333301]]}},{"type":"Feature","properties":{"HYRIV_ID":20756164,"NEXT_DOWN":20756501,"MAIN_RIV":20791150,"LENGTH_KM":2.59,"CATCH_SKM":14.19,"DIS_AV_CMS":0.009,"ORD_STRA":1,"ORD_FLOW":9},"geometry":{"type":"LineString","coordinates":[[46.01249999999888,32.06458333333301],[46.006249999998886,32.06458333333301],[46.00208333333225,32.06874999999966],[45.99791666666559,32.06458333333301],[45.98958333333226,32.06458333333301]]}},{"type":"Feature","properties":{"HYRIV_ID":20756230,"NEXT_DOWN":20756894,"MAIN_RIV":20791150,"LENGTH_KM":2.3900001,"CATCH_SKM":17.1,"DIS_AV_CMS":0.235,"ORD_STRA":2,"ORD_FLOW":7},"geometry":{"type":"LineString","coordinates":[[44.49791666666559,32.06874999999966],[44.50208333333225,32.06874999999966],[44.506249999998914,32.06458333333301],[44.51041666666558,32.06458333333301],[44.51458333333224,32.06041666666635],[44.518749999998875,32.06041666666635]]}},{"type":"Feature","properties":{"HYRIV_ID":20756231,"NEXT_DOWN":20756894,"MAIN_RIV":20791150,"LENGTH_KM":1.37,"CATCH_SKM":14.19,"DIS_AV_CMS":0.017,"ORD_STRA":1,"ORD_FLOW":8},"geometry":{"type":"LineString","coordinates":[[44.524999999998954,32.07083333333299],[44.518749999998875,32.06458333333301],[44.518749999998875,32.06041666666635]]}},{"type":"Feature","properties":{"HYRIV_ID":20756303,"NEXT_DOWN":20756612,"MAIN_RIV":20791150,"LENGTH_KM":5.5700002,"CATCH_SKM":38.02,"DIS_AV_CMS":1.722,"ORD_STRA":4,"ORD_FLOW":6},"geometry":{"type":"LineString","coordinates":[[44.06874999999894,32.06458333333301],[44.085416666665566,32.06458333333301],[44.08958333333223,32.06874999999966],[44.09374999999889,32.06874999999966],[44.097916666665554,32.06458333333301],[44.1104166666656,32.06458333333301],[44.118749999998926,32.056249999999686]]}},{"type":"Feature","properties":{"HYRIV_ID":20756304,"NEXT_DOWN":20756424,"MAIN_RIV":20791150,"LENGTH_KM":5.6,"CATCH_SKM":30.01,"DIS_AV_CMS":1.182,"ORD_STRA":3,"ORD_FLOW":6},"geometry":{"type":"LineString","coordinates":[[44.70624999999893,32.09791666666636],[44.70624999999893,32.072916666666366],[44.71874999999892,32.06041666666635],[44.72291666666558,32.06041666666635],[44.72708333333222,32.056249999999686]]}},{"type":"Feature","properties":{"HYRIV_ID":20756305,"NEXT_DOWN":20756306,"MAIN_RIV":20791150,"LENGTH_KM":7.37,"CATCH_SKM":34.560001,"DIS_AV_CMS":0.019,"ORD_STRA":1,"ORD_FLOW":8},"geometry":{"type":"LineString","coordinates":[[45.29166666666555,32.08124999999968],[45.29791666666554,32.08124999999968],[45.30208333333218,32.07708333333303],[45.31458333333225,32.07708333333303],[45.33541666666554,32.056249999999686],[45.35624999999891,32.056249999999686]]}},{"type":"Feature","properties":{"HYRIV_ID":20756306,"NEXT_DOWN":20756497,"MAIN_RIV":20791150,"LENGTH_KM":6.8600001,"CATCH_SKM":18.74,"DIS_AV_CMS":0.051,"ORD_STRA":2,"ORD_FLOW":8},"geometry":{"type":"LineString","coordinates":[[45.35624999999891,32.056249999999686],[45.36041666666557,32.06041666666635],[45.364583333332234,32.06041666666635],[45.37291666666556,32.06874999999966],[45.37291666666556,32.072916666666366],[45.37708333333231,32.07708333333303],[45.38124999999886,32.07708333333303],[45.385416666665606,32.08124999999968],[45.38958333333227,32.08124999999968],[45.39374999999893,32.07708333333303],[45.410416666665554,32.07708333333303]]}},{"type":"Feature","properties":{"HYRIV_ID":20756307,"NEXT_DOWN":20756498,"MAIN_RIV":20791150,"LENGTH_KM":4.5900002,"CATCH_SKM":20.190001,"DIS_AV_CMS":0.001,"ORD_STRA":1,"ORD_FLOW":9},"geometry":{"type":"LineString","coordinates":[[45.674999999998875,32.06249999999968],[45.68124999999887,32.056249999999686],[45.689583333332195,32.056249999999686],[45.7062499999989,32.072916666666366],[45.7062499999989,32.07708333333303]]}},{"type":"Feature","properties":{"HYRIV_ID":20756365,"NEXT_DOWN":20756423,"MAIN_RIV":20791150,"LENGTH_KM":5.14,"CATCH_SKM":16.0,"DIS_AV_CMS":703.685,"ORD_STRA":8,"ORD_FLOW":4},"geometry":{"type":"LineString","coordinates":[[44.37291666666559,32.089583333333046],[44.37708333333225,32.08541666666634],[44.381249999998914,32.08541666666634],[44.38958333333221,32.07708333333303],[44.38958333333221,32.06874999999966],[44.393749999998875,32.06458333333301],[44.393749999998875,32.05208333333304]]}},{"type":"Feature","properties":{"HYRIV_ID":20756423,"NEXT_DOWN":20756677,"MAIN_RIV":20791150,"LENGTH_KM":0.61,"CATCH_SKM":0.36,"DIS_AV_CMS":703.75702,"ORD_STRA":8,"ORD_FLOW":4},"geometry":{"type":"LineString","coordinates":[[44.393749999998875,32.05208333333304],[44.39791666666562,32.04791666666633]]}},{"type":"Feature","properties":{"HYRIV_ID":20756424,"NEXT_DOWN":20757046,"MAIN_RIV":20791150,"LENGTH_KM":5.14,"CATCH_SKM":20.74,"DIS_AV_CMS":1.271,"ORD_STRA":3,"ORD_FLOW":6},"geometry":{"type":"LineString","coordinates":[[44.72708333333222,32.056249999999686],[44.73958333333229,32.056249999999686],[44.743749999998954,32.05208333333304],[44.772916666665566,32.05208333333304],[44.77708333333223,32.04791666666633]]}},{"type":"Feature","properties":{"HYRIV_ID":20756425,"NEXT_DOWN":20757046,"MAIN_RIV":20791150,"LENGTH_KM":9.1,"CATCH_SKM":38.009998,"DIS_AV_CMS":1.817,"ORD_STRA":4,"ORD_FLOW":6},"geometry":{"type":"LineString","coordinates":[[44.818749999998886,32.11458333333304],[44.81041666666556,32.106249999999726],[44.81041666666556,32.09791666666636],[44.80208333333226,32.089583333333046],[44.80208333333226,32.07708333333303],[44.789583333332274,32.06458333333301],[44.78541666666561,32.06458333333301],[44.77708333333223,32.056249999999686],[44.77708333333223,32.04791666666633]]}},{"type":"Feature","properties":{"HYRIV_ID":20756496,"NEXT_DOWN":20755716,"MAIN_RIV":20791150,"LENGTH_KM":7.4699998,"CATCH_SKM":34.57,"DIS_AV_CMS":0.03,"ORD_STRA":1,"ORD_FLOW":8},"geometry":{"type":"LineString","coordinates":[[44.64166666666557,32.04166666666635],[44.647916666665566,32.04791666666633],[44.647916666665566,32.05208333333304],[44.66041666666561,32.05208333333304],[44.664583333332274,32.056249999999686],[44.664583333332274,32.06041666666635],[44.66874999999894,32.06458333333301],[44.66874999999894,32.093749999999694]]}},{"type":"Feature","properties":{"HYRIV_ID":20756497,"NEXT_DOWN":20757207,"MAIN_RIV":20791150,"LENGTH_KM":4.2800002,"CATCH_SKM":9.1,"DIS_AV_CMS":0.773,"ORD_STRA":3,"ORD_FLOW":7},"geometry":{"type":"LineString","coordinates":[[45.410416666665554,32.07708333333303],[45.41458333333222,32.072916666666366],[45.410416666665554,32.06874999999966],[45.410416666665554,32.056249999999686],[45.41458333333222,32.05208333333304],[45.41458333333222,32.04791666666633],[45.41874999999888,32.04374999999967]]}},{"type":"Feature","properties":{"HYRIV_ID":20756498,"NEXT_DOWN":20756754,"MAIN_RIV":20791150,"LENGTH_KM":4.8600001,"CATCH_SKM":31.469999,"DIS_AV_CMS":1.92,"ORD_STRA":4,"ORD_FLOW":6},"geometry":{"type":"LineString","coordinates":[[45.7062499999989,32.07708333333303],[45.73958333333226,32.04374999999967]]}},{"type":"Feature","properties":{"HYRIV_ID":20756499,"NEXT_DOWN":20756754,"MAIN_RIV":20791150,"LENGTH_KM":20.870001,"CATCH_SKM":79.440002,"DIS_AV_CMS":0.52700001,"ORD_STRA":3,"ORD_FLOW":7},"geometry":{"type":"LineString","coordinates":[[45.77291666666551,32.20624999999969],[45.77291666666551,32.18958333333301],[45.768749999998875,32.18541666666635],[45.768749999998875,32.17291666666633],[45.76458333333221,32.16874999999968],[45.76458333333221,32.15624999999971],[45.768749999998875,32.152083333333],[45.76458333333221,32.14791666666634],[45.76458333333221,32.14374999999969],[45.77708333333226,32.131249999999675],[45.77708333333226,32.07708333333303],[45.768749999998875,32.06874999999966],[45.768749999998875,32.06458333333301],[45.76041666666555,32.056249999999686],[45.75208333333222,32.056249999999686],[45.73958333333226,32.04374999999967]]}},{"type":"Feature","properties":{"HYRIV_ID":20756500,"NEXT_DOWN":20756682,"MAIN_RIV":20791150,"LENGTH_KM":1.37,"CATCH_SKM":18.370001,"DIS_AV_CMS":0.012,"ORD_STRA":1,"ORD_FLOW":8},"geometry":{"type":"LineString","coordinates":[[45.958333333332234,32.05416666666637],[45.96458333333223,32.04791666666633],[45.96458333333223,32.04374999999967]]}},{"type":"Feature","properties":{"HYRIV_ID":20756501,"NEXT_DOWN":20756682,"MAIN_RIV":20791150,"LENGTH_KM":3.6800001,"CATCH_SKM":18.190001,"DIS_AV_CMS":1.456,"ORD_STRA":4,"ORD_FLOW":6},"geometry":{"type":"LineString","coordinates":[[45.98958333333226,32.06458333333301],[45.9854166666656,32.06041666666635],[45.9854166666656,32.056249999999686],[45.98124999999885,32.05208333333304],[45.97708333333222,32.05208333333304],[45.972916666665554,32.04791666666633],[45.96874999999889,32.04791666666633],[45.96458333333223,32.04374999999967]]}},{"type":"Feature","properties":{"HYRIV_ID":20756554,"NEXT_DOWN":20756974,"MAIN_RIV":20791150,"LENGTH_KM":4.3800001,"CATCH_SKM":41.84,"DIS_AV_CMS":0.034,"ORD_STRA":1,"ORD_FLOW":8},"geometry":{"type":"LineString","coordinates":[[44.83333333333218,32.05208333333304],[44.84374999999892,32.05208333333304],[44.84791666666558,32.04791666666633],[44.85624999999891,32.04791666666633],[44.864583333332206,32.03958333333302],[44.87291666666562,32.03958333333302]]}},{"type":"Feature","properties":{"HYRIV_ID":20756555,"NEXT_DOWN":20756974,"MAIN_RIV":20791150,"LENGTH_KM":6.64,"CATCH_SKM":25.110001,"DIS_AV_CMS":0.06,"ORD_STRA":2,"ORD_FLOW":8},"geometry":{"type":"LineString","coordinates":[[44.90208333333223,32.08124999999968],[44.90208333333223,32.06874999999966],[44.897916666665566,32.06458333333301],[44.897916666665566,32.04791666666633],[44.8937499999989,32.04374999999967],[44.87708333333228,32.04374999999967],[44.87291666666562,32.03958333333302]]}},{"type":"Feature","properties":{"HYRIV_ID":20756556,"NEXT_DOWN":20756898,"MAIN_RIV":20791150,"LENGTH_KM":9.33,"CATCH_SKM":40.369999,"DIS_AV_CMS":0.004,"ORD_STRA":1,"ORD_FLOW":9},"geometry":{"type":"LineString","coordinates":[[45.820833333332274,32.112499999999706],[45.814583333332195,32.106249999999726],[45.814583333332195,32.08124999999968],[45.82291666666558,32.072916666666366],[45.82291666666558,32.06874999999966],[45.82708333333224,32.06458333333301],[45.82708333333224,32.056249999999686],[45.82291666666558,32.05208333333304],[45.8312499999989,32.04374999999967],[45.82708333333224,32.03958333333302]]}},{"type":"Feature","properties":{"HYRIV_ID":20756557,"NEXT_DOWN":20756898,"MAIN_RIV":20791150,"LENGTH_KM":5.21,"CATCH_SKM":20.190001,"DIS_AV_CMS":0.014,"ORD_STRA":2,"ORD_FLOW":8},"geometry":{"type":"LineString","coordinates":[[45.85624999999894,32.072916666666366],[45.847916666665554,32.06458333333301],[45.847916666665554,32.06041666666635],[45.83958333333223,32.05208333333304],[45.83958333333223,32.04374999999967],[45.835416666665566,32.03958333333302],[45.82708333333224,32.03958333333302]]}},{"type":"Feature","properties":{"HYRIV_ID":20756612,"NEXT_DOWN":20756675,"MAIN_RIV":20791150,"LENGTH_KM":5.79,"CATCH_SKM":42.389999,"DIS_AV_CMS":1.947,"ORD_STRA":4,"ORD_FLOW":6},"geometry":{"type":"LineString","coordinates":[[44.118749999998926,32.056249999999686],[44.135416666665634,32.056249999999686],[44.14374999999896,32.04791666666633],[44.15624999999892,32.04791666666633],[44.16874999999891,32.03541666666636]]}},{"type":"Feature","properties":{"HYRIV_ID":20756613,"NEXT_DOWN":20756423,"MAIN_RIV":20791150,"LENGTH_KM":6.7,"CATCH_SKM":30.030001,"DIS_AV_CMS":0.048,"ORD_STRA":1,"ORD_FLOW":8},"geometry":{"type":"LineString","coordinates":[[44.3374999999989,32.033333333333026],[44.34374999999889,32.03958333333302],[44.347916666665554,32.03958333333302],[44.356249999998965,32.04791666666633],[44.36458333333226,32.04791666666633],[44.37291666666559,32.056249999999686],[44.38541666666558,32.056249999999686],[44.38958333333221,32.05208333333304],[44.393749999998875,32.05208333333304]]}},{"type":"Feature","properties":{"HYRIV_ID":20756673,"NEXT_DOWN":20756303,"MAIN_RIV":20791150,"LENGTH_KM":6.1799998,"CATCH_SKM":14.92,"DIS_AV_CMS":0.037,"ORD_STRA":2,"ORD_FLOW":8},"geometry":{"type":"LineString","coordinates":[[44.03124999999892,32.031249999999694],[44.03541666666558,32.03541666666636],[44.03541666666558,32.03958333333302],[44.04374999999891,32.04791666666633],[44.04791666666557,32.04374999999967],[44.052083333332206,32.04791666666633],[44.056249999998954,32.04791666666633],[44.06458333333228,32.056249999999686],[44.06458333333228,32.06041666666635],[44.06874999999894,32.06458333333301]]}},{"type":"Feature","properties":{"HYRIV_ID":20756674,"NEXT_DOWN":20756675,"MAIN_RIV":20791150,"LENGTH_KM":0.61,"CATCH_SKM":0.36,"DIS_AV_CMS":0.168,"ORD_STRA":3,"ORD_FLOW":7},"geometry":{"type":"LineString","coordinates":[[44.164583333332246,32.031249999999694],[44.16874999999891,32.03541666666636]]}},{"type":"Feature","properties":{"HYRIV_ID":20756675,"NEXT_DOWN":20757278,"MAIN_RIV":20791150,"LENGTH_KM":4.1799998,"CATCH_SKM":21.290001,"DIS_AV_CMS":2.1210001,"ORD_STRA":4,"ORD_FLOW":6},"geometry":{"type":"LineString","coordinates":[[44.16874999999891,32.03541666666636],[44.17291666666557,32.03958333333302],[44.177083333332234,32.03958333333302],[44.18124999999887,32.03541666666636],[44.20208333333227,32.03541666666636],[44.2062499999989,32.031249999999694]]}},{"type":"Feature","properties":{"HYRIV_ID":20756676,"NEXT_DOWN":20756677,"MAIN_RIV":20791150,"LENGTH_KM":3.52,"CATCH_SKM":17.110001,"DIS_AV_CMS":0.028,"ORD_STRA":1,"ORD_FLOW":8},"geometry":{"type":"LineString","coordinates":[[44.37083333333226,32.02916666666636],[44.38958333333221,32.04791666666633],[44.39791666666562,32.04791666666633]]}},{"type":"Feature","properties":{"HYRIV_ID":20756677,"NEXT_DOWN":20757045,"MAIN_RIV":20791150,"LENGTH_KM":2.82,"CATCH_SKM":20.02,"DIS_AV_CMS":703.83301,"ORD_STRA":8,"ORD_FLOW":4},"geometry":{"type":"LineString","coordinates":[[44.39791666666562,32.04791666666633],[44.402083333332286,32.04374999999967],[44.40624999999895,32.04374999999967],[44.41874999999891,32.031249999999694]]}},{"type":"Feature","properties":{"HYRIV_ID":20756678,"NEXT_DOWN":20757045,"MAIN_RIV":20791150,"LENGTH_KM":0.59,"CATCH_SKM":16.92,"DIS_AV_CMS":0.031,"ORD_STRA":1,"ORD_FLOW":8},"geometry":{"type":"LineString","coordinates":[[44.4249999999989,32.031249999999694],[44.41874999999891,32.031249999999694]]}},{"type":"Feature","properties":{"HYRIV_ID":20756679,"NEXT_DOWN":20756822,"MAIN_RIV":20791150,"LENGTH_KM":1.7,"CATCH_SKM":13.28,"DIS_AV_CMS":0.006,"ORD_STRA":1,"ORD_FLOW":9},"geometry":{"type":"LineString","coordinates":[[45.1437499999989,32.04166666666635],[45.1437499999989,32.03541666666636],[45.147916666665566,32.031249999999694],[45.15208333333223,32.031249999999694]]}},{"type":"Feature","properties":{"HYRIV_ID":20756680,"NEXT_DOWN":20756822,"MAIN_RIV":20791150,"LENGTH_KM":17.139999,"CATCH_SKM":60.740002,"DIS_AV_CMS":0.122,"ORD_STRA":2,"ORD_FLOW":7},"geometry":{"type":"LineString","coordinates":[[45.07708333333221,32.12291666666635],[45.081249999998875,32.1187499999997],[45.08541666666554,32.1187499999997],[45.089583333332286,32.11458333333304],[45.09791666666558,32.11458333333304],[45.102083333332246,32.11041666666633],[45.11041666666557,32.11041666666633],[45.135416666665606,32.08541666666634],[45.13958333333227,32.089583333333046],[45.1437499999989,32.089583333333046],[45.15208333333223,32.08124999999968],[45.15624999999889,32.08124999999968],[45.160416666665554,32.07708333333303],[45.160416666665554,32.06874999999966],[45.172916666665515,32.056249999999686],[45.16458333333222,32.04791666666633],[45.160416666665554,32.04791666666633],[45.15624999999889,32.04374999999967],[45.15624999999889,32.03541666666636],[45.15208333333223,32.031249999999694]]}},{"type":"Feature","properties":{"HYRIV_ID":20756681,"NEXT_DOWN":20757125,"MAIN_RIV":20791150,"LENGTH_KM":8.4499998,"CATCH_SKM":33.849998,"DIS_AV_CMS":0.016,"ORD_STRA":1,"ORD_FLOW":8},"geometry":{"type":"LineString","coordinates":[[45.89999999999887,32.02916666666636],[45.906249999998835,32.03541666666636],[45.906249999998835,32.03958333333302],[45.914583333332246,32.04791666666633],[45.91874999999891,32.04791666666633],[45.93124999999887,32.03541666666636],[45.93541666666553,32.03541666666636],[45.939583333332195,32.03958333333302],[45.95208333333224,32.03958333333302],[45.9562499999989,32.03541666666636],[45.960416666665566,32.03541666666636],[45.960416666665566,32.031249999999694]]}},{"type":"Feature","properties":{"HYRIV_ID":20756682,"NEXT_DOWN":20757125,"MAIN_RIV":20791150,"LENGTH_KM":1.53,"CATCH_SKM":1.64,"DIS_AV_CMS":1.467,"ORD_STRA":4,"ORD_FLOW":6},"geometry":{"type":"LineString","coordinates":[[45.96458333333223,32.04374999999967],[45.96458333333223,32.03541666666636],[45.960416666665566,32.031249999999694]]}},{"type":"Feature","properties":{"HYRIV_ID":20756749,"NEXT_DOWN":20756673,"MAIN_RIV":20791150,"LENGTH_KM":1.59,"CATCH_SKM":12.92,"DIS_AV_CMS":0.014,"ORD_STRA":1,"ORD_FLOW":8},"geometry":{"type":"LineString","coordinates":[[44.01666666666563,32.027083333333046],[44.022916666665594,32.027083333333046],[44.02708333333226,32.031249999999694],[44.03124999999892,32.031249999999694]]}},{"type":"Feature","properties":{"HYRIV_ID":20756750,"NEXT_DOWN":20756424,"MAIN_RIV":20791150,"LENGTH_KM":3.9100001,"CATCH_SKM":37.310001,"DIS_AV_CMS":0.032,"ORD_STRA":1,"ORD_FLOW":8},"geometry":{"type":"LineString","coordinates":[[44.71458333333226,32.024999999999714],[44.71458333333226,32.03541666666636],[44.71874999999892,32.03958333333302],[44.71874999999892,32.04374999999967],[44.72291666666558,32.04791666666633],[44.72291666666558,32.05208333333304],[44.72708333333222,32.056249999999686]]}},{"type":"Feature","properties":{"HYRIV_ID":20756751,"NEXT_DOWN":20756306,"MAIN_RIV":20791150,"LENGTH_KM":9.8,"CATCH_SKM":40.209999,"DIS_AV_CMS":0.02,"ORD_STRA":1,"ORD_FLOW":8},"geometry":{"type":"LineString","coordinates":[[45.28333333333222,32.049999999999706],[45.28958333333222,32.04374999999967],[45.28958333333222,32.03958333333302],[45.30208333333218,32.027083333333046],[45.32708333333221,32.027083333333046],[45.35624999999891,32.056249999999686]]}},{"type":"Feature","properties":{"HYRIV_ID":20756752,"NEXT_DOWN":20757208,"MAIN_RIV":20791150,"LENGTH_KM":0.59,"CATCH_SKM":10.92,"DIS_AV_CMS":0.006,"ORD_STRA":1,"ORD_FLOW":9},"geometry":{"type":"LineString","coordinates":[[45.4874999999989,32.027083333333046],[45.4937499999989,32.027083333333046]]}},{"type":"Feature","properties":{"HYRIV_ID":20756753,"NEXT_DOWN":20757208,"MAIN_RIV":20791150,"LENGTH_KM":0.69,"CATCH_SKM":14.92,"DIS_AV_CMS":0.008,"ORD_STRA":1,"ORD_FLOW":9},"geometry":{"type":"LineString","coordinates":[[45.4937499999989,32.033333333333026],[45.4937499999989,32.027083333333046]]}},{"type":"Feature","properties":{"HYRIV_ID":20756754,"NEXT_DOWN":20756897,"MAIN_RIV":20791150,"LENGTH_KM":2.1400001,"CATCH_SKM":6.9200001,"DIS_AV_CMS":3.24,"ORD_STRA":4,"ORD_FLOW":6},"geometry":{"type":"LineString","coordinates":[[45.73958333333226,32.04374999999967],[45.7437499999989,32.03958333333302],[45.7437499999989,32.03541666666636],[45.74791666666556,32.031249999999694],[45.74791666666556,32.027083333333046]]}},{"type":"Feature","properties":{"HYRIV_ID":20756821,"NEXT_DOWN":20756673,"MAIN_RIV":20791150,"LENGTH_KM":1.16,"CATCH_SKM":11.47,"DIS_AV_CMS":0.009,"ORD_STRA":1,"ORD_FLOW":9},"geometry":{"type":"LineString","coordinates":[[44.03124999999892,32.02083333333301],[44.03124999999892,32.031249999999694]]}},{"type":"Feature","properties":{"HYRIV_ID":20756822,"NEXT_DOWN":20757957,"MAIN_RIV":20791150,"LENGTH_KM":1.0700001,"CATCH_SKM":1.64,"DIS_AV_CMS":0.12800001,"ORD_STRA":2,"ORD_FLOW":7},"geometry":{"type":"LineString","coordinates":[[45.15208333333223,32.031249999999694],[45.15208333333223,32.027083333333046],[45.15624999999889,32.02291666666634]]}},{"type":"Feature","properties":{"HYRIV_ID":20756893,"NEXT_DOWN":20757206,"MAIN_RIV":20791150,"LENGTH_KM":0.98,"CATCH_SKM":11.1,"DIS_AV_CMS":0.016,"ORD_STRA":1,"ORD_FLOW":8},"geometry":{"type":"LineString","coordinates":[[44.53333333333228,32.01874999999968],[44.54374999999891,32.01874999999968]]}},{"type":"Feature","properties":{"HYRIV_ID":20756894,"NEXT_DOWN":20757206,"MAIN_RIV":20791150,"LENGTH_KM":5.5,"CATCH_SKM":32.57,"DIS_AV_CMS":0.296,"ORD_STRA":2,"ORD_FLOW":7},"geometry":{"type":"LineString","coordinates":[[44.518749999998875,32.06041666666635],[44.539583333332274,32.03958333333302],[44.539583333332274,32.031249999999694],[44.54374999999891,32.027083333333046],[44.54374999999891,32.01874999999968]]}},{"type":"Feature","properties":{"HYRIV_ID":20756895,"NEXT_DOWN":20757957,"MAIN_RIV":20791150,"LENGTH_KM":0.69,"CATCH_SKM":10.74,"DIS_AV_CMS":0.005,"ORD_STRA":1,"ORD_FLOW":9},"geometry":{"type":"LineString","coordinates":[[45.15624999999889,32.016666666666346],[45.15624999999889,32.02291666666634]]}},{"type":"Feature","properties":{"HYRIV_ID":20756896,"NEXT_DOWN":20757207,"MAIN_RIV":20791150,"LENGTH_KM":4.6599998,"CATCH_SKM":20.200001,"DIS_AV_CMS":0.011,"ORD_STRA":1,"ORD_FLOW":8},"geometry":{"type":"LineString","coordinates":[[45.3916666666656,32.024999999999714],[45.397916666665594,32.01874999999968],[45.40208333333226,32.01874999999968],[45.410416666665554,32.027083333333046],[45.410416666665554,32.03541666666636],[45.41874999999888,32.04374999999967]]}},{"type":"Feature","properties":{"HYRIV_ID":20756897,"NEXT_DOWN":20757686,"MAIN_RIV":20791150,"LENGTH_KM":1.22,"CATCH_SKM":1.46,"DIS_AV_CMS":3.279,"ORD_STRA":4,"ORD_FLOW":6},"geometry":{"type":"LineString","coordinates":[[45.74791666666556,32.027083333333046],[45.756249999998886,32.01874999999968]]}},{"type":"Feature","properties":{"HYRIV_ID":20756898,"NEXT_DOWN":20757686,"MAIN_RIV":20791150,"LENGTH_KM":8.8599997,"CATCH_SKM":47.68,"DIS_AV_CMS":0.025,"ORD_STRA":2,"ORD_FLOW":8},"geometry":{"type":"LineString","coordinates":[[45.82708333333224,32.03958333333302],[45.81874999999886,32.031249999999694],[45.79791666666554,32.031249999999694],[45.79374999999891,32.027083333333046],[45.789583333332246,32.031249999999694],[45.78541666666558,32.027083333333046],[45.78124999999892,32.031249999999694],[45.76458333333221,32.031249999999694],[45.756249999998886,32.02291666666634],[45.756249999998886,32.01874999999968]]}},{"type":"Feature","properties":{"HYRIV_ID":20756974,"NEXT_DOWN":20757123,"MAIN_RIV":20791150,"LENGTH_KM":3.75,"CATCH_SKM":7.64,"DIS_AV_CMS":0.1,"ORD_STRA":2,"ORD_FLOW":7},"geometry":{"type":"LineString","coordinates":[[44.87291666666562,32.03958333333302],[44.87291666666562,32.03541666666636],[44.87708333333228,32.031249999999694],[44.88124999999894,32.031249999999694],[44.8937499999989,32.01874999999968],[44.8937499999989,32.01458333333303]]}},{"type":"Feature","properties":{"HYRIV_ID":20757045,"NEXT_DOWN":20757885,"MAIN_RIV":20791150,"LENGTH_KM":2.8900001,"CATCH_SKM":11.1,"DIS_AV_CMS":703.88501,"ORD_STRA":8,"ORD_FLOW":4},"geometry":{"type":"LineString","coordinates":[[44.41874999999891,32.031249999999694],[44.41874999999891,32.027083333333046],[44.43541666666556,32.010416666666366]]}},{"type":"Feature","properties":{"HYRIV_ID":20757046,"NEXT_DOWN":20757123,"MAIN_RIV":20791150,"LENGTH_KM":13.14,"CATCH_SKM":44.23,"DIS_AV_CMS":3.3410001,"ORD_STRA":4,"ORD_FLOW":6},"geometry":{"type":"LineString","coordinates":[[44.77708333333223,32.04791666666633],[44.78541666666561,32.03958333333302],[44.789583333332274,32.03958333333302],[44.79374999999894,32.03541666666636],[44.7979166666656,32.03541666666636],[44.8062499999989,32.027083333333046],[44.81041666666556,32.027083333333046],[44.81458333333222,32.02291666666634],[44.831249999998875,32.02291666666634],[44.835416666665594,32.01874999999968],[44.84374999999892,32.01874999999968],[44.84791666666558,32.01458333333303],[44.85624999999891,32.01458333333303],[44.86041666666554,32.010416666666366],[44.87291666666562,32.010416666666366],[44.87708333333228,32.01458333333303],[44.8937499999989,32.01458333333303]]}},{"type":"Feature","properties":{"HYRIV_ID":20757047,"NEXT_DOWN":20757422,"MAIN_RIV":20791150,"LENGTH_KM":6.0500002,"CATCH_SKM":19.65,"DIS_AV_CMS":0.002,"ORD_STRA":1,"ORD_FLOW":9},"geometry":{"type":"LineString","coordinates":[[45.62083333333223,32.04166666666635],[45.62708333333222,32.04791666666633],[45.631249999998886,32.04374999999967],[45.631249999998886,32.03541666666636],[45.63541666666555,32.031249999999694],[45.63541666666555,32.01874999999968],[45.62708333333222,32.010416666666366],[45.62291666666556,32.010416666666366]]}},{"type":"Feature","properties":{"HYRIV_ID":20757123,"NEXT_DOWN":20757504,"MAIN_RIV":20791150,"LENGTH_KM":1.22,"CATCH_SKM":6.5500002,"DIS_AV_CMS":3.451,"ORD_STRA":4,"ORD_FLOW":6},"geometry":{"type":"LineString","coordinates":[[44.8937499999989,32.01458333333303],[44.90208333333223,32.00624999999966]]}},{"type":"Feature","properties":{"HYRIV_ID":20757124,"NEXT_DOWN":20757422,"MAIN_RIV":20791150,"LENGTH_KM":8.1599998,"CATCH_SKM":50.049999,"DIS_AV_CMS":0.013,"ORD_STRA":1,"ORD_FLOW":8},"geometry":{"type":"LineString","coordinates":[[45.56666666666558,32.03749999999969],[45.57708333333224,32.027083333333046],[45.57291666666558,32.02291666666634],[45.5812499999989,32.01458333333303],[45.5812499999989,32.010416666666366],[45.5895833333322,32.010416666666366],[45.59374999999886,32.00624999999966],[45.614583333332234,32.00624999999966],[45.6187499999989,32.010416666666366],[45.62291666666556,32.010416666666366]]}},{"type":"Feature","properties":{"HYRIV_ID":20757125,"NEXT_DOWN":20757344,"MAIN_RIV":20791150,"LENGTH_KM":3.6,"CATCH_SKM":17.290001,"DIS_AV_CMS":1.49,"ORD_STRA":4,"ORD_FLOW":6},"geometry":{"type":"LineString","coordinates":[[45.960416666665566,32.031249999999694],[45.960416666665566,32.027083333333046],[45.96458333333223,32.02291666666634],[45.96874999999889,32.02291666666634],[45.97708333333222,32.01458333333303],[45.97708333333222,32.00624999999966]]}},{"type":"Feature","properties":{"HYRIV_ID":20757126,"NEXT_DOWN":20757344,"MAIN_RIV":20791150,"LENGTH_KM":1.91,"CATCH_SKM":18.02,"DIS_AV_CMS":0.011,"ORD_STRA":1,"ORD_FLOW":8},"geometry":{"type":"LineString","coordinates":[[45.991666666665594,32.016666666666346],[45.98124999999885,32.00624999999966],[45.97708333333222,32.00624999999966]]}},{"type":"Feature","properties":{"HYRIV_ID":20757204,"NEXT_DOWN":20756674,"MAIN_RIV":20791150,"LENGTH_KM":4.4400001,"CATCH_SKM":18.389999,"DIS_AV_CMS":0.005,"ORD_STRA":1,"ORD_FLOW":9},"geometry":{"type":"LineString","coordinates":[[44.16041666666558,31.99999999999968],[44.16041666666558,32.00624999999966],[44.164583333332246,32.00624999999966],[44.16874999999891,32.010416666666366],[44.164583333332246,32.01458333333303],[44.16874999999891,32.01874999999968],[44.16874999999891,32.02291666666634],[44.164583333332246,32.027083333333046],[44.164583333332246,32.031249999999694]]}},{"type":"Feature","properties":{"HYRIV_ID":20757205,"NEXT_DOWN":20757886,"MAIN_RIV":20791150,"LENGTH_KM":0.59,"CATCH_SKM":12.38,"DIS_AV_CMS":0.017,"ORD_STRA":1,"ORD_FLOW":8},"geometry":{"type":"LineString","coordinates":[[44.541666666665606,32.00208333333304],[44.54791666666557,32.00208333333304]]}},{"type":"Feature","properties":{"HYRIV_ID":20757206,"NEXT_DOWN":20757886,"MAIN_RIV":20791150,"LENGTH_KM":2.0,"CATCH_SKM":3.46,"DIS_AV_CMS":0.317,"ORD_STRA":2,"ORD_FLOW":7},"geometry":{"type":"LineString","coordinates":[[44.54374999999891,32.01874999999968],[44.54374999999891,32.00624999999966],[44.54791666666557,32.00208333333304]]}},{"type":"Feature","properties":{"HYRIV_ID":20757207,"NEXT_DOWN":20757421,"MAIN_RIV":20791150,"LENGTH_KM":5.64,"CATCH_SKM":17.110001,"DIS_AV_CMS":0.78600001,"ORD_STRA":3,"ORD_FLOW":7},"geometry":{"type":"LineString","coordinates":[[45.41874999999888,32.04374999999967],[45.44791666666558,32.01458333333303],[45.44791666666558,32.00208333333304]]}},{"type":"Feature","properties":{"HYRIV_ID":20757208,"NEXT_DOWN":20757752,"MAIN_RIV":20791150,"LENGTH_KM":3.5,"CATCH_SKM":4.9099998,"DIS_AV_CMS":0.017,"ORD_STRA":2,"ORD_FLOW":8},"geometry":{"type":"LineString","coordinates":[[45.4937499999989,32.027083333333046],[45.49791666666556,32.02291666666634],[45.49791666666556,32.01874999999968],[45.489583333332234,32.010416666666366],[45.49791666666556,32.00208333333304]]}},{"type":"Feature","properties":{"HYRIV_ID":20757209,"NEXT_DOWN":20757752,"MAIN_RIV":20791150,"LENGTH_KM":3.73,"CATCH_SKM":19.66,"DIS_AV_CMS":0.009,"ORD_STRA":1,"ORD_FLOW":9},"geometry":{"type":"LineString","coordinates":[[45.524999999998926,32.024999999999714],[45.50208333333222,32.00208333333304],[45.49791666666556,32.00208333333304]]}},{"type":"Feature","properties":{"HYRIV_ID":20757277,"NEXT_DOWN":20756674,"MAIN_RIV":20791150,"LENGTH_KM":8.4300003,"CATCH_SKM":19.66,"DIS_AV_CMS":0.164,"ORD_STRA":3,"ORD_FLOW":7},"geometry":{"type":"LineString","coordinates":[[44.097916666665554,31.99791666666635],[44.10624999999894,32.00624999999966],[44.1104166666656,32.00208333333304],[44.12708333333222,32.00208333333304],[44.1395833333323,32.01458333333303],[44.14374999999896,32.01458333333303],[44.15624999999892,32.027083333333046],[44.16041666666558,32.027083333333046],[44.164583333332246,32.031249999999694]]}},{"type":"Feature","properties":{"HYRIV_ID":20757278,"NEXT_DOWN":20757884,"MAIN_RIV":20791150,"LENGTH_KM":6.4299998,"CATCH_SKM":45.860001,"DIS_AV_CMS":2.309,"ORD_STRA":4,"ORD_FLOW":6},"geometry":{"type":"LineString","coordinates":[[44.2062499999989,32.031249999999694],[44.210416666665566,32.031249999999694],[44.21874999999889,32.02291666666634],[44.222916666665554,32.02291666666634],[44.23124999999894,32.01458333333303],[44.2354166666656,32.01458333333303],[44.243749999998926,32.00624999999966],[44.24791666666559,32.00624999999966],[44.256249999998914,31.99791666666635]]}},{"type":"Feature","properties":{"HYRIV_ID":20757279,"NEXT_DOWN":20757504,"MAIN_RIV":20791150,"LENGTH_KM":22.16,"CATCH_SKM":111.52,"DIS_AV_CMS":0.057,"ORD_STRA":1,"ORD_FLOW":8},"geometry":{"type":"LineString","coordinates":[[44.98333333333224,32.10416666666635],[44.99791666666562,32.089583333333046],[44.99791666666562,32.08541666666634],[45.00208333333228,32.08124999999968],[45.00624999999894,32.08124999999968],[45.01458333333224,32.072916666666366],[45.01458333333224,32.06874999999966],[45.0187499999989,32.06458333333301],[45.0187499999989,32.056249999999686],[45.00208333333228,32.03958333333302],[45.00208333333228,32.03541666666636],[44.993749999998954,32.027083333333046],[44.98541666666557,32.027083333333046],[44.977083333332246,32.01874999999968],[44.96874999999892,32.01874999999968],[44.96041666666554,32.010416666666366],[44.956249999998875,32.010416666666366],[44.95208333333221,32.00624999999966],[44.95208333333221,32.00208333333304],[44.94791666666555,32.00208333333304],[44.943749999998886,31.99791666666635],[44.931249999998926,31.99791666666635],[44.91874999999894,32.010416666666366],[44.910416666665526,32.010416666666366],[44.90624999999889,32.00624999999966],[44.90208333333223,32.00624999999966]]}},{"type":"Feature","properties":{"HYRIV_ID":20757341,"NEXT_DOWN":20756612,"MAIN_RIV":20791150,"LENGTH_KM":9.3199997,"CATCH_SKM":19.66,"DIS_AV_CMS":0.213,"ORD_STRA":3,"ORD_FLOW":7},"geometry":{"type":"LineString","coordinates":[[44.06458333333228,31.993749999999686],[44.07708333333224,32.00624999999966],[44.0812499999989,32.00624999999966],[44.085416666665566,32.010416666666366],[44.08958333333223,32.010416666666366],[44.097916666665554,32.01874999999968],[44.097916666665554,32.027083333333046],[44.10624999999894,32.03541666666636],[44.10624999999894,32.03958333333302],[44.1104166666656,32.04374999999967],[44.1104166666656,32.04791666666633],[44.118749999998926,32.056249999999686]]}},{"type":"Feature","properties":{"HYRIV_ID":20757342,"NEXT_DOWN":20757343,"MAIN_RIV":20791150,"LENGTH_KM":1.98,"CATCH_SKM":11.47,"DIS_AV_CMS":0.001,"ORD_STRA":1,"ORD_FLOW":9},"geometry":{"type":"LineString","coordinates":[[45.674999999998875,32.00833333333299],[45.68541666666553,31.99791666666635],[45.68541666666553,31.993749999999686]]}},{"type":"Feature","properties":{"HYRIV_ID":20757343,"NEXT_DOWN":20756897,"MAIN_RIV":20791150,"LENGTH_KM":7.6100001,"CATCH_SKM":23.48,"DIS_AV_CMS":0.025,"ORD_STRA":2,"ORD_FLOW":8},"geometry":{"type":"LineString","coordinates":[[45.68541666666553,31.993749999999686],[45.69791666666558,32.00624999999966],[45.70208333333224,32.00624999999966],[45.7062499999989,32.010416666666366],[45.710416666665566,32.010416666666366],[45.71458333333223,32.01458333333303],[45.727083333332274,32.01458333333303],[45.73124999999894,32.01874999999968],[45.7354166666656,32.01874999999968],[45.7437499999989,32.027083333333046],[45.74791666666556,32.027083333333046]]}},{"type":"Feature","properties":{"HYRIV_ID":20757344,"NEXT_DOWN":20757506,"MAIN_RIV":20791150,"LENGTH_KM":1.39,"CATCH_SKM":1.46,"DIS_AV_CMS":1.5,"ORD_STRA":4,"ORD_FLOW":6},"geometry":{"type":"LineString","coordinates":[[45.97708333333222,32.00624999999966],[45.97708333333222,31.993749999999686]]}},{"type":"Feature","properties":{"HYRIV_ID":20757415,"NEXT_DOWN":20757885,"MAIN_RIV":20791150,"LENGTH_KM":5.3,"CATCH_SKM":26.040001,"DIS_AV_CMS":0.041,"ORD_STRA":1,"ORD_FLOW":8},"geometry":{"type":"LineString","coordinates":[[44.39583333333229,31.989583333333023],[44.40624999999895,31.989583333333023],[44.41041666666561,31.993749999999686],[44.42291666666557,31.993749999999686],[44.427083333332234,31.99791666666635],[44.4312499999989,31.99791666666635],[44.4312499999989,32.00208333333304],[44.43541666666556,32.00624999999966],[44.43541666666556,32.010416666666366]]}},{"type":"Feature","properties":{"HYRIV_ID":20757417,"NEXT_DOWN":20757505,"MAIN_RIV":20791150,"LENGTH_KM":2.55,"CATCH_SKM":17.110001,"DIS_AV_CMS":0.008,"ORD_STRA":1,"ORD_FLOW":9},"geometry":{"type":"LineString","coordinates":[[45.068749999998886,32.0124999999997],[45.068749999998886,31.989583333333023]]}},{"type":"Feature","properties":{"HYRIV_ID":20757418,"NEXT_DOWN":20758351,"MAIN_RIV":20791150,"LENGTH_KM":11.34,"CATCH_SKM":56.049999,"DIS_AV_CMS":0.026,"ORD_STRA":1,"ORD_FLOW":8},"geometry":{"type":"LineString","coordinates":[[45.208333333332206,32.045833333333],[45.2145833333322,32.03958333333302],[45.2145833333322,32.03541666666636],[45.21874999999895,32.031249999999694],[45.22291666666558,32.031249999999694],[45.23124999999891,32.02291666666634],[45.227083333332246,32.01874999999968],[45.23124999999891,32.01458333333303],[45.2437499999989,32.01458333333303],[45.252083333332195,32.00624999999966],[45.25624999999894,32.00624999999966],[45.25624999999894,32.00208333333304],[45.260416666665606,31.99791666666635],[45.26458333333227,32.00208333333304],[45.26874999999893,32.00208333333304],[45.27708333333223,31.993749999999686],[45.27708333333223,31.989583333333023]]}},{"type":"Feature","properties":{"HYRIV_ID":20757420,"NEXT_DOWN":20757421,"MAIN_RIV":20791150,"LENGTH_KM":5.4499998,"CATCH_SKM":28.58,"DIS_AV_CMS":0.015,"ORD_STRA":1,"ORD_FLOW":8},"geometry":{"type":"LineString","coordinates":[[45.40416666666559,31.99791666666635],[45.410416666665554,31.99791666666635],[45.41458333333222,31.993749999999686],[45.41874999999888,31.993749999999686],[45.42291666666554,31.989583333333023],[45.43124999999884,31.989583333333023],[45.4354166666655,31.993749999999686],[45.443749999998914,31.993749999999686],[45.44791666666558,31.99791666666635],[45.44791666666558,32.00208333333304]]}},{"type":"Feature","properties":{"HYRIV_ID":20757421,"NEXT_DOWN":20757888,"MAIN_RIV":20791150,"LENGTH_KM":1.68,"CATCH_SKM":8.0100002,"DIS_AV_CMS":0.80500001,"ORD_STRA":3,"ORD_FLOW":7},"geometry":{"type":"LineString","coordinates":[[45.44791666666558,32.00208333333304],[45.4562499999989,31.993749999999686],[45.4562499999989,31.989583333333023]]}},{"type":"Feature","properties":{"HYRIV_ID":20757422,"NEXT_DOWN":20757423,"MAIN_RIV":20791150,"LENGTH_KM":3.4300001,"CATCH_SKM":7.46,"DIS_AV_CMS":0.016,"ORD_STRA":2,"ORD_FLOW":8},"geometry":{"type":"LineString","coordinates":[[45.62291666666556,32.010416666666366],[45.62708333333222,32.00624999999966],[45.631249999998886,32.00624999999966],[45.647916666665594,31.989583333333023]]}},{"type":"Feature","properties":{"HYRIV_ID":20757504,"NEXT_DOWN":20757617,"MAIN_RIV":20791150,"LENGTH_KM":3.29,"CATCH_SKM":18.02,"DIS_AV_CMS":3.5610001,"ORD_STRA":4,"ORD_FLOW":6},"geometry":{"type":"LineString","coordinates":[[44.90208333333223,32.00624999999966],[44.910416666665526,31.99791666666635],[44.910416666665526,31.993749999999686],[44.91874999999894,31.985416666666374],[44.9229166666656,31.985416666666374]]}},{"type":"Feature","properties":{"HYRIV_ID":20757684,"NEXT_DOWN":20757955,"MAIN_RIV":20791150,"LENGTH_KM":5.98,"CATCH_SKM":42.59,"DIS_AV_CMS":0.038,"ORD_STRA":1,"ORD_FLOW":8},"geometry":{"type":"LineString","coordinates":[[44.620833333332286,32.02083333333301],[44.631249999998914,32.010416666666366],[44.631249999998914,32.00624999999966],[44.63958333333224,31.99791666666635],[44.63958333333224,31.972916666666357]]}},{"type":"Feature","properties":{"HYRIV_ID":20757686,"NEXT_DOWN":20757890,"MAIN_RIV":20791150,"LENGTH_KM":5.96,"CATCH_SKM":26.58,"DIS_AV_CMS":3.316,"ORD_STRA":4,"ORD_FLOW":6},"geometry":{"type":"LineString","coordinates":[[45.756249999998886,32.01874999999968],[45.76041666666555,32.01458333333303],[45.76041666666555,32.010416666666366],[45.76458333333221,32.00624999999966],[45.76458333333221,31.99791666666635],[45.77708333333226,31.985416666666374],[45.77708333333226,31.977083333333006],[45.78124999999892,31.972916666666357]]}},{"type":"Feature","properties":{"HYRIV_ID":20757752,"NEXT_DOWN":20757959,"MAIN_RIV":20791150,"LENGTH_KM":3.71,"CATCH_SKM":7.83,"DIS_AV_CMS":0.03,"ORD_STRA":2,"ORD_FLOW":8},"geometry":{"type":"LineString","coordinates":[[45.49791666666556,32.00208333333304],[45.49791666666556,31.968749999999694]]}},{"type":"Feature","properties":{"HYRIV_ID":20757810,"NEXT_DOWN":20757278,"MAIN_RIV":20791150,"LENGTH_KM":10.03,"CATCH_SKM":38.049999,"DIS_AV_CMS":0.174,"ORD_STRA":3,"ORD_FLOW":7},"geometry":{"type":"LineString","coordinates":[[44.16874999999891,31.96458333333303],[44.177083333332234,31.96458333333303],[44.18541666666562,31.972916666666357],[44.18541666666562,31.977083333333006],[44.197916666665606,31.989583333333023],[44.197916666665606,31.993749999999686],[44.20208333333227,31.99791666666635],[44.19374999999894,32.00624999999966],[44.19374999999894,32.01458333333303],[44.197916666665606,32.01874999999968],[44.197916666665606,32.027083333333046],[44.20208333333227,32.031249999999694],[44.2062499999989,32.031249999999694]]}},{"type":"Feature","properties":{"HYRIV_ID":20757885,"NEXT_DOWN":20758090,"MAIN_RIV":20791150,"LENGTH_KM":6.5700002,"CATCH_SKM":27.67,"DIS_AV_CMS":703.98199,"ORD_STRA":8,"ORD_FLOW":4},"geometry":{"type":"LineString","coordinates":[[44.43541666666556,32.010416666666366],[44.44374999999886,32.00208333333304],[44.44374999999886,31.993749999999686],[44.46458333333226,31.972916666666357],[44.46458333333226,31.960416666666383]]}},{"type":"Feature","properties":{"HYRIV_ID":20757886,"NEXT_DOWN":20757954,"MAIN_RIV":20791150,"LENGTH_KM":6.7199998,"CATCH_SKM":50.43,"DIS_AV_CMS":0.399,"ORD_STRA":2,"ORD_FLOW":7},"geometry":{"type":"LineString","coordinates":[[44.54791666666557,32.00208333333304],[44.56041666666556,31.989583333333023],[44.56458333333222,31.989583333333023],[44.585416666665594,31.968749999999694],[44.58958333333226,31.968749999999694],[44.59374999999892,31.96458333333303],[44.59374999999892,31.960416666666383]]}},{"type":"Feature","properties":{"HYRIV_ID":20757956,"NEXT_DOWN":20758896,"MAIN_RIV":20791150,"LENGTH_KM":22.940001,"CATCH_SKM":88.080002,"DIS_AV_CMS":0.038,"ORD_STRA":1,"ORD_FLOW":8},"geometry":{"type":"LineString","coordinates":[[45.07708333333221,32.08333333333301],[45.07708333333221,32.04791666666633],[45.081249999998875,32.04374999999967],[45.081249999998875,32.03958333333302],[45.08541666666554,32.03541666666636],[45.08541666666554,32.031249999999694],[45.10624999999891,32.010416666666366],[45.11041666666557,32.010416666666366],[45.12291666666553,31.99791666666635],[45.13124999999894,31.99791666666635],[45.13958333333227,31.989583333333023],[45.13958333333227,31.985416666666374],[45.15624999999889,31.968749999999694],[45.160416666665554,31.968749999999694],[45.16458333333222,31.972916666666357],[45.16874999999888,31.972916666666357],[45.172916666665515,31.977083333333006],[45.181249999998926,31.977083333333006],[45.18541666666559,31.972916666666357],[45.18541666666559,31.968749999999694],[45.18958333333225,31.96458333333303],[45.18958333333225,31.960416666666383],[45.193749999998914,31.956249999999677],[45.206249999998875,31.956249999999677]]}},{"type":"Feature","properties":{"HYRIV_ID":20757957,"NEXT_DOWN":20758896,"MAIN_RIV":20791150,"LENGTH_KM":9.9300003,"CATCH_SKM":31.129999,"DIS_AV_CMS":0.145,"ORD_STRA":2,"ORD_FLOW":7},"geometry":{"type":"LineString","coordinates":[[45.15624999999889,32.02291666666634],[45.16874999999888,32.010416666666366],[45.172916666665515,32.010416666666366],[45.18958333333225,31.993749999999686],[45.193749999998914,31.993749999999686],[45.206249999998875,31.98124999999971],[45.206249999998875,31.972916666666357],[45.21041666666554,31.968749999999694],[45.21041666666554,31.96458333333303],[45.206249999998875,31.960416666666383],[45.206249999998875,31.956249999999677]]}}]}